UNIQUEID,ADDRESS,CITY,STATE,ZIP
36639501,CROOKED HILL ROAD,BRENTWOOD,NY,11717
11891201,3333 MANCHESTER AVENUE,ENCINITAS,CA,92007
23826303,302 S GAMMON ROAD,MADISON,WI,53717
22148506,"3035 DIRECTORS ROW, BUILDING 6",MEMPHIS,TN,38131
21988802,1620 SPRINGER RD,LAWRENCEBURG,TN,38464
21988801,104 CLAUDE YATES DR,FRANKLIN,TN,37064
22206201,215 N COLLEGE ST,GREENEVILLE,TN,37745
22714601,901 N MLK JR. HIGHWAY,MEXIA,TX,76667
20793503,10300 EAST 81ST STREET,TULSA,OK,74133
20793502,3727 EAST APACHE STREET,TULSA,OK,74115
20793501,909 SOUTH BOSTON,TULSA,OK,74119
10150501,4600 VALLEYDALE ROAD,BIRMINGHAM,AL,35242
10206701,3401 M L KING JUNIOR BLVD,TUSCALOOSA,AL,35401
10261408,604 BARNETTE ST,FAIRBANKS,AK,99701
10434602,273 OLD WEST HIGHWAY,APACHE JUNCTION,AZ,85119
10552501,5901 SOUTH CALLE SANTA CRUZ,TUCSON,AZ,85706
10552502,1255 NORTH STONE AVE,TUCSON,AZ,85705
10552503,8181 EAST IRVINGTON ROAD,TUCSON,AZ,85730
10552504,7600 NORTH SHANNON ROAD,CASAS ADOBES,AZ,85741
10552505,2202 WEST ANKLAM RD,TUCSON,AZ,85709
10646701,1700 HELBERG LANE,OZARK,AR,72949
10935001,1529 E PALMDALE BLVD,PALMDALE,CA,93550
10935002,3041 WEST AVENUE K,LANCASTER,CA,93536
11051001,37500 COOK ST,PALM DESERT,CA,92211
11056501,3 BANTING,IRVINE,CA,92618
12720001,2190 MILLER DRIVE,LONGMONT,CO,80501
12720002,4616 S SHIELDS STREET,FORT COLLINS,CO,80526
13728101,2990 COLLEGE DRIVE,SAINT AUGUSTINE,FL,32084
13728102,283 COLLEGE DRIVE,ORANGE PARK,FL,32065
14227601,1784 SCIENCE CENTER DRIVE,IDAHO FALLS,ID,83402
14650601,1204 NETWORK CENTER BLVD,EFFINGHAM,IL,62401
15321401,1125 HANCOCK DRIVE,BOONE,IA,50036
15321404,1100 7TH STREET,DES MOINES,IA,50314
15321405,5959 GRAND AVENUE,WEST DES MOINES,IA,50266
15331102,152 COLORADO STREET,MUSCATINE,IA,52761
15531701,12600 QUIVIRA ROAD,OVERLAND PARK,KS,66213
21437901,3 OLD MILL RD,TANNERSVILLE,PA,18372
20726301,3100 E NEW ORLEANS,BROKEN ARROW,OK,74014
20840601,7738 SOUTHEAST HARMONY ROAD,PORTLAND,OR,97222
20974601,17705 NORTHWEST SPRINGVILLE ROAD,PORTLAND,OR,97229
20974602,705 N KILLINGSWORTH STREET,PORTLAND,OR,97217
20994001,114 S BARTLETT STREET,MEDFORD,OR,97501
20994002,7800 PACIFIC AVENUE,WHITE CITY,OR,97503
21060501,595 BEATTY RD,MONROEVILLE,PA,15146
21060502,8701 PERRY HIGHWAY,PITTSBURGH,PA,15237
21060503,1750 CLAIRTON ROAD,WEST MIFFLIN,PA,15122
21192701,912 SPRINGDALE DRIVE,EXTON,PA,19341
21192703,100 BOND DRIVE,DOWNINGTOWN,PA,19335
21287801,1641 OLD PHILADELPHIA PIKE,LANCASTER,PA,17602
21287802,2010 PENNSYLVANIA AVENUE,YORK,PA,17404
21287804,723 BENJAMIN FRANKLIN HWY,LEBANON,PA,17042
21835302,316 SOUTH BELTLINE BOULEVARD,COLUMBIA,SC,29205
21747501,1762 LOUISQUISSET PIKE,LINCOLN,RI,02865
21747502,1 HILTON STREET,PROVIDENCE,RI,02905
21747503,1 JOHN H CHAFEE BLVD,NEWPORT,RI,02840
21811301,1830 WEST GEORGIA ROAD,SIMPSONVILLE,SC,29680
21888501,511 MICHELIN BLVD,ANDERSON,SC,29625
21889401,1001 S LIVE OAK DRIVE,MONCKS CORNER,SC,29461
21889402,66 COLUMBUS STREET,CHARLESTON,SC,29403
21987901,2580 INGLISIDE AVENUE,ATHENS,TN,37303
22109602,225 CADILLAC LN,MCMINNVILLE,TN,37110
22109603,5002 MOTLOW COLLEGE BLVD,LA VERGNE,TN,37086
22148501,121 WEST COURT SQUARE,SOMERVILLE,TN,38068
22164301,2731 W LAMAR ALEXANDER PARKWAY,FRIENDSVILLE,TN,37737
22164302,3435 DIVISION ST,KNOXVILLE,TN,37919
22164303,1610 E MAGNOLIA AVENUE,KNOXVILLE,TN,37917
22148503,5983 MACON COVE,MEMPHIS,TN,38134
22299201,4400 COLLEGE PARK DRIVE,ROUND ROCK,TX,78665
22299202,1555 CYPRESS CREEK ROAD,CEDAR PARK,TX,78613
22299203,11928 STONEHOLLOW DRIVE,AUSTIN,TX,78758
22299204,1212 RIO GRANDE STREET,AUSTIN,TX,78701
22299205,3401 WEBBERVILLE ROAD,AUSTIN,TX,78702
22299206,1020 GROVE BLVD,AUSTIN,TX,78741
22299207,1820 W STASSNEY LANE,AUSTIN,TX,78745
22299208,7748 HIGHWAY 290 WEST,AUSTIN,TX,78736
22342701,2423 BLINN BLVD,BRYAN,TX,77802
22411001,1500 NORTH CORINTH STREET,CORINTH,TX,76208
22435001,AIRPORT AND OLD BROWNSVILLE ROADS,CORPUS CHRISTI,TX,78405
22542301,1900 PRESSLER STREET,HOUSTON,TX,77030
22542302,555 COMMUNITY COLLEGE DRIVE,HOUSTON,TX,77013
22542303,1550 FOXLAKE DRIVE,HOUSTON,TX,77084
22542304,6815 RUSTIC AVENUE,HOUSTON,TX,77087
22542305,5407 GULFTON,HOUSTON,TX,77081
22552002,3501 N US HIGHWAY 67,SAN ANGELO,TX,76905
22714603,1900 JOHN ARDEN DRIVE,WAXAHACHIE,TX,75165
22718201,9191 BARKER CYPRESS ROAD,CYPRESS,TX,77433
22718202,20000 KINGWOOD DRIVE,HOUSTON,TX,77365
22718203,2700 W.W. THORNE DRIVE,HOUSTON,TX,77073
22718204,30555 TOMBALL PARKWAY,TOMBALL,TX,77377
22797901,5800 UVALDE,HOUSTON,TX,77049
22797902,13735 BEAMER ROAD,HOUSTON,TX,77089
22815801,819 GILBERT DRIVE,REESE CENTER,TX,79416
22831601,207 WILDCAT DRIVE,DEL RIO,TX,78840
22831603,4003 HWY 277 SE,EAGLE PASS,TX,78852
22852902,6777 CAMP BOWIE BLVD,FORT WORTH,TX,76116
22854701,828 HARDWOOD ROAD,HURST,TX,76054
22854702,4801 MARINE CREEK PARKWAY,FORT WORTH,TX,76179
22854703,5301 CAMPUS DRIVE,FORT WORTH,TX,76119
22854704,2100 SOUTHEAST PARKWAY,ARLINGTON,TX,76018
22854705,300 TRINITY CAMPUS CIRCLE,FORT WORTH,TX,76102
22902701,501 W DURANGO STREET,SAN ANTONIO,TX,78207
22917901,6700 FANNIN STREET,HOUSTON,TX,77030
22984101,5333 FM 1640,RICHMOND,TX,77469
22984102,14004 UNIVERSITY BLVD,SUGAR LAND,TX,77479
23074601,3491 W 9000 S,WEST JORDAN,UT,84088
23074603,9750 S 300 W,SANDY,UT,84070
23074604,1575 S STATE STREET,SALT LAKE CITY,UT,84115
23078201,2750 N UNIVERSITY PARK BOULEVARD,LAYTON,UT,84041
23086105,1 ABENAKI WAY,WINOOSKI,VT,05404
23153601,15 SPORTS MEDICINE DRIVE,FISHERSVILLE,VA,22939
23403001,"700 E FRANKLIN SOUTH, 700 BUSINESS CTR",RICHMOND,VA,23298
23826301,211 N CARROLL STREET,MADISON,WI,53703
23826302,2238 SOUTH PARK STREET,MADISON,WI,53713
23826304,2125 COMMERCIAL AVENUE,MADISON,WI,53704
23826305,827 BANKER ROAD,FORT ATKINSON,WI,53538
23826306,330 W COLLINS STREET,PORTAGE,WI,53901
23826307,300 ALEXANDER AVENUE,REEDSBURG,WI,53959
23826308,1300 W MAIN STREET,WATERTOWN,WI,53098
23872201,150 N CAMPBELL ROAD,OSHKOSH,WI,54902
23872202,1200 E CHESTNUT STREET,CHILTON,WI,53014
23872204,2320 INDUSTRIAL DRIVE,NEENAH,WI,54956
23924801,5555 WEST HIGHLAND ROAD,MEQUON,WI,53092
23924802,6665 SOUTH HOWELL AVENUE,OAK CREEK,WI,53154
23924803,1200 SOUTH 71ST STREET,WEST ALLIS,WI,53214
24005501,1006 CONNIE ROAD,BARABOO,WI,53913
24005502,1800 COLLEGE DRIVE,RICE LAKE,WI,54868
24005503,400 UNIVERSITY DRIVE,FOND DU LAC,WI,54935
24005504,1478 MIDWAY ROAD,MENASHA,WI,54952
24005506,518 SOUTH 7TH AVENUE,WAUSAU,WI,54401
24005508,2000 WEST 5TH STREET,MARSHFIELD,WI,54449
24005510,2909 KELLOGG AVENUE,JANESVILLE,WI,53546
24005511,1 UNIVERSITY DRIVE,SHEBOYGAN,WI,53081
24005512,400 UNIVERSITY DRIVE,WEST BEND,WI,53095
24005513,1500 N UNIVERSITY DRIVE,WAUKESHA,WI,53188
24011601,770 SCHEIDLER ROAD,CHIPPEWA FALLS,WI,54729
24011602,403 TECHNOLOGY DRIVE,MENOMONIE,WI,54751
24019801,2100 BEASER AVENUE,ASHLAND,WI,54806
24019802,1019 S KNOWLES AVENUE,NEW RICHMOND,WI,54017
24019803,1900 COLLEGE DRIVE,RICE LAKE,WI,54868
24019804,600 NORTH 21ST STREET,SUPERIOR,WI,54880
24062001,1125 BOULDER DRIVE,LARAMIE,WY,82070
40931501,400 N BORDER,WESLACO,TX,78596
40931502,1101 E VERMONT,MCALLEN,TX,78503
40931503,142 FM 3167,RIO GRANDE CITY,TX,78582
40931504,3700 W MILITARY HIGHWAY,MCALLEN,TX,78503
45511403,6002 BIRCH LANE,NAMPA,ID,83687
22139701,701 BRIARCLIFF AVENUE,OAK RIDGE,TN,37830
23294601,3001 NORTH BEAUREGARD STREET,ALEXANDRIA,VA,22311
23294603,6901 SUDLEY ROAD,MANASSAS,VA,20109
23294602,1000 HARRY FLOOD BYRD HIGHWAY,STERLING,VA,20165
23294605,15200 NEABSCO MILLS ROAD,WOODBRIDGE,VA,22191
11219008,1125 VALENCIA ST.,SAN FRANCISCO,CA,94110
24443704,2101 WOMACK RD,DUNWOODY,GA,30338
11219003,88 4TH STREET,SAN FRANCISCO,CA,94103
24443703,555 NORTH INDIAN CREEK DRIVE,CLARKSTON,GA,30021
13338601,1155 COUNTY ROAD 4139,DELAND,FL,32724
11219009,450 CHURCH ST.,SAN FRANCISCO,CA,94114
11219005,1860 HAYES STREET,SAN FRANCISCO,CA,94117
23219501,10000 GERMANNA POINT DRIVE,FREDERICKSBURG,VA,22408
12334102,316 VERNON STREET,ROSEVILLE,CA,95661
21287803,731 OLD HARRISBURG ROAD,GETTYSBURG,PA,17325
23294604,6699 SPRINGFIELD CENTER DRIVE,SPRINGFIELD,VA,22150
13338603,2351 PROVIDENCE BLVD,DELTONA,FL,32725
13338605,3000 PALM COAST PARKWAY SOUTHEAST,PALM COAST,FL,32137
22148504,8800 EAST SHELBY DRIVE,MEMPHIS,TN,38125
13927801,997 SOUTH HIGHWAY 16,CARROLLTON,GA,30116
48269901,2001 SOUTH GEORGIA PARKWAY,WAYCROSS,GA,31503
22206202,1720 OLD NEWPORT HWY,SEVIERVILLE,TN,37876
11219004,1400 EVANS AVENUE,SAN FRANCISCO,CA,94124
13927803,4600 TIMBER RIDGE DRIVE,DOUGLASVILLE,GA,30135
45511402,1360 SOUTH EAGLE FLIGHT WAY,BOISE CITY,ID,83709
13970001,5441 HIGHWAY 20,CARTERSVILLE,GA,30121
13338602,1770 TECHNOLOGY BLVD,DAYTONA BEACH,FL,32117
23946001,312 FORREST AVENUE,ANTIGO,WI,54409
13338604,940 10TH ST,NEW SMYRNA BEACH,FL,32168
45511401,2407 CALDWELL BLVD,NAMPA,ID,83651
10261405,2175 UNIVERSITY AVENUE SOUTH,FAIRBANKS,AK,99775
48215802,"1100 SECOND STREET, S.E.",COCHRAN,GA,31014
13927802,160 MARTIN LUTHER KING JR DR,NEWNAN,GA,30263
22005702,3149 HIGHWAY 51 S,COVINGTON,TN,38019
21811302,2522 LOCUST HILL ROAD,TAYLORS,SC,29687
48215804,100 UNIVERSITY BLVD,WARNER ROBBINS,GA,31093
11834701,1800 IGNACIO BLVD,NOVATO,CA,94949
15686001,202 BASTOGNE AVENUE,CLARKSVILLE,TN,42223
11219002,750 EDDY STREET,SAN FRANCISCO,CA,94109
11219006,1800 OAKDALE AVE.,SAN FRANCISCO,CA,94124
12902001,1345 TROUT BROOK DR,WEST HARTFORD,CT,06117
21192702,2000 ELMWOOD AVENUE,SHARON HILL,PA,19079
14977201,3561 60TH STREET,MOLINE,IL,61265
13995901,2530 SEVER ROAD,LAWRENCEVILLE,GA,30043
23375401,4601 OPPORTUNITY WAY,WILLIAMSBURG,VA,23188
11493801,365 FOURTH STREET,HOLLISTER,CA,95023
11493802,17060 MONTEREY ST.,MORGAN HILL,CA,95037
105215,2844 W DEER VALLEY RD,PHOENIX,AZ,85027
110361,8432 MAGNOLIA AVE,RIVERSIDE,CA,92504
113698,50 ACACIA AVE,SAN RAFAEL,CA,94901
117672,16200 EAST AMBER VALLEY DRIVE,WHITTIER,CA,90604
121309,3900 LOMALAND DR,SAN DIEGO,CA,92106
127158,1860 LINCOLN STREET,DENVER,CO,80203
138309,4755 SOUTHWEST 46TH COURT,OCALA,FL,34474
141644,1 ALOHA TOWER DRIVE,HONOLULU,HI,96813
144281,600 SOUTH MICHIGAN,CHICAGO,IL,60605
155052,3301 W 18TH ST,EMPORIA,KS,66801
156860,720 NORTH DR.,HOPKINSVILLE,KY,42240
156921,109 E BROADWAY,LOUISVILLE,KY,40202
165662,120 BOYLSTON STREET,BOSTON,MA,02116
167312,1 FERNCROFT RD,DANVERS,MA,01923
184995,70 SIP AVENUE,JERSEY CITY,NJ,07306
189228,3 EAST 43 STREET,NEW YORK,NY,10017
186380,83 SOMERSET ST,NEW BRUNSWICK,NJ,08901
187046,111 W STATE ST,TRENTON,NJ,08608
244437,33 GILMER ST.,ATLANTA,GA,30303
134495,39 COLUMBIA DRIVE,TAMPA,FL,33606
461148,3300 WEST RIVERSIDE DRIVE,BURBANK,CA,91505
102429,1411 INDIANA AVENUE,JASPER,AL,35501
104160,2020 S. AVENUE 8E,YUMA,AZ,85365
102368,UNIVERSITY AVENUE,TROY,AL,36082
101505,2601 CARSON RD,BIRMINGHAM,AL,35215
104346,8470 N OVERFIELD RD,COOLIDGE,AZ,85128
102094,307 N UNIVERSITY BLVD,MOBILE,AL,36688
105747,9000 E CHAPARRAL RD,SCOTTSDALE,AZ,85256
101514,6250 U S HIGHWAY 31 N,TANNER,AL,35671
101602,1000 DANNELLY BLVD.,ANDALUSIA,AL,36420
106397,ADMINISTRATION BLDG 425,FAYETTEVILLE,AR,72701
108807,800 SOUTH COLLEGE DRIVE,SANTA MARIA,CA,93454
110574,25800 CARLOS BEE BLVD,HAYWARD,CA,94542
143118,347 S GLADSTONE AVE,AURORA,IL,60506
139144,2277 MARTHA BERRY HWY NW,MOUNT BERRY,GA,30149
142285,875 PERIMETER DRIVE MS 2282,MOSCOW,ID,83844
131113,320 DUPONT HWY,NEW CASTLE,DE,19720
110413,60 W OLSEN RD,THOUSAND OAKS,CA,91360
143613,2400 TOM L. WILSON BOULEVARD,GALESBURG,IL,61401
135726,UNIVERSITY OF MIAMI,CORAL GABLES,FL,33146
154396,1501 WEST TOWNLINE STREET,CRESTON,IA,50801
147776,5500 N SAINT LOUIS AVE,CHICAGO,IL,60625
153472,525 GRANDVIEW AVE,OTTUMWA,IA,52501
153603,1750 BEARDSHEAR HALL,AMES,IA,50011
153737,6301 KIRKWOOD BLVD SW,CEDAR RAPIDS,IA,52406
154378,1500 WEST AGENCY ROAD,WEST BURLINGTON,IA,52655
154800,901 S HAVERHILL RD,EL DORADO,KS,67042
155292,7250 STATE AVE,KANSAS CITY,KS,66112
144740,1 E JACKSON BLVD,CHICAGO,IL,60604
153533,19 S 7TH ST,ESTHERVILLE,IA,51334
153524,ONE TRITON CIRCLE,FORT DODGE,IA,50501
153214,2006 ANKENY BLVD,ANKENY,IA,50023
155335,3100 MCCORMICK AVE,WICHITA,KS,67213
155399,"919 MID-CAMPUS DRIVE, ANDERSON HALL",MANHATTAN,KS,66506
157818,300 N BROADWAY,LEXINGTON,KY,40508
161545,2 FORT ROAD,SOUTH PORTLAND,ME,04106
169521,1961 DELTA ROAD,UNIVERSITY CENTER,MI,48710
170082,1 CAMPUS DR,ALLENDALE,MI,49401
170240,5101 EVERGREEN RD,DEARBORN,MI,48128
164924,140 COMMONWEALTH AVENUE,CHESTNUT HILL,MA,02467
167376,100 ELLIOTT STREET,HAVERHILL,MA,01830
155566,800 W 14TH ST,CHANUTE,KS,66720
168883,2001 N LINCOLN ROAD,ESCANABA,MI,49829
164720,61 SEVER ST,WORCESTER,MA,01609
171100,NOT AVAILABLE,EAST LANSING,MI,48824
172671,3000 N STILES RD,SCOTTVILLE,MI,49454
174020,700 EAST SEVENTH STREET,SAINT PAUL,MN,55106
172635,801 W. FORT STREET,DETROIT,MI,48226
173045,2211 RIVERSIDE AVE,MINNEAPOLIS,MN,55454
172477,300 S CAPITOL AVE,LANSING,MI,48901
173638,1593 11TH AVE,GRANITE FALLS,MN,56241
171395,1515 HOWARD ST,PETOSKEY,MI,49770
173911,1920 LEE BLVD,NORTH MANKATO,MN,56003
174066,100 CHURCH STREET SE,MINNEAPOLIS,MN,55455
174233,515 DARLAND ADMINISTRATION BLDG,DULUTH,MN,55812
175652,1512 KEMPER STREET,SCOOBA,MS,39358
175829,602 W HILL STREET,FULTON,MS,38843
174817,700 TERRACE HEIGHTS,WINONA,MN,55987
175014,226 PARK AVENUE SOUTH,ST. CLOUD,MN,56301
175573,1001 CO-LIN LANE,WESSON,MS,39191
175342,1000 ASU DR STE 359,ALCORN STATE,MS,39096
176071,51 MAIN STREET,PERKINSTON,MS,39573
175810,#1 HILL ST,GOODMAN,MS,39079
176169,101 CUNNINGHAM BLVD,BOONEVILLE,MS,38829
176178,4975 HWY 51 N,SENATOBIA,MS,38668
177676,1000 VIKING DRIVE,HILLSBORO,MO,63050
177995,3200 BROADWAY,KANSAS CITY,MO,64111
178059,650 MARYVILLE UNIVERSITY DRIVE,SAINT LOUIS,MO,63141
178396,105 JESSE HALL,COLUMBIA,MO,65211
178402,5100 ROCKHILL RD.,KANSAS CITY,MO,64110
179308,300 SOUTH BROADWAY,SAINT LOUIS,MO,63102
179159,ONE NORTH GRAND BLVD,SAINT LOUIS,MO,63103
177472,1001 E. CHESTNUT EXPRESSWAY,SPRINGFIELD,MO,65802
177250,1964 PRAIRIE DELL RD,UNION,MO,63084
176239,101 HWY 11 N,POPLARVILLE,MS,39470
179557,"ONE UNIVERSITY PLAZA, MS4675",CAPE GIRARDEAU,MO,63701
179964,ONE UNIVERSITY AVENUE,FULTON,MO,65251
186131,1 NASSAU HALL,PRINCETON,NJ,08544
183114,1 COLLEGE PLACE,CLAREMONT,NH,03743
183859,765 NEWMAN SPRINGS RD,LINCROFT,NJ,07738
183938,200 COLLEGE DRIVE,BLACKWOOD,NJ,08012
188100,4601 COLLEGE BLVD,FARMINGTON,NM,87402
183743,400 PARAMUS RD,PARAMUS,NJ,07652
187897,UNIVERSITY AVE,LAS VEGAS,NM,87701
183655,5100 BLACK HORSE PIKE,MAYS LANDING,NJ,08330
179539,3201 W 16TH STREET,SEDALIA,MO,65301
199193,2101 HILLSBOROUGH STREET,RALEIGH,NC,27695
212878,1 HACC DR.,HARRISBURG,PA,17110
214111,340 DEKALB PIKE,BLUE BELL,PA,19422
215239,1700 SPRING GARDEN ST,PHILADELPHIA,PA,19130
207281,1220 E GRAND AVE,TONKAWA,OK,74653
211927,901 S MEDIA LINE RD,MEDIA,PA,19063
213376,501 VINE ST,SCRANTON,PA,18509
209490,3181 SW SAM JACKSON PARK RD,PORTLAND,OR,97239
188225,1157 COUNTY ROAD 110,RANCHOS DE TAOS,NM,87557
215655,6001 UNIVERSITY BOULEVARD,MOON TOWNSHIP,PA,15108
219888,1665 HAMPSHIRE PIKE,COLUMBIA,TN,38401
228431,"2008 ALUMNI DRIVE, RUSK 206",NACOGDOCHES,TX,75961
222992,5930 MIDDLE FISKVILLE RD,AUSTIN,TX,78752
225308,100 CARDINAL DRIVE,ATHENS,TX,75751
218113,506 S PLEASANTBURG DR,GREENVILLE,SC,29606
221485,737 UNION AVENUE,MEMPHIS,TN,38103
218830,107 COMMUNITY COLLEGE DRIVE,SPARTANBURG,SC,29303
223320,3800 CHARCO RD,BEEVILLE,TX,78102
219204,5301 SOUTH HIGHWAY 16,RAPID CITY,SD,57701
218681,465 JAMES BRANDT BLVD,ALLENDALE,SC,29810
223816,6200 WEST CENTRAL TEXAS EXPRESSWAY,KILLEEN,TX,76549
226204,511 S WHITING,BAYTOWN,TX,77520
228501,HWY 90 EAST,ALPINE,TX,79832
236258,1502 E LAURIDSEN BLVD,PORT ANGELES,WA,98362
230737,800 W UNIVERSITY PARKWAY,OREM,UT,84058
233921,"210 BURRUSS HALL, 800 DRILLFIELD DR.",BLACKSBURG,VA,24061
232025,30461 GARNAND DRIVE,EMORY,VA,24327
235097,526 5TH STREET,CHENEY,WA,99004
236638,2405 E. COLLEGE WAY,MOUNT VERNON,WA,98273
236692,1810 NORTH GREENE STREET,SPOKANE,WA,99217
235343,12401 SE 320TH ST,AUBURN,WA,98092
235334,1620 EDWARD P SMITH DRIVE,ABERDEEN,WA,98520
230490,200 N WASHINGTON BLVD,OGDEN,UT,84404
233019,645 PATRIOT AVENUE,MARTINSVILLE,VA,24112
231873,1000 DABNEY DRIVE,CLIFTON FORGE,VA,24422
237817,DEMPSEY BRANCH ROAD,MOUNT GAY,WV,25637
238263,1701 WRIGHT STREET,MADISON,WI,53704
238616,12800 N LAKE SHORE DR,MEQUON,WI,53097
238759,3520 30TH AVE,KENOSHA,WI,53144
239008,1290 NORTH AVENUE,CLEVELAND,WI,53015
239220,500 32ND ST N,WISCONSIN RAPIDS,WI,54494
240170,400 SEVENTH ST. NORTH,LA CROSSE,WI,54601
248934,5555 GREENWICH RD,VIRGINIA BEACH,VA,23462
238722,1825 N BLUEMOUND DR,APPLETON,WI,54912
404426,2800 S. LONE TREE RD.,FLAGSTAFF,AZ,86005
434672,7201 ROSSVILLE BLVD.,BALTIMORE,MD,21237
238397,6004 SOUTH COUNTY ROAD G,JANESVILLE,WI,53547
237932,208 UNIVERSITY DRIVE,WEST LIBERTY,WV,26074
239460,1000 CAMPUS DR,WAUSAU,WI,54401
482705,360 HUNTINGTON AVE,BOSTON,MA,02115
484932,2001 UNION CARBIDE DR,SOUTH  CHARLESTON,WV,25136
123013,1501 MENDOCINO AVENUE,SANTA ROSA,CA,95401
123217,915 S. MOONEY BLVD,VISALIA,CA,93277
123563,4000 SUISUN VALLEY RD,FAIRFIELD,CA,94534
114938,5055 SANTA TERESA BLVD,GILROY,CA,95020
196565,170 NORTH ST,DRYDEN,NY,13053
196592,500 7TH AVENUE,NEW YORK,NY,10018
445735,11 SUNSET WAY,HENDERSON,NV,89014
118718,3600 M ST,MERCED,CA,95348
122658,5151 PACIFIC AVE,STOCKTON,CA,95207
188526,106 NEW SCOTLAND AVENUE,ALBANY,NY,12208
367954,700 WINDY POINT DRIVE,SAN MARCOS,CA,92069
458210,1477 S MANCHESTER AVE,ANAHEIM,CA,92802
459204,4670 AUTO MALL PKWY,FREMONT,CA,94538
245625,475 ROUTE 57 W,WASHINGTON,NJ,07882
196653,360 CHOATE AVE,BUFFALO,NY,14220
187198,1033 SPRINGFIELD AVENUE,CRANFORD,NJ,07016
188429,SOUTH AVE,GARDEN CITY,NY,11530
190840,53 PENDELL RD,POUGHKEEPSIE,NY,12601
120290,43600 MISSION BLVD,FREMONT,CA,94539
194310,1 PACE PLAZA,NEW YORK,NY,10038
455512,2300 E GIBSON RD,WOODLAND,CA,95776
121044,1570 E COLORADO BLVD.,PASADENA,CA,91106
205966,100 HOBART DRIVE,HILLSBORO,OH,45133
122728,2121 UNIVERSITY AVENUE,ROCKLIN,CA,95765
133872,671 WINYAH DRIVE,ORLANDO,FL,32803
193283,1101 SHERMAN DR,UTICA,NY,13501
194091,NORTHERN BLVD,OLD WESTBURY,NY,11568
196051,80 EATON STREET,MORRISVILLE,NY,13408
113193,HIGHWAY 1,SAN LUIS OBISPO,CA,93403
445188,5200 NORTH LAKE ROAD,MERCED,CA,95343
112190,50 PHELAN AVE,SAN FRANCISCO,CA,94112
196060,1400 WASHINGTON AVENUE,ALBANY,NY,12222
191083,121 ELLICOTT ST,BUFFALO,NY,14203
194028,23 SANTANONI AVENUE,SARANAC LAKE,NY,12983
190594,695 PARK AVE,NEW YORK,NY,10065
226408,1200 AMBURN ROAD,TEXAS CITY,TX,77591
113634,321 GOLF CLUB RD,PLEASANT HILL,CA,94523
117052,995 N REED AVE,REEDLEY,CA,93654
194240,115 SOUTH ST,MIDDLETOWN,NY,10940
189839,197 FRANKLIN STREET,AUBURN,NY,13021
125897,7500 GLENOAKS BLVD,BURBANK,CA,91510
191199,3325 MARVIN SANDS DRIVE,CANANDAIGUA,NY,14424
188854,211 WEST 61ST STREET,NEW YORK,NY,10023
201283,68094 HAMMOND ROAD,SAINT CLAIRSVILLE,OH,43950
191241,441 E FORDHAM RD,BRONX,NY,10458
366395,533 COLLEGE RD,SELDEN,NY,11784
113573,43-500 MONTEREY AVE,PALM DESERT,CA,92260
122889,721 CLIFF DRIVE,SANTA BARBARA,CA,93109
191986,525 FALCONER ST,JAMESTOWN,NY,14701
191339,ONE COLLEGE RD,BATAVIA,NY,14020
117645,4901 E. CARSON ST.,LONG BEACH,CA,90808
123961,UNIVERSITY PARK,LOS ANGELES,CA,90089
195809,8000 UTOPIA PKY,QUEENS,NY,11439
201672,1179 UNIVERSITY DRIVE,NEWARK,OH,43055
193016,555 BROADWAY,DOBBS FERRY,NY,10522
204945,30335 OREGON RD,PERRYSBURG,OH,43551
203155,3301 HOCKING PARKWAY,NELSONVILLE,OH,45764
203599,7700 CLOCKTOWER DRIVE,KIRTLAND,OH,44094
205470,444 W. THIRD ST.,DAYTON,OH,45402
196699,491 COTTEKILL RD,STONE RIDGE,NY,12484
196088,12 CAPEN HALL,BUFFALO,NY,14260
201928,3520 CENTRAL PARKWAY,CINCINNATI,OH,45223
192925,18 AGASSIZ CIRCLE,BUFFALO,NY,14214
193308,2501 JEROME AVENUE,BRONX,NY,10468
190415,300 DAY HALL,ITHACA,NY,14853
202222,550 E SPRING ST,COLUMBUS,OH,43215
206084,2801 W BANCROFT,TOLEDO,OH,43606
222062,500 SOUTH DAVY CROCKETT PARKWAY,MORRISTOWN,TN,37813
174914,2115 SUMMIT AVE,SAINT PAUL,MN,55105
205841,6200 FRANK AVE NW,NORTH CANTON,OH,44720
105792,7050 S 24TH ST,PHOENIX,AZ,85042
203517,"EXECUTIVE OFFICE, 2ND FLOOR LIBRARY",KENT,OH,44242
212869,750 MONTGOMERY AVE,BRYN MAWR,PA,19010
212911,370  LANCASTER AVE,HAVERFORD,PA,19041
214564,8360 OLD YORK RD,ELKINS PARK,PA,19027
215585,10 S SECOND ST,READING,PA,19603
216694,51 W COLLEGE ST,WAYNESBURG,PA,15370
239169,8701 WATERTOWN PLANK ROAD,MILWAUKEE,WI,53226
114813,1717 S CHESTNUT AVE,FRESNO,CA,93702
367884,2655 NORTHBROOKE DRIVE,NAPLES,FL,34119
385619,"5002 T-REX AVENUE, SUITE 100",BOCA RATON,FL,33431
182306,1500 COLLEGE PARKWAY,ELKO,NV,89801
179326,1600 UNIVERSITY AVE,BOLIVAR,MO,65613
175786,608 HINDS BOULEVARD,RAYMOND,MS,39154
122597,1600 HOLLOWAY AVE,SAN FRANCISCO,CA,94132
449339,111 W CONGRESS ST,CHARLES TOWN,WV,25414
217235,8 ABBOTT PARK PLACE,PROVIDENCE,RI,02903
119216,1499 N. STATE ST.,SAN JACINTO,CA,92583
200156,608 6TH ST NE,JAMESTOWN,ND,58405
239488,2740 W MASON ST,GREEN BAY,WI,54307
171535,2480 OPDYKE RD,BLOOMFIELD HILLS,MI,48304
482149,1120 FIFTEENTH ST,AUGUSTA,GA,30912
230728,OLD MAIN HILL,LOGAN,UT,84322
117894,2700 EAST LELAND ROAD,PITTSBURG,CA,94565
118912,ONE BARNARD DRIVE,OCEANSIDE,CA,92056
112525,309 E 2ND ST,POMONA,CA,91766
154110,1625 HWY 150,CALMAR,IA,52132
152080,400 MAIN BUILDING,NOTRE DAME,IN,46556
179894,470 E LOCKWOOD AVE.,SAINT LOUIS,MO,63119
148335,401 S STATE STREET,CHICAGO,IL,60605
110644,ONE SHIELDS AVENUE,DAVIS,CA,95616
176080,LEE BOULEVARD,MISSISSIPPI STATE,MS,39762
212054,3141 CHESTNUT ST,PHILADELPHIA,PA,19104
177135,601 LACLEDE AVE,NEOSHO,MO,64850
229300,7000 FANNIN,HOUSTON,TX,77030
130943,104 HULLIHEN HALL,NEWARK,DE,19716
186432,2641 KENNEDY BLVD,JERSEY CITY,NJ,07306
230746,4600 S REDWOOD RD,SALT LAKE CITY,UT,84123
169275,1401 E COURT ST,FLINT,MI,48503
169479,6191 KRAFT AVENUE S.E.,GRAND RAPIDS,MI,49512
170541,6767 WEST O AVE,KALAMAZOO,MI,49003
172200,18600 HAGGERTY ROAD,LIVONIA,MI,48152
224615,801 MAIN STREET,DALLAS,TX,75202
170976,503 THOMPSON STREET,ANN ARBOR,MI,48109
100858,NOT AVAILABLE,AUBURN,AL,36849
146719,1032 W. SHERIDAN RD,CHICAGO,IL,60660
365204,6101 MONTANA AVE,EL PASO,TX,79925
179812,1750 INDEPENDENCE AVE,KANSAS CITY,MO,64106
102614,505 SOUTH CHANDALAR DRIVE,FAIRBANKS,AK,99775
251260,750 ROBERTS ST,WADLEY,AL,36276
230171,225 S UNIVERSITY AVENUE,SAINT GEORGE,UT,84770
196097,310 ADMINISTRATION BUILDING,STONY BROOK,NY,11794
178448,101 COLLEGE AVE,MOBERLY,MO,65270
202356,700 CARNEGIE AVE,CLEVELAND,OH,44115
222576,2011 S. WASHINGTON,AMARILLO,TX,79109
102845,"17200 S.E. MILL PLAIN BOULEVARD, SUITE 100",VANCOUVER,WA,98683
110219,350 W WASHINGTON ST,TEMPE,AZ,85281
444130,2488 HISTORIC DECATUR RD.,SAN DIEGO,CA,92106
449889,"101 WEST OHIO STREET, SUITE 1200",INDIANAPOLIS,IN,46204
441308,"TABOR CENTER, 1201 16TH STREET SUITE 200",DENVER,CO,80202
420440,112 COLLEGE DRIVE,WELLS,ME,04090
104425,901 N COLOMBO AVE,SIERRA VISTA,AZ,85635
147536,122 S MICHIGAN AVE,CHICAGO,IL,60603
157438,500 TECHNOLOGY WAY,FLORENCE,KY,41042
110370,1111 EIGHTH STREET,SAN FRANCISCO,CA,94107
126951,11194 E 45TH AVE,DENVER,CO,80239
366191,2611 CORPORATE WEST DRIVE,LISLE,IL,60532
135407,6305 STATE RD 70 EAST,BRADENTON,FL,34203
153311,306 W RIVER DR,DAVENPORT,IA,52801
156107,4004 N WEBB RD. BLDG 100,WICHITA,KS,67226
160010,9500 INDUSTRIAL DRIVE,MINDEN,LA,71055
163426,51 MANNAKEE STREET,ROCKVILLE,MD,20850
165167,500 RUTHERFORD AVENUE,BOSTON,MA,02129
183877,900 COLLEGE CIRCLE,MOUNT LAUREL,NJ,08054
170790,14500 E TWELVE MILE RD,WARREN,MI,48088
163204,3501 UNIVERSITY BLVD EAST,ADELPHI,MD,20783
217305,ONE NEW ENGLAND TECH BOULEVARD,EAST GREENWICH,RI,02818
227182,5000 RESEARCH FOREST DRIVE,THE WOODLANDS,TX,77381
247834,3452 SPUR 399,MCKINNEY,TX,75069
436304,925 WEST EDENBORNE PARKWAY,GONZALES,LA,70737
438498,"3201 JERMANTOWN ROAD, SUITE 500",FAIRFAX,VA,22030
450933,21982 UNIVERSITY LANE,ORANGE BEACH,AL,36561
242422,56 CARRETERA 20 KM 2.3,GUAYNABO,PR,00966
442356,850 GREENFIELD ROAD,LANCASTER,PA,17601
443410,9931 WILLOWS RD NE,REDMOND,WA,98052
446604,48 BAKERTOWN RD SUITE 501,MONROE,NY,10950
451103,700 S ROYAL POINCIANA BLVD,MIAMI SPRINGS,FL,33166
454829,"1660 SOUTH ALBION STREET, SUITE 525",DENVER,CO,80222
479956,128 OUTREACH BUILDING,UNIVERSITY PARK,PA,16802
490373,300 PORTAGE STREET,KALAMAZOO,MI,49007
243203,"RIO PIEDRAS MEDICAL CENTER, AMERICO MIRANDA AVENUE",SAN JUAN,PR,00936
376321,ANGORA INDUSTRIAL PARK BUILDING G ANGORA AVENUE,CAGUAS,PR,00725
126711,802 GRAND AVE.,GLENWOOD SPRINGS,CO,81601
132709,111 EAST LAS OLAS BLVD,FORT LAUDERDALE,FL,33301
100654,4900 MERIDIAN STREET,NORMAL,AL,35762
100663,ADMINISTRATION BLDG SUITE 1070,BIRMINGHAM,AL,35294
100706,301 SPARKMAN DR,HUNTSVILLE,AL,35899
100724,915 S JACKSON STREET,MONTGOMERY,AL,36104
100760,1675 CHEROKEE RD,ALEXANDER CITY,AL,35010
100812,300 N BEATY ST,ATHENS,AL,35611
100830,7440 EAST DRIVE,MONTGOMERY,AL,36117
100937,900 ARKADELPHIA ROAD,BIRMINGHAM,AL,35254
101028,2602 COLLEGE DRIVE,PHENIX CITY,AL,36869
101143,600 PLAZA DRIVE,ENTERPRISE,AL,36330
101189,5345 ATLANTA HWY,MONTGOMERY,AL,36109
101240,1001 GEORGE WALLACE DR,GADSDEN,AL,35903
101286,1141 WALLACE DRIVE,DOTHAN,AL,36303
101295,801 MAIN ST NW,HANCEVILLE,AL,35077
101301,3000 EARL GOODWIN PARKWAY,SELMA,AL,36703
101435,1500 EAST FAIRVIEW AVENUE,MONTGOMERY,AL,36106
101480,700 PELHAM ROAD NORTH,JACKSONVILLE,AL,36265
101569,3060 WILSON RD SW,BIRMINGHAM,AL,35221
101587,STATION ONE,LIVINGSTON,AL,35470
101675,5500 MYRON MASSEY BLVD,FAIRFIELD,AL,35064
101693,5735 COLLEGE PARKWAY DRIVE,MOBILE,AL,36613
101709,STATION 6001,MONTEVALLO,AL,35115
101736,800 GEORGE WALLACE BLVD,MUSCLE SHOALS,AL,35661
101879,ONE HARRISON PLAZA,FLORENCE,AL,35632
101897,138  HIGHWAY 35,RAINSVILLE,AL,35986
101912,7000 ADVENTIST BLVD NW,HUNTSVILLE,AL,35896
102030,351 NORTH BROAD STREET,MOBILE,AL,36603
102049,800 LAKESHORE DRIVE,BIRMINGHAM,AL,35229
102067,9500 OLD GREENSBORO RD,TUSCALOOSA,AL,35405
102076,102 ELDER STREET,BOAZ,AL,35957
102234,4000 DAUPHIN ST,MOBILE,AL,36608
102313,1225 AIR BASE BLVD,MONTGOMERY,AL,36108
102377,"KRESGE CENTER, 3RD FLOOR",TUSKEGEE,AL,36088
102553,3211 PROVIDENCE DRIVE,ANCHORAGE,AK,99508
102632,11066 AUKE LAKE WAY,JUNEAU,AK,99801
102711,809 SECOND AVENUE,SEWARD,AK,99664
104090,"2445 W. DUNLAP AVE., STE. 100",PHOENIX,AZ,85021
104179,1401 E UNIVERSITY,TUCSON,AZ,85721
104577,615 N. STADIUM AVE.,THATCHER,AZ,85552
104586,3700 WILLOW CREEK ROAD,PRESCOTT,AZ,86301
104717,3300 W CAMELBACK RD,PHOENIX,AZ,85017
105145,108 N. 40TH STREET,PHOENIX,AZ,85034
105206,1971 JAGERSON AVE,KINGMAN,AZ,86409
105154,1833 W SOUTHERN AVE,MESA,AZ,85202
105297,"ROUTE 12, ONE CIRCLE DRIVE",TSAILE,AZ,86556
105330,"1900 S. KNOLES DR., BABBITT ADMINISTRATIVE CENTER, ROOM 200",FLAGSTAFF,AZ,86011
105349,2251 E. NAVAJO BLVD.,HOLBROOK,AZ,86025
105525,4905C EAST  BROADWAY BLVD.,TUCSON,AZ,85709
105428,1202 W THOMAS RD,PHOENIX,AZ,85013
104708,6000 W OLIVE AVE,GLENDALE,AZ,85302
105534,"3350 EAST GRANT ROAD, SUITE 200",TUCSON,AZ,85716
105668,2323 W 14TH ST,TEMPE,AZ,85281
106041,10695 WEST PIERCE STREET,AVONDALE,AZ,85323
106148,1100 E SHELDON ST,PRESCOTT,AZ,86301
106245,2801 S UNIVERSITY AVE,LITTLE ROCK,AR,72204
106263,4301 W MARKHAM,LITTLE ROCK,AR,72205
107600,900 W. DAISY BATES DRIVE,LITTLE ROCK,AR,72202
106102,1601 W FOUNTAINHEAD PARKWAY,TEMPE,AZ,85282
106412,1200 N UNIVERSITY MAIL SLOT 4789,PINE BLUFF,AR,71601
106449,1000 IOWA STREET,BEEBE,AR,72012
106458,2105 E. AGGIE ROAD,JONESBORO,AR,72401
106467,ADMINISTRATION BLDG 200; 1509 N BOULDER AVE,RUSSELLVILLE,AR,72801
106485,HIGHWAY 425 SOUTH,MONTICELLO,AR,71656
106625,1410 HWY 304 EAST,POCAHONTAS,AR,72455
107619,1000 CAMPUS DRIVE,HELENA,AR,72342
106704,201 DONAGHEY AVE,CONWAY,AR,72035
106795,183 COLLEGE DRIVE,DE QUEEN,AR,71832
106883,1700 NEWCASTLE RD,FORREST CITY,AR,72335
106980,101 COLLEGE DR,HOT SPRINGS,AR,71913
106999,2005 WHITE DRIVE,BATESVILLE,AR,72503
107044,915 E. MARKET AVE.,SEARCY,AR,72149
107071,1100 HENDERSON STREET,ARKADELPHIA,AR,71999
107080,1600 WASHINGTON AVE,CONWAY,AR,72032
107141,2000 W UNIVERSITY ST,SILOAM SPRINGS,AR,72761
107318,2000 W.  BROADWAY,WEST MEMPHIS,AR,72301
107327,2501 S DIVISION,BLYTHEVILLE,AR,72316
107460,1515 PIONEER DR,HARRISON,AR,72601
107512,410 OUACHITA ST,ARKADELPHIA,AR,71998
107521,ONE COLLEGE CIRCLE,MALVERN,AR,72104
107549,218 COLLEGE DR,MELBOURNE,AR,72556
107585,1537 UNIVERSITY BLVD.,MORRILTON,AR,72110
107637,1900 HAZEL ST.,PINE BLUFF,AR,71603
107664,3000 W SCENIC DR,NORTH LITTLE ROCK,AR,72118
107725,2500 S MAIN,HOPE,AR,71801
107743,1100 COLLEGE DR,MENA,AR,71953
107974,300 S WEST AVE,EL DORADO,AR,71731
107983,100 E. UNIVERSITY,MAGNOLIA,AR,71753
107992,6415 SPELLMAN ROAD,CAMDEN,AR,71701
108092,5210 GRAND AVE,FORT SMITH,AR,72913
108232,79 NEW MONTGOMERY,SAN FRANCISCO,CA,94105
108667,555 RALPH APPEZZATO MEMORIAL PKY,ALAMEDA,CA,94501
109040,4021 ROSEWOOD AVENUE,LOS ANGELES,CA,90004
109208,4700 COLLEGE OAK DR,SACRAMENTO,CA,95841
109350,3041 WEST  AVE K,LANCASTER,CA,93536
109651,1700 LIDA ST,PASADENA,CA,91103
109785,901 E ALOSTA,AZUSA,CA,91702
109819,1801 PANORAMA DR,BAKERSFIELD,CA,93305
109907,2700 BARSTOW ROAD,BARSTOW,CA,92311
110097,13800 BIOLA AVE,LA MIRADA,CA,90639
110246,3536 BUTTE CAMPUS DRIVE,OROVILLE,CA,95965
110316,1453 MISSION STREET,SAN FRANCISCO,CA,94103
110334,6500 SOQUEL DR,APTOS,CA,95003
110398,200 MCALLISTER ST,SAN FRANCISCO,CA,94102
110404,1200 E CALIFORNIA BLVD,PASADENA,CA,91125
110422,1 GRAND AVE.,SAN LUIS OBISPO,CA,93407
110468,10455 POMERADO ROAD,SAN DIEGO,CA,92131
110486,9001 STOCKDALE HWY,BAKERSFIELD,CA,93311
110495,ONE UNIVERSITY CIRCLE,TURLOCK,CA,95382
110510,5500 UNIVERSITY PARKWAY,SAN BERNARDINO,CA,92407
110529,3801 WEST TEMPLE AVENUE,POMONA,CA,91768
110538,FIRST AND NORMAL STS,CHICO,CA,95929
110547,1000 E VICTORIA ST,CARSON,CA,90747
110556,5241 N MAPLE AVE,FRESNO,CA,93740
110565,800 N STATE COLLEGE BLVD,FULLERTON,CA,92831
110583,1250 BELLFLOWER BLVD,LONG BEACH,CA,90840
110592,5151 STATE UNIVERSITY DR,LOS ANGELES,CA,90032
110608,18111 NORDHOFF ST,NORTHRIDGE,CA,91330
110617,6000 J ST,SACRAMENTO,CA,95819
110635,200 CALIFORNIA HALL,BERKELEY,CA,94720
110653,501 ALDRICH HALL,IRVINE,CA,92697
110662,405 HILGARD AVE,LOS ANGELES,CA,90095
110671,900 UNIVERSITY AVE,RIVERSIDE,CA,92521
110680,9500 GILMAN DR,LA JOLLA,CA,92093
110699,500 PARNASSUS AVE,SAN FRANCISCO,CA,94143
110705,5221 CHEADLE HALL,SANTA BARBARA,CA,93106
110714,1156 HIGH ST,SANTA CRUZ,CA,95064
111081,24700 W MCBEAN PKY,VALENCIA,CA,91355
111188,200 MARITIME ACADEMY DR,VALLEJO,CA,94590
111434,4200 FARM HILL BLVD.,REDWOOD CITY,CA,94061
111461,26455 ROCKWELL CANYON RD,SANTA CLARITA,CA,91355
111887,11110 ALONDRA BLVD,NORWALK,CA,90650
111896,3000 COLLEGE HEIGHTS BLVD,RIDGECREST,CA,93555
111920,25555 HESPERIAN BLVD,HAYWARD,CA,94545
111939,5885 HAVEN AVE,RANCHO CUCAMONGA,CA,91737
111948,ONE UNIVERSITY DR.,ORANGE,CA,92866
111966,1731 E 120TH ST,LOS ANGELES,CA,90059
112075,1530 CONCORDIA WEST,IRVINE,CA,92612
115083,536 MISSION STREET,SAN FRANCISCO,CA,94105
125231,"100 WASHINGTON AVENUE SOUTH, SUITE 900",MINNEAPOLIS,MN,55401
126182,208 EDGEMONT BLVD,ALAMOSA,CO,81101
126207,5401 W. 20TH ST.,GREELEY,CO,80634
126289,5900 S. SANTA FE DR.,LITTLETON,CO,80160
126562,"1380 LAWRENCE STREET, LAWRENCE STREET CENTER, SUITE 1400",DENVER,CO,80217
126580,1420 AUSTIN BLUFFS PARKWAY,COLORADO SPRINGS,CO,80918
126614,REGENT DRIVE AT BROADWAY,BOULDER,CO,80309
126669,8787 WEST ALAMEDA AVENUE,LAKEWOOD,CO,80226
126678,14. E CACHE LA POUDRE ST.,COLORADO SPRINGS,CO,80903
126748,500 KENNEDY DRIVE,RANGELY,CO,81648
126775,1500 ILLINOIS ST,GOLDEN,CO,80401
126818,102 ADMINISTRATION BUILDING,FORT COLLINS,CO,80523
126827,4435 N CHESTNUT STREET,COLORADO SPRINGS,CO,80907
126863,16000 E CENTRETECH PKY,AURORA,CO,80011
126942,1111 W. COLFAX AVE.,DENVER,CO,80204
126979,6399 S. SANTA FE DRIVE,LITTLETON,CO,80120
127060,2199 S. UNIVERSITY BLVD,DENVER,CO,80208
127185,1000 RIM DRIVE,DURANGO,CO,81301
127200,3645 W 112TH AVE,WESTMINSTER,CO,80031
127556,1100 NORTH AVENUE,GRAND JUNCTION,CO,81501
127617,920 BARLOW ROAD,FORT  MORGAN,CO,80701
127653,2130 ARAPAHOE AVE,BOULDER,CO,80302
127732,100 COLLEGE AVENUE,STERLING,CO,80751
130907,100 CAMPUS DRIVE,DOVER,DE,19901
127741,CARTER HALL - RM 4000,GREELEY,CO,80639
127778,1802 COLORADO AVE,LA JUNTA,CO,81050
127884,900 WEST ORMAN AVENUE,PUEBLO,CO,81004
127909,13300 W SIXTH AVE,LAKEWOOD,CO,80228
127918,3333 REGIS BLVD,DENVER,CO,80221
127945,1600 PIERCE ST,LAKEWOOD,CO,80214
128106,2200 BONFORTE BLVD,PUEBLO,CO,81001
128151,500 AIRPORT BLVD,AURORA,CO,80011
128258,600 PROSPECT STREET,TRINIDAD,CO,81082
128328,"2304 CADET DRIVE, SUITE 3800",USAF ACADEMY,CO,80840
128391,600 N ADAMS,GUNNISON,CO,81231
128498,700 PROSPECT ST,NEW HAVEN,CT,06511
128577,170 ELM ST,ENFIELD,CT,06082
128771,1615 STANLEY ST,NEW BRITAIN,CT,06050
128780,55 PAUL MANAFORT DRIVE,NEW BRITAIN,CT,06053
128902,270 MOHEGAN AVENUE,NEW LONDON,CT,06320
130040,PARK PL E,WINSTED,CT,06098
129020,352 MANSFIELD ROAD,STORRS,CT,06269
129154,ONE RIVERSIDE DRIVE,EAST HARTFORD,CT,06118
129215,83 WINDHAM ST,WILLIMANTIC,CT,06226
129242,1073 N BENSON RD,FAIRFIELD,CT,06824
129367,950 MAIN STREET,HARTFORD,CT,06103
129525,200 BLOOMFIELD AVE,WEST HARTFORD,CT,06117
129543,900 LAFAYETTE BLVD,BRIDGEPORT,CT,06604
129695,GREAT PATH,MANCHESTER,CT,06040
129729,750 CHASE PARKWAY,WATERBURY,CT,06708
129756,100 TRAINING HILL RD,MIDDLETOWN,CT,06457
129808,574 NEW LONDON TURNPIKE,NORWICH,CT,06360
130776,181 WHITE STREET,DANBURY,CT,06810
129941,300 BOSTON POST ROAD,WEST HAVEN,CT,06516
130004,188 RICHARDS AVENUE,NORWALK,CT,06854
130174,670 LORDSHIP BLVD,STRATFORD,CT,06615
130183,800 COUNTRY CLUB RD,WATERBURY,CT,06723
130217,742 UPPER MAPLE ST,DANIELSON,CT,06239
130226,MT CARMEL AVE,HAMDEN,CT,06518
130253,5151 PARK AVE,FAIRFIELD,CT,06825
130314,1678 ASYLUM AVENUE,WEST HARTFORD,CT,06117
130396,20 CHURCH STREET,NEW HAVEN,CT,06510
130493,501 CRESCENT STREET,NEW HAVEN,CT,06515
130590,300 SUMMIT ST,HARTFORD,CT,06106
130624,15 MOHEGAN AVENUE,NEW LONDON,CT,06320
130697,45 WYLLYS AVENUE,MIDDLETOWN,CT,06459
130794,WOODBRIDGE HALL,NEW HAVEN,CT,06520
130934,1200 N. DUPONT HIGHWAY,DOVER,DE,19901
130989,4701 LIMESTONE RD,WILMINGTON,DE,19808
131098,120 N STATE ST,DOVER,DE,19901
131159,4400 MASSACHUSETTS AVE NW,WASHINGTON,DC,20016
131283,"620 MICHIGAN AVENUE, NE",WASHINGTON,DC,20064
131399,4200 CONNECTICUT AVE NW,WASHINGTON,DC,20008
131450,"800 FLORIDA AVE, NE",WASHINGTON,DC,20002
131469,"2121 I STREET, NW",WASHINGTON,DC,20052
131496,37TH AND O ST NW,WASHINGTON,DC,20057
131520,2400 SIXTH ST NW,WASHINGTON,DC,20059
131803,1133 15TH ST NW,WASHINGTON,DC,20005
131876,125 MICHIGAN AVE NE,WASHINGTON,DC,20017
133881,150 WEST UNIVERSITY BOULEVARD,MELBOURNE,FL,32901
133979,15800 NW 42 AVENUE,MIAMI GARDENS,FL,33054
134079,111 LAKE HOLLINGSWORTH DR,LAKELAND,FL,33801
134097,222 S. COPELAND STREET,TALLAHASSEE,FL,32306
134112,12900 CHALLENGER PARKWAY,ORLANDO,FL,32826
134130,TIGERT HALL,GAINESVILLE,FL,32611
134343,5230 WEST U.S. HIGHWAY 98,PANAMA CITY,FL,32401
134608,3209 VIRGINIA AVE,FORT PIERCE,FL,34981
134811,1501 BISCAYNE BOULEVARD,MIAMI,FL,33132
134945,2800 UNIVERSITY BLVD N,JACKSONVILLE,FL,32211
135081,1500 NW 49TH ST.,FORT LAUDERDALE,FL,33309
135160,HIGHWAY 90 EAST,LAKE CITY,FL,32025
135188,9501 US HWY 441,LEESBURG,FL,34788
135267,3800 MICHIGAN AVE,FORT MYERS,FL,33916
135364,3038 EVANS MILL ROAD,LITHONIA,GA,30038
135391,5840 26TH ST W,BRADENTON,FL,34207
135717,300 NE 2ND AVENUE,MIAMI,FL,33132
135735,2900 WEST OAK RIDGE ROAD,ORLANDO,FL,32809
136145,325 NW TURNER DAVIS DR,MADISON,FL,32340
146241,315 S PLYMOUTH CT,CHICAGO,IL,60604
136172,1 UNF DRIVE,JACKSONVILLE,FL,32224
136215,3301 COLLEGE AVE,FORT LAUDERDALE,FL,33314
136233,100 COLLEGE BOULEVARD,NICEVILLE,FL,32578
136303,301 W AMELIA STREET,ORLANDO,FL,32801
136330,901 S. FLAGLER DRIVE,WEST PALM BEACH,FL,33401
136358,4200 CONGRESS AVE,LAKE WORTH,FL,33461
136400,10230 RIDGE ROAD,NEW PORT RICHEY,FL,34654
136473,1000 COLLEGE BLVD,PENSACOLA,FL,32504
136516,999 AVENUE H NE,WINTER HAVEN,FL,33881
136774,2700 NORTH TAMIAMI TRAIL,SARASOTA,FL,34234
136950,1000 HOLT AVENUE,WINTER PARK,FL,32789
137032,33701 STATE ROAD 52,SAINT LEO,FL,33574
137078,6021 142ND  AVE N,CLEARWATER,FL,33760
137096,3000 NORTHWEST 83RD STREET,GAINESVILLE,FL,32606
137120,4748 BENEVA RD,SARASOTA,FL,34233
137209,100 WELDON BLVD,SANFORD,FL,32773
137245,5400 SHERIDAN ST,HOLLYWOOD,FL,33021
137281,5001 SAINT JOHNS AVE,PALATKA,FL,32177
146278,1301 S 48TH STREET,QUINCY,IL,62305
137315,600 W COLLEGE DR,AVON PARK,FL,33825
137351,4202 EAST FOWLER AVE,TAMPA,FL,33620
137476,16401 NW 37TH AVE,MIAMI GARDENS,FL,33054
137546,421 N WOODLAND BLVD,DELAND,FL,32723
137564,1000 LONGFELLOW BLVD,LAKELAND,FL,33801
137759,444 APPLEYARD DR,TALLAHASSEE,FL,32304
138558,2802 MOORE HWY,TIFTON,GA,31793
138600,141 E. COLLEGE AVE.,DECATUR,GA,30030
138682,1704 SOUTH SLAPPEY BOULEVARD,ALBANY,GA,31701
138716,504 COLLEGE DRIVE,ALBANY,GA,31705
138789,11935 ABERCORN ST,SAVANNAH,GA,31419
138813,"6600 PEACHTREE DUNWOODY RD., 100 EMBASSY ROW",ATLANTA,GA,30328
138840,1560 METROPOLITAN PKWY SW,ATLANTA,GA,30310
138868,507 WEST 10TH STREET,WEST POINT,GA,31833
138901,"1630 METROPOLITAN PARKWAY, SW",ATLANTA,GA,30310
138947,"223 JAMES P BRAWLEY DRIVE, SW",ATLANTA,GA,30314
138956,3200 AUGUSTA TECH DRIVE,AUGUSTA,GA,30906
139010,2500 E SHOTWELL ST,BAINBRIDGE,GA,39819
139986,501 VARSITY RD,GRIFFIN,GA,30223
139199,500 WASHINGTON STREET SE,GAINESVILLE,GA,30501
139250,ONE COLLEGE DRIVE,BRUNSWICK,GA,31520
139311,2000 CLAYTON STATE BOULEVARD,MORROW,GA,30260
139357,928 MANCHESTER EXPY,COLUMBUS,GA,31904
139384,ONE MAURICE CULBERSON DRIVE,ROME,GA,30161
139393,14049 SCENIC HIGHWAY,LOOKOUT MOUNTAIN,GA,30750
139463,650 COLLEGE DRIVE,DALTON,GA,30720
475121,709 MALL BLVD,SAVANNAH,GA,31406
139621,131 COLLEGE CIR,SWAINSBORO,GA,30401
139630,181 SPRINGS ST,FRANKLIN SPRINGS,GA,30639
139658,"408 ADMINISTRATION BUILDING, 201 DOWMAN DRIVE",ATLANTA,GA,30322
139700,"3175 CEDARTOWN HIGHWAY, S.E.",ROME,GA,30161
139719,1005 STATE UNIVERSITY DR,FORT VALLEY,GA,31030
139755,225 NORTH AVE,ATLANTA,GA,30332
139764,800 GEORGIA SOUTHWESTERN STATE UNIVERSITY DR.,AMERICUS,GA,31709
139861,231 W HANCOCK STREET,MILLEDGEVILLE,GA,31061
139931,"BRANNEN HALL, ROOM 2015, 2670 SOUTHERN DRIVE",STATESBORO,GA,30460
139940,33 GILMER ST,ATLANTA,GA,30303
141574,2500 CAMPUS ROAD,HONOLULU,HI,96822
139959,ADMINISTRATION BUILDING,ATHENS,GA,30602
140012,5150 SUGARLOAF PARKWAY,LAWRENCEVILLE,GA,30043
140234,601 BROAD STREET,LAGRANGE,GA,30240
140252,1269 BARCLAY CIRCLE,MARIETTA,GA,30060
140331,980 S COBB DRIVE DR SE,MARIETTA,GA,30060
140447,1501 MERCER UNIVERSITY DRIVE,MACON,GA,31207
140553,830 WESTVIEW DR SW,ATLANTA,GA,30314
140562,"720 WESTVIEW DRIVE, S.W.",ATLANTA,GA,30310
140678,1500 GEORGIA HWY 197 N,CLARKESVILLE,GA,30523
140696,"4484 PEACHTREE ROAD, NE",ATLANTA,GA,30319
140818,1021 CENTRAL AVE,DEMOREST,GA,30535
140872,7300 REINHARDT CIRCLE,WALESKA,GA,30183
140942,5717 WHITE BLUFF RD,SAVANNAH,GA,31405
141680,874 DILLINGHAM BLVD,HONOLULU,HI,96817
141796,4303 DIAMOND HEAD ROAD,HONOLULU,HI,96816
141802,3-1901 KAUMUALII HIGHWAY,LIHUE,HI,96766
141811,96-045 ALA IKE,PEARL CITY,HI,96782
140951,342 BULL ST,SAVANNAH,GA,31402
140960,3219 COLLEGE STREET,SAVANNAH,GA,31404
140988,315 SHORTER AVE,ROME,GA,30165
141006,900 SOUTH GA TECH PARKWAY,AMERICUS,GA,31709
141060,350 SPELMAN LANE SW,ATLANTA,GA,30314
141167,1501 MILLPOND RD,THOMASVILLE,GA,31792
141185,107 KINCAID DRIVE,TOCCOA FALLS,GA,30598
141237,100 ALUMNI DR,CLEVELAND,GA,30528
141334,1601 MAPLE ST,CARROLLTON,GA,30118
141361,1 COLLEGE STREET,YOUNG HARRIS,GA,30582
141486,3140 WAIALAE AVENUE,HONOLULU,HI,96816
141565,200 W KAWILI ST,HILO,HI,96720
141839,310 W KAAHUMANU AVE,KAHULUI,HI,96732
141990,45-720 KEAAHALA RD,KANEOHE,HI,96744
142115,1910 UNIVERSITY DR,BOISE,ID,83725
142179,1600 S 25TH E,IDAHO FALLS,ID,83404
142276,921 S 8TH AVE,POCATELLO,ID,83209
141981,91-1001 FARRINGTON HIGHWAY,KAPOLEI,HI,96707
142294,2112 CLEVELAND BLVD,CALDWELL,ID,83605
142328,500 8TH AVE,LEWISTON,ID,83501
142443,1000 WEST GARDEN AVENUE,COEUR D'ALENE,ID,83814
142461,623 S. UNIVERSITY BLVD.,NAMPA,ID,83686
142522,525 S CENTER,REXBURG,ID,83460
142559,315 FALLS AVE.,TWIN FALLS,ID,83301
142832,17 NORTH DEARBORN STREET,CHICAGO,IL,60602
143048,36 S WABASH,CHICAGO,IL,60603
143084,639 38TH ST,ROCK ISLAND,IL,61201
143215,2500 CARLYLE AVE,BELLEVILLE,IL,62221
143279,6600-34TH AVENUE,MOLINE,IL,61265
143358,1501 W BRADLEY AVE,PEORIA,IL,61625
143853,555 31ST STREET,DOWNERS GROVE,IL,60515
143978,325 N WELLS STREET,CHICAGO,IL,60654
144005,9501 S. KING DRIVE,CHICAGO,IL,60628
144050,5801 S ELLIS AVE,CHICAGO,IL,60637
144157,6301 S HALSTED ST,CHICAGO,IL,60621
144166,1900 W JACKSON BLVD,CHICAGO,IL,60612
144175,10001 S WOODLAWN AVE,CHICAGO,IL,60628
144184,1145 W WILSON AVE.,CHICAGO,IL,60640
144193,7500 S PULASKI RD,CHICAGO,IL,60652
144209,30 E LAKE ST,CHICAGO,IL,60601
144218,4300 N NARRAGANSETT,CHICAGO,IL,60634
144351,7400 AUGUSTA,RIVER FOREST,IL,60305
144865,425 FAWELL BLVD.,GLEN ELLYN,IL,60137
144892,600 LINCOLN AVENUE,CHARLESTON,IL,61920
144944,1700 SPARTAN DRIVE,ELGIN,IL,60123
144962,190 PROSPECT AVE,ELMHURST,IL,60126
145336,1 UNIVERSITY PKY,UNIVERSITY PARK,IL,60484
145372,315 E. COLLEGE AVE,GREENVILLE,IL,62246
145521,2998 W PEARL CITY RD,FREEPORT,IL,61032
145558,3333 GREEN BAY ROAD,NORTH CHICAGO,IL,60064
145600,601 S MORGAN,CHICAGO,IL,60607
144564,2000 E MAIN ST,DANVILLE,IL,61832
145619,5700 COLLEGE RD,LISLE,IL,60532
145637,601 E JOHN STREET,CHAMPAIGN,IL,61820
145646,1312 N PARK ST,BLOOMINGTON,IL,61702
145682,1 COLLEGE DRIVE,EAST PEORIA,IL,61635
145691,1101 WEST COLLEGE AVE,JACKSONVILLE,IL,62650
145707,305 N WEST STREET,OLNEY,IL,62450
145725,10 WEST 35TH STREET,CHICAGO,IL,60616
145813,NORTH AND SCHOOL STREETS,NORMAL,IL,61790
145831,815 N ORLANDO SMITH ROAD,OGLESBY,IL,61348
146205,700 LOGAN COLLEGE ROAD,CARTERVILLE,IL,62918
146296,1215 HOUBOLT RD,JOLIET,IL,60431
146339,1151 N STATE ST,ELGIN,IL,60123
146348,100 COLLEGE DRIVE,KANKAKEE,IL,60901
146366,27210 COLLEGE RD,CENTRALIA,IL,62801
146393,900 N. NORTH BRANCH ST.,CHICAGO,IL,60642
146418,21193 MALTA RD,MALTA,IL,60150
146427,2 E SOUTH ST,GALESBURG,IL,61401
146472,19351 W WASHINGTON ST.,GRAYSLAKE,IL,60030
146481,555 N SHERIDAN ROAD,LAKE FOREST,IL,60045
146506,5001 LAKE LAND BLVD,MATTOON,IL,61938
146603,5800 GODFREY RD,GODFREY,IL,62035
146612,ONE UNIVERSITY PARKWAY,ROMEOVILLE,IL,60446
146676,300 KEOKUK ST,LINCOLN,IL,62656
146685,5250 SHEPHERD RD,SPRINGFIELD,IL,62794
147004,8900 US HWY 14,CRYSTAL LAKE,IL,60012
147013,701 COLLEGE RD,LEBANON,IL,62254
147244,1184 W MAIN ST,DECATUR,IL,62522
147341,700 E BROADWAY,MONMOUTH,IL,61462
147369,820 N LASALLE BLVD,CHICAGO,IL,60610
147378,9000 W. COLLEGE PARKWAY,PALOS HILLS,IL,60465
147411,3801 S CENTRAL AVE,CICERO,IL,60804
148292,ONE COLLEGE PARK,DECATUR,IL,62521
147660,30 N BRAINARD ST,NAPERVILLE,IL,60540
147679,3225 W FOSTER AVE,CHICAGO,IL,60625
147703,1425 W. LINCOLN HWY.,DEKALB,IL,60115
147767,633 CLARK ST,EVANSTON,IL,60208
147800,1600 E GOLF RD.,DES PLAINES,IL,60016
147828,ONE UNIVERSITY AVENUE,BOURBONNAIS,IL,60914
147916,2400 W BRADLEY AVE,CHAMPAIGN,IL,61821
148007,202 SOUTH HALSTED STREET,CHICAGO HEIGHTS,IL,60411
148131,1800 COLLEGE AVE,QUINCY,IL,62301
148256,468 N KEN GRAY PKWY,INA,IL,62846
148380,3301 N MULFORD RD,ROCKFORD,IL,61114
148405,5050 E STATE ST,ROCKFORD,IL,61108
148487,430 S MICHIGAN AVE,CHICAGO,IL,60605
148496,7900 W DIVISION STREET,RIVER FOREST,IL,60305
148511,600 S. PAULINA ST. STE 440,CHICAGO,IL,60612
148584,500 N WILCOX ST,JOLIET,IL,60435
148627,3700 W 103RD ST,CHICAGO,IL,60655
148654,ONE UNIVERSITY PLAZA,SPRINGFIELD,IL,62703
148672,173 ILLINOIS RT 2,DIXON,IL,61021
148821,8364 SHAWNEE COLLEGE RD,ULLIN,IL,62992
148876,1333-45 W. ARGYLE ST.,CHICAGO,IL,60640
148937,3575 COLLEGE ROAD,HARRISBURG,IL,62946
148991,23235 NORTH COUNTY 22,CANTON,IL,61520
149222,LINCOLN DRIVE,CARBONDALE,IL,62901
149231,IL STATE RTE 157,EDWARDSVILLE,IL,62026
149365,15800 SOUTH STATE STREET,SOUTH HOLLAND,IL,60473
149505,6601 W COLLEGE DR,PALOS HEIGHTS,IL,60463
149514,2065 HALF DAY RD,DEERFIELD,IL,60015
149532,2000 5TH AVE,RIVER GROVE,IL,60171
149727,RTE 47 AT WAUBONSEE DRIVE,SUGAR GROVE,IL,60554
149781,501 COLLEGE AVE,WHEATON,IL,60187
149842,1200 W ALGONQUIN RD,PALATINE,IL,60067
150066,1100 E 5TH ST,ANDERSON,IN,46012
150136,2000 UNIVERSITY AVE,MUNCIE,IN,47306
150145,1001 BETHEL CIRCLE,MISHAWAKA,IN,46545
150163,4600 SUNSET AVE,INDIANAPOLIS,IN,46208
150172,2400 NEW YORK AVE,WHITING,IN,46394
150400,313 S LOCUST ST,GREENCASTLE,IN,46135
150455,801 NATIONAL RD WEST,RICHMOND,IN,47374
150534,1800 LINCOLN AVENUE,EVANSVILLE,IN,47722
154156,3200 GRAND AVE,DES MOINES,IA,50312
150604,101 BRANIGIN BLVD,FRANKLIN,IN,46131
150668,1700 S MAIN ST,GOSHEN,IN,46526
150677,200 SEMINARY DR,WINONA LAKE,IN,46590
150756,517 BALL DRIVE,HANOVER,IN,47243
150941,2303 COLLEGE AVE,HUNTINGTON,IN,46750
150987,50 W. FALL CREEK PARKWAY N. DRIVE,INDIANAPOLIS,IN,46208
151102,2101 E COLISEUM BLVD,FORT WAYNE,IN,46805
151111,425 UNIVERSITY BLVD,INDIANAPOLIS,IN,46202
151166,550 EAST WASHINGTON STREET,INDIANAPOLIS,IN,46204
151263,1400 E HANNA AVE,INDIANAPOLIS,IN,46227
151290,1600 E WASHINGTON BLVD,FORT WAYNE,IN,46803
151306,8600 UNIVERSITY BLVD,EVANSVILLE,IN,47712
151324,210 N 7TH ST,TERRE HAUTE,IN,47809
151333,2300 S WASHINGTON ST,KOKOMO,IN,46904
151342,1700 MISHAWAKA AVE,SOUTH BEND,IN,46634
152390,133 LE MANS HALL,NOTRE DAME,IN,46556
152530,236 W READE AVE,UPLAND,IN,46989
151351,107 SOUTH INDIANA AVE.,BLOOMINGTON,IN,47405
151360,3400 BROADWAY,GARY,IN,46408
151379,4201 GRANT LINE RD,NEW ALBANY,IN,47150
151388,2325 CHESTER BLVD,RICHMOND,IN,47374
151777,604 E. COLLEGE AVE,NORTH MANCHESTER,IN,46962
151786,3200 COLD SPRING RD,INDIANAPOLIS,IN,46222
151801,4201 SOUTH WASHINGTON STREET,MARION,IN,46953
152099,138 N LUCRETIA ST,OAKLAND CITY,IN,47660
152318,5500 WABASH AVENUE,TERRE HAUTE,IN,47803
152336,2701 SPRING ST,FORT WAYNE,IN,46808
152381,1 ST MARY OF WOODS COLL,SAINT MARY OF THE WOODS,IN,47876
152567,1 UNIVERSITY AVE,ANGOLA,IN,46703
152600,US HIGHWAY 30 AND STURDY ROAD,VALPARAISO,IN,46383
152637,1002 N FIRST ST,VINCENNES,IN,47591
152673,301 WEST WABASH AVENUE,CRAWFORDSVILLE,IN,47933
152992,3303 REBECCA STREET,SIOUX CITY,IA,51104
153001,610 W 4TH ST,STORM LAKE,IA,50588
153108,812 UNIVERSITY,PELLA,IA,50219
153126,1550 CLARKE DR,DUBUQUE,IA,52001
153144,1220 FIRST AVE NE,CEDAR RAPIDS,IA,52402
153162,600 FIRST ST. SW,MOUNT VERNON,IA,52314
153250,498 4TH AVE NE,SIOUX CENTER,IA,51250
153269,2507 UNIVERSITY AVENUE,DES MOINES,IA,50311
153278,2000 UNIVERSITY AVE,DUBUQUE,IA,52001
153366,1 UNIVERSITY PLACE,LAMONI,IA,50140
153375,1200 GRANDVIEW AVE,DES MOINES,IA,50316
153384,1121 PARK STREET,GRINNELL,IA,50112
153445,1501 E ORANGE RD,WATERLOO,IA,50701
153630,2700 COLLEGE RD,COUNCIL BLUFFS,IA,51503
153658,101 JESSUP HALL,IOWA CITY,IA,52242
153825,1450 ALTA VISTA,DUBUQUE,IA,52004
153834,700 COLLEGE DRIVE,DECORAH,IA,52101
153861,1000 N 4TH ST,FAIRFIELD,IA,52557
153922,3700 S CENTER ST,MARSHALLTOWN,IA,50158
154004,1501 MORNINGSIDE AVE,SIOUX CITY,IA,51106
154013,1330 ELMHURST DR NE,CEDAR RAPIDS,IA,52402
154059,500 COLLEGE DR,MASON CITY,IA,50401
154095,1227 W 27TH ST,CEDAR FALLS,IA,50614
154101,101 SEVENTH ST SW,ORANGE CITY,IA,51041
154129,603 W PARK ST,SHELDON,IA,51201
154174,1000 BRADY ST,DAVENPORT,IA,52803
154235,518 W LOCUST ST,DAVENPORT,IA,52803
154350,701 NORTH C ST,INDIANOLA,IA,50125
154493,605 WASHINGTON ST,FAYETTE,IA,52142
154518,106 S SIXTH ST,FOREST CITY,IA,50436
154527,100 WARTBURG BLVD.,WAVERLY,IA,50677
154572,4647 STONE AVE,SIOUX CITY,IA,51102
154590,201 TRUEBLOOD AVE,OSKALOOSA,IA,52577
154642,1801 N COTTONWOOD,IOLA,KS,66749
154688,618 EIGHTH STREET,BALDWIN CITY,KS,66006
154697,245 NE 30TH ROAD,GREAT BEND,KS,67530
154712,1020 N 2ND ST,ATCHISON,KS,66002
154855,1200 S MAIN,MCPHERSON,KS,67460
154907,2221 CAMPUS DR,CONCORDIA,KS,66901
154925,400 W 11TH ST,COFFEYVILLE,KS,67337
154934,1255 S RANGE,COLBY,KS,67701
154952,125 S 2ND ST,ARKANSAS CITY,KS,67005
154998,2501 N 14TH AVE,DODGE CITY,KS,67801
155025,1 KELLOGG CIRCLE,EMPORIA,KS,66801
155089,2100 W. UNIVERSITY AVE.,WICHITA,KS,67213
155098,2108 S HORTON,FORT SCOTT,KS,66701
155104,801 CAMPUS DR,GARDEN CITY,KS,67846
155186,606 W MAIN,HIGHLAND,KS,66035
155195,1300 N PLUM ST,HUTCHINSON,KS,67501
155201,1057 WEST COLLEGE AVENUE,INDEPENDENCE,KS,67301
155210,12345 COLLEGE BLVD,OVERLAND PARK,KS,66210
155317,"STRONG HALL, 1450 JAYHAWK BLVD, ROOM 230",LAWRENCE,KS,66045
155423,5724 SW HUNTOON,TOPEKA,KS,66604
155450,200 S 14TH,PARSONS,KS,67357
155487,3136 DICKENS AVE,MANHATTAN,KS,66503
155520,2030 E COLLEGE WAY,OLATHE,KS,66062
155618,1209 HARRISON ST,GOODLAND,KS,67735
156213,1 MACKLEM DR,WILMORE,KY,40390
156222,204 N LEXINGTON AVE,WILMORE,KY,40390
156286,2001 NEWBURG RD,LOUISVILLE,KY,40205
156295,101 CHESTNUT STREET,BEREA,KY,40404
156338,1845 LOOP DR,BOWLING GREEN,KY,42101
156356,717 FREDERICA ST,OWENSBORO,KY,42301
156365,1 UNIVERSITY DR,CAMPBELLSVILLE,KY,42718
156392,470 COOPER DRIVE,LEXINGTON,KY,40506
156408,625 W WALNUT ST,DANVILLE,KY,40422
156541,6191 COLLEGE STATION DRIVE,WILLIAMSBURG,KY,40769
156648,600 COLLEGE STREET RD,ELIZABETHTOWN,KY,42701
156727,195 SCHOOL STREET,HYDEN,KY,41749
156745,400 EAST COLLEGE STREET,GEORGETOWN,KY,40324
156790,ONE COMMUNITY COLLEGE DRIVE,HAZARD,KY,41701
156851,2660 S GREEN ST,HENDERSON,KY,42420
157058,400 EAST MAIN STREET,FRANKFORT,KY,40601
157216,210 LINDSEY WILSON ST,COLUMBIA,KY,42728
157304,2000 COLLEGE DRIVE,MADISONVILLE,KY,42431
157331,1755 U.S. HWY 68,MAYSVILLE,KY,41056
157377,512 E. STEPHENS ST,MIDWAY,KY,40347
157386,UNIVERSITY BLVD,MOREHEAD,KY,40351
157401,218 WELLS HALL,MURRAY,KY,42071
157483,4810 ALBEN BARKLEY DRIVE,PADUCAH,KY,42002
158662,615 CITY PARK AVENUE,NEW ORLEANS,LA,70119
157535,147 SYCAMORE ST,PIKEVILLE,KY,41501
157553,1 BERT COMBS DR,PRESTONSBURG,KY,41653
157711,808 MONTICELLO STREET,SOMERSET,KY,42501
157739,700 COLLEGE RD,CUMBERLAND,KY,40823
157748,2825 LEXINGTON RD,LOUISVILLE,KY,40280
157757,901 S FOURTH STREET,LOUISVILLE,KY,40203
157793,3101 BARDSTOWN RD,LOUISVILLE,KY,40205
157809,333 THOMAS MORE PARKWAY,CRESTVIEW HILLS,KY,41017
157863,310 COLLEGE ST,BARBOURVILLE,KY,40906
158088,4311 SOUTH MACARTHUR DRIVE,ALEXANDRIA,LA,71302
158431,6220 EAST TEXAS,BOSSIER CITY,LA,71111
158802,2601 GENTILLY BLVD,NEW ORLEANS,LA,70122
158884,3710 PARIS RD,CHALMETTE,LA,70043
159009,403 MAIN STREET,GRAMBLING,LA,71245
159373,433 BOLIVAR ST,NEW ORLEANS,LA,70112
159382,8100 HWY 71 SOUTH,ALEXANDRIA,LA,71302
161138,354 HOGAN RD,BANGOR,ME,04401
159391,156 THOMAS BOYD HALL,BATON ROUGE,LA,70803
159407,2048 JOHNSON HWY,EUNICE,LA,70535
159416,ONE UNIVERSITY PLACE,SHREVEPORT,LA,71115
159568,1140 COLLEGE DR,PINEVILLE,LA,71359
159647,1310 WEST RAILROAD AVENUE,RUSTON,LA,71272
159656,6363 SAINT CHARLES AVE,NEW ORLEANS,LA,70118
159717,4205 RYAN ST,LAKE CHARLES,LA,70605
159939,2000 LAKESHORE DRIVE,NEW ORLEANS,LA,70148
159966,UNIVERSITY STATION  LA HWY 1,THIBODAUX,LA,70310
159993,700 UNIVERSITY AVENUE,MONROE,LA,71209
160038,175 SAM SIBLEY DRIVE,NATCHITOCHES,LA,71497
160065,4123 WOODLAND DRIVE,NEW ORLEANS,LA,70131
160074,5414 BRITTANY DR,BATON ROUGE,LA,70808
160320,1355 POLDERS LANE,COVINGTON,LA,70433
160481,1407 HIGHWAY 311,SCHRIEVER,LA,70395
160579,3820 J BENNETT JOHNSTON AVE,LAKE CHARLES,LA,70615
160612,548 NED MCGEHEE AVE.,HAMMOND,LA,70402
160621,"3RD FLOOR, J.S. CLARK ADM. BUILDING, P.O. BOX 9374",BATON ROUGE,LA,70813
160630,6400 PRESS DRIVE,NEW ORLEANS,LA,70126
160649,3050 MARTIN LUTHER KING DR,SHREVEPORT,LA,71107
160658,104 UNIVERSITY CIRCLE,LAFAYETTE,LA,70503
160667,1710 SULLIVAN DRIVE,BOGALUSA,LA,70427
160755,6823 ST. CHARLES AVENUE,NEW ORLEANS,LA,70118
160904,1 DREXEL DRIVE,NEW ORLEANS,LA,70125
160913,900 YOUNGS ROAD,MORGAN CITY,LA,70380
160977,2 ANDREWS ROAD,LEWISTON,ME,04240
161518,278 WHITES BRIDGE RD,STANDISH,ME,04084
162283,2500 WEST NORTH AVENUE,BALTIMORE,MD,21216
161004,255 MAINE STREET,BRUNSWICK,ME,04011
161077,1250 TURNER STREET,AUBURN,ME,04210
161086,4000 MAYFLOWER HILL DRIVE,WATERVILLE,ME,04901
161192,92 WESTERN AVE,FAIRFIELD,ME,04937
161217,46 UNIVERSITY DR,AUGUSTA,ME,04330
161226,224 MAIN ST.,FARMINGTON,ME,04938
161235,23 UNIVERSITY DRIVE,FORT KENT,ME,04743
161253,168 COLLEGE AVENUE,ORONO,ME,04469
161299,1 PLEASANT STREET,CASTINE,ME,04420
161341,181 MAIN ST,PRESQUE ISLE,ME,04769
161457,11 HILLS BEACH RD,BIDDEFORD,ME,04005
161554,96 FALMOUTH ST,PORTLAND,ME,04103
161563,180 W RIVER RD,WATERVILLE,ME,04901
161688,12401 WILLOWBROOK RD SE,CUMBERLAND,MD,21502
161767,101 COLLEGE PKY,ARNOLD,MD,21012
161864,2901 LIBERTY HEIGHTS AVENUE,BALTIMORE,MD,21215
161873,CHARLES AT MOUNT ROYAL,BALTIMORE,MD,21201
162007,14000 JERICHO PARK RD,BOWIE,MD,20715
162104,ONE SEAHAWK DRIVE,NORTH EAST,MD,21901
162122,8730 MITCHELL RD,LA PLATA,MD,20646
162168,1000 COLLEGE CIRCLE,WYE MILLS,MD,21679
162210,7600 FLOWER AVE,TAKOMA PARK,MD,20912
162557,7932 OPOSSUMTOWN PIKE,FREDERICK,MD,21702
162584,101 BRADDOCK ROAD,FROSTBURG,MD,21532
162654,1021 DULANEY VALLEY RD,BALTIMORE,MD,21204
162690,11400 ROBINWOOD DR,HAGERSTOWN,MD,21742
162706,401 THOMAS RUN RD,BEL AIR,MD,21015
162760,401 ROSEMONT AVE,FREDERICK,MD,21701
162779,10901 LITTLE PATUXENT PKWY,COLUMBIA,MD,21044
162928,3400 N CHARLES ST,BALTIMORE,MD,21218
163046,4501 N CHARLES ST,BALTIMORE,MD,21210
163259,620 WEST LEXINGTON ST,BALTIMORE,MD,21201
163268,1000 HILLTOP CIRCLE,BALTIMORE,MD,21250
163286,NOT AVAILABLE,COLLEGE PARK,MD,20742
164270,2 COLLEGE HILL,WESTMINSTER,MD,21157
163295,1300 MOUNT ROYAL AVENUE,BALTIMORE,MD,21217
163338,J.T. WILLIAMS HALL,PRINCESS ANNE,MD,21853
163453,1700 EAST COLD SPRING LANE,BALTIMORE,MD,21251
163462,16300 OLD EMMITSBURG ROAD,EMMITSBURG,MD,21727
163578,4701 N CHARLES ST,BALTIMORE,MD,21210
163657,301 LARGO RD,LARGO,MD,20774
163851,1101 CAMDEN AVE,SALISBURY,MD,21801
163912,18952 EAST FISHER ROAD,ST. MARY'S CITY,MD,20686
164076,8000 YORK RD,TOWSON,MD,21252
164085,7750 MONTPELIER ROAD,LAUREL,MD,20723
164155,121 BLAKE ROAD,ANNAPOLIS,MD,21402
164173,1525 GREENSPRING VALLEY RD,STEVENSON,MD,21153
164216,300 WASHINGTON AVE,CHESTERTOWN,MD,21620
164313,32000 CAMPUS DRIVE,SALISBURY,MD,21804
164368,1 EDUCATION STREET,CAMBRIDGE,MA,02141
164438,10 HIGH ST STE 204,BOSTON,MA,02110
164447,1000 STATE STREET,SPRINGFIELD,MA,01109
164465,BOLTWOOD AVENUE,AMHERST,MA,01002
164492,50 SUNSET LANE,PAXTON,MA,01612
164562,500 SALISBURY ST,WORCESTER,MA,01609
164580,231 FOREST STREET,WELLESLEY,MA,02457
164739,175 FOREST ST,WALTHAM,MA,02452
164748,1140 BOYLSTON ST,BOSTON,MA,02215
164775,1350 WEST STREET,PITTSFIELD,MA,01201
165644,23 E ELM AVE,QUINCY,MA,02170
165699,376 HALE STREET,BEVERLY,MA,01915
165802,118 BEACON STREET,BOSTON,MA,02116
164632,588 LONGMEADOW STREET,LONGMEADOW,MA,01106
164988,ONE SILBER WAY,BOSTON,MA,02215
165015,415 SOUTH ST,WALTHAM,MA,02454
165024,131 SUMMER STREET,BRIDGEWATER,MA,02325
165112,250 NEW RUTHERFORD AVE,BOSTON,MA,02129
165194,2240 IYANNOUGH RD,WEST BARNSTABLE,MA,02668
165264,303 ADAMS STREET,MILTON,MA,02186
165334,950 MAIN ST,WORCESTER,MA,01610
165529,1071 BLUE HILL AVE,MILTON,MA,02186
165574,99 MAIN STREET,FRANKLIN,MA,02038
165671,400 THE FENWAY,BOSTON,MA,02115
165033,777 ELSBREE ST,FALL RIVER,MA,02720
165820,160 PEARL ST,FITCHBURG,MA,01420
165866,100 STATE STREET,FRAMINGHAM,MA,01701
165936,255 GRAPEVINE RD,WENHAM,MA,01984
165945,130 ESSEX ST,SOUTH HAMILTON,MA,01982
165981,ONE COLLEGE DR,GREENFIELD,MA,01301
166018,893 WEST ST,AMHERST,MA,01002
166027,MASSACHUSETTS HALL,CAMBRIDGE,MA,02138
166124,ONE COLLEGE STREET,WORCESTER,MA,01610
166133,303 HOMESTEAD AVE,HOLYOKE,MA,01040
166391,1844 COMMONWEALTH AVENUE,NEWTON,MA,02466
166452,29 EVERETT ST,CAMBRIDGE,MA,02138
166513,1 UNIVERSITY AVE,LOWELL,MA,01854
166629,374 WHITMORE BUILDING 181 PRESIDENTS DRIVE,AMHERST,MA,01003
166638,100 MORRISSEY BOULEVARD,BOSTON,MA,02125
166647,50 OAKLAND ST,WELLESLEY HILLS,MA,02481
166656,179 LONGWOOD AVE,BOSTON,MA,02115
166674,621 HUNTINGTON AVE,BOSTON,MA,02115
166683,77 MASSACHUSETTS AVENUE,CAMBRIDGE,MA,02139
166692,101 ACADEMY DR,BUZZARDS BAY,MA,02532
166708,55 LAKE AVE NORTH,WORCESTER,MA,01655
166717,ONE WELLS AVENUE,NEWTON,MA,02459
166823,ONE MASSASOIT BOULEVARD,BROCKTON,MA,02302
166850,315 TURNPIKE ST,NORTH ANDOVER,MA,01845
166869,36 1ST AVENUE,BOSTON,MA,02129
166887,SPRINGS RD,BEDFORD,MA,01730
166939,50 COLLEGE STREET,SOUTH HADLEY,MA,01075
166948,777 DEDHAM STREET,NEWTON,MA,02459
166957,444 GREEN ST,GARDNER,MA,01440
167057,290 HUNTINGTON AVE,BOSTON,MA,02115
167260,CENTER RD,DUDLEY,MA,01571
167288,375 CHURCH STREET,NORTH ADAMS,MA,01247
167358,360 HUNTINGTON AVE,BOSTON,MA,02115
167394,291 SPRINGFIELD ST,CHICOPEE,MA,01013
167525,1250 HANCOCK STREET,QUINCY,MA,02169
167534,670 WEST BOYLSTON STREET,WORCESTER,MA,01606
167598,235 WELLESLEY ST,WESTON,MA,02493
167631,1234 COLUMBUS AVE,ROXBURY CROSSING,MA,02120
167729,352 LAFAYETTE ST,SALEM,MA,01970
167783,300 THE FENWAY,BOSTON,MA,02115
167835,ELM ST,NORTHAMPTON,MA,01063
167899,263 ALDEN ST,SPRINGFIELD,MA,01109
167905,1 ARMORY SQ,SPRINGFIELD,MA,01105
167987,285 OLD WESTPORT RD,NORTH DARTMOUTH,MA,02747
167996,320 WASHINGTON STREET,EASTON,MA,02357
168005,8 ASHBURTON PLACE,BOSTON,MA,02108
168148,NOT AVAILABLE,MEDFORD,MA,02155
168218,106 CENTRAL ST,WELLESLEY,MA,02481
168227,550 HUNTINGTON AVE,BOSTON,MA,02115
168254,1215 WILBRAHAM RD,SPRINGFIELD,MA,01119
168263,577 WESTERN AVE,WESTFIELD,MA,01086
168281,26 E MAIN ST,NORTON,MA,02766
168290,200 RIVERWAY,BOSTON,MA,02215
168342,880 MAIN ST,WILLIAMSTOWN,MA,01267
168421,100 INSTITUTE ROAD,WORCESTER,MA,01609
168430,486 CHANDLER ST,WORCESTER,MA,01602
168528,110 S MADISON ST,ADRIAN,MI,49221
168546,611 E PORTER ST,ALBION,MI,49224
168591,614 W SUPERIOR,ALMA,MI,48801
168607,665 JOHNSON ST,ALPENA,MI,49707
168740,"4150 ADMINISTRATION DRIVE, ROOM 136",BERRIEN SPRINGS,MI,49104
168786,1700 FULTON ST. E,GRAND RAPIDS,MI,49506
168847,1050 WEST BRISTOL ROAD,FLINT,MI,48507
169080,3201 BURTON STREET SE,GRAND RAPIDS,MI,49546
169248,106 WARRINER HALL,MOUNT PLEASANT,MI,48859
170037,1001 E BELTLINE AVE NE,GRAND RAPIDS,MI,49525
169363,4090 GEDDES ROAD,ANN ARBOR,MI,48105
169442,201 E KIRBY,DETROIT,MI,48202
169716,4001 W MCNICHOLS RD,DETROIT,MI,48221
169798,401 PIERCE HALL,YPSILANTI,MI,48197
169910,1201 S STATE ST,BIG RAPIDS,MI,49307
169974,62249 SHIMMEL RD,CENTREVILLE,MI,49032
169983,1700 UNIVERSITY AVENUE,FLINT,MI,48504
169992,E4946 JACKSON RD,IRONWOOD,MI,49938
170000,1011 ALDON SW,WYOMING,MI,49509
170055,143 BOSTWICK AVE NE,GRAND RAPIDS,MI,49503
170301,"100 E. 8TH STREET, SUITE 260",HOLLAND,MI,49422
170444,2111 EMMONS RD,JACKSON,MI,49201
170532,1200 ACADEMY ST,KALAMAZOO,MI,49006
170550,450 NORTH AVE,BATTLE CREEK,MI,49017
170587,10775 N SAINT HELEN ROAD,ROSCOMMON,MI,48653
170620,2755 EAST NAPIER AVENUE,BENTON HARBOR,MI,49022
170639,650 W EASTERDAY AVE,SAULT STE MARIE,MI,49783
170657,419 N CAPITOL AVE,LANSING,MI,48901
170675,21000 WEST TEN MILE ROAD,SOUTHFIELD,MI,48075
170806,36600 SCHOOLCRAFT RD,LIVONIA,MI,48150
170967,800 WEST AVON ROAD,ROCHESTER HILLS,MI,48307
171304,221 S QUARTERLINE RD,MUSKEGON,MI,49442
171456,1401 PRESQUE ISLE AVENUE,MARQUETTE,MI,49855
171483,1701 E FRONT ST,TRAVERSE CITY,MI,49686
171128,1400 TOWNSEND DRIVE,HOUGHTON,MI,49931
171137,4901 EVERGREEN RD,DEARBORN,MI,48128
171146,303 E. KEARSLEY STREET,FLINT,MI,48502
171155,1375 S CLARE AVE,HARRISON,MI,48625
171225,1555 SOUTH RAISINVILLE ROAD,MONROE,MI,48161
171234,2800 COLLEGE DR,SIDNEY,MI,48885
171492,4000 WHITING DR,MIDLAND,MI,48640
171571,2200 NORTH SQUIRREL ROAD,ROCHESTER HILLS,MI,48309
171599,320 SOUTH MAIN STREET,OLIVET,MI,49076
172051,7400 BAY RD,UNIVERSITY CENTER,MI,48710
172264,1247 E. SIENA HEIGHTS DR.,ADRIAN,MI,49221
172291,323 ERIE STREET,PORT HURON,MI,48061
172307,58900 CHERRY GROVE RD,DOWAGIAC,MI,49047
172334,106 E. MAIN ST,SPRING ARBOR,MI,49283
172608,3838 LIVERNOIS,TROY,MI,48083
172617,4800 E HURON RIVER DR,ANN ARBOR,MI,48105
173203,501 WEST COLLEGE DRIVE,BRAINERD,MN,56401
172644,656 WEST KIRBY STREET,DETROIT,MI,48202
172699,1903 W MICHIGAN AVE,KALAMAZOO,MI,49008
172918,1601 JEFFERSON STREEET,ALEXANDRIA,MN,56308
172954,1355 HIGHWAY 10 WEST,ANOKA,MN,55303
172963,11200 MISSISSIPPI BLVD NW,COON RAPIDS,MN,55433
175227,818 DUNWOODY BLVD,MINNEAPOLIS,MN,55403
173063,1900 8TH AVE NW,AUSTIN,MN,55912
173115,905 GRANT AVENUE SE,BEMIDJI,MN,56601
173124,1500 BIRCHMONT DR,BEMIDJI,MN,56601
173160,3900 BETHEL DR,SAINT PAUL,MN,55112
173258,ONE NORTH COLLEGE STREET,NORTHFIELD,MN,55057
173300,901 S 8TH ST,MOORHEAD,MN,56562
173328,1282 CONCORDIA AVE,SAINT PAUL,MN,55104
173416,1300  145TH STREET EAST,ROSEMOUNT,MN,55068
173452,1995 LUTHER CT,NEW ULM,MN,56073
173461,2101 TRINITY RD,DULUTH,MN,55811
173559,1414 COLLEGE WAY,FERGUS FALLS,MN,56537
173647,800 WEST COLLEGE AVENUE,SAINT PETER,MN,56082
173665,1536 HEWITT AVENUE,SAINT PAUL,MN,55104
173708,9000 BROOKLYN BLVD,BROOKLYN PARK,MN,55445
173735,1515 E 25TH ST,HIBBING,MN,55746
173799,2500 80TH ST E,INVER GROVE HEIGHTS,MN,55076
173805,1851 HWY 169 EAST,GRAND RAPIDS,MN,55744
173902,1600 GRAND AVE,SAINT PAUL,MN,55105
173920,SOUTH RD AND ELLIS AVE,MANKATO,MN,56001
173984,1515 CENTRAL PARKWAY,EAGAN,MN,55121
173993,1001 CHESTNUT STREET WEST,VIRGINIA,MN,55792
174075,2900 UNIVERSITY AVE,CROOKSTON,MN,56716
174127,2501 STEVENS AVE,MINNEAPOLIS,MN,55404
174136,1501 HENNEPIN AVE,MINNEAPOLIS,MN,55403
174251,309 BEHMLER HALL,MORRIS,MN,56267
174358,1104 SEVENTH AVENUE SOUTH,MOORHEAD,MN,56563
174376,7411 85TH AVE N,BROOKLYN PARK,MN,55445
174428,9700 FRANCE AVE S,BLOOMINGTON,MN,55431
174437,910 ELLIOT AVE,MINNEAPOLIS,MN,55404
174473,1101 HWY ONE EAST,THIEF RIVER FALLS,MN,56701
175078,1501 STATE ST,MARSHALL,MN,56258
174491,3003 SNELLING AVE N,SAINT PAUL,MN,55113
174507,2501 W 84TH ST,BLOOMINGTON,MN,55431
174570,900 4TH ST SE,PINE CITY,MN,55063
174738,851 30TH AVE SE,ROCHESTER,MN,55904
174747,37 S. COLLEGE AVE.,SAINT JOSEPH,MN,56374
174756,1540 NORTHWAY DRIVE,SAINT CLOUD,MN,56303
175281,875 SUMMIT AVE,SAINT PAUL,MN,55105
174783,720 FOURTH AVE. SOUTH,SAINT CLOUD,MN,56301
174792,2850 ABBEY PLAZA,COLLEGEVILLE,MN,56321
174844,1520 ST OLAF AVE,NORTHFIELD,MN,55057
174862,8700 COLLEGE VIEW DRIVE,SAINT BONIFACIUS,MN,55375
174899,1200 KENWOOD AVE,DULUTH,MN,55811
175005,2004 RANDOLPH AVE,SAINT PAUL,MN,55105
175041,235 MARSHALL AVE,SAINT PAUL,MN,55102
175236,2101 15TH AVE NW,WILLMAR,MN,56201
175263,1250 HOMER RD,WINONA,MN,55987
175272,175 WEST MARK STREET,WINONA,MN,55987
175315,3300 CENTURY AVE N,WHITE BEAR LAKE,MN,55110
175421,1500 PEACHTREE ST,JACKSON,MS,39202
175519,3240 FRIARS POINT RD,CLARKSDALE,MS,38614
175616,1003 W SUNFLOWER ROAD,CLEVELAND,MS,38733
175643,15738 HIGHWAY 15,DECATUR,MS,39327
175856,1400 J R LYNCH STREET,JACKSON,MS,39217
175883,900 SOUTH COURT STREET,ELLISVILLE,MS,39437
175935,910 HWY 19 N,MERIDIAN,MS,39307
175980,1701 N STATE ST,JACKSON,MS,39210
176008,HWY 3 AND CHERRY ST,MOORHEAD,MS,38761
176017,"OXFORD, MISSISSIPPI",UNIVERSITY,MS,38677
176035,1100 COLLEGE STREET,COLUMBUS,MS,39701
176044,14000 HIGHWAY 82 WEST,ITTA BENA,MS,38941
176053,200 SOUTH CAPITOL STREET,CLINTON,MS,39058
177065,1001 ROGERS STREET,COLUMBIA,MO,65216
176318,150 RUST AVENUE,HOLLY SPRINGS,MS,38635
176354,1156 COLLEGE DR,SUMMIT,MS,39666
176372,118 COLLEGE DRIVE # 0001,HATTIESBURG,MS,39406
176406,500 W COUNTY LINE RD,TOUGALOO,MS,39174
176479,710 WILLIAM CAREY PARKWAY,HATTIESBURG,MS,39401
176628,11901 WORNALL RD,KANSAS CITY,MO,64145
176770,1423 N JEFFERSON,SPRINGFIELD,MO,65802
176947,411 CENTRAL METHODIST SQUARE,FAYETTE,MO,65248
176965,108 W SOUTH STREET,WARRENSBURG,MO,64093
177144,ONE COLLEGE HILL,CANTON,MO,63435
177214,900 N. BENTON AVE,SPRINGFIELD,MO,65802
177339,1111 N GLENSTONE,SPRINGFIELD,MO,65802
177418,6800 WYDOWN BLVD,SAINT LOUIS,MO,63105
177542,2800 PALMYRA RD,HANNIBAL,MO,63401
177551,3026 LACLEDE AVE,SAINT LOUIS,MO,63103
177834,800 W JEFFERSON,KIRKSVILLE,MO,63501
177940,820 CHESTNUT STREET,JEFFERSON CITY,MO,65101
177968,209 S KINGSHIGHWAY,SAINT CHARLES,MO,63301
177977,ONE TECHNOLOGY DRIVE,LINN,MO,65051
177986,1851 SCHOETTLER RD,CHESTERFIELD,MO,63017
178208,5001 N. OAK TRAFFICWAY,KANSAS CITY,MO,64118
178217,5270 FLAT RIVER ROAD,PARK HILLS,MO,63601
178244,ONE COLLEGE PARK DR,SAINT LOUIS,MO,63141
178341,3950 E. NEWMAN ROAD,JOPLIN,MO,64801
178369,500 E COLLEGE ST,MARSHALL,MO,65340
178387,4525 DOWNS DR,SAINT JOSEPH,MO,64507
178411,1201 N. STATE ST.,ROLLA,MO,65409
178420,ONE UNIVERSITY BOULEVARD,SAINT LOUIS,MO,63121
178615,100 E NORMAL AVENUE,KIRKSVILLE,MO,63501
178624,800 UNIVERSITY DRIVE,MARYVILLE,MO,64468
178697,100 OPPORTUNITY AVENUE,POINT LOOKOUT,MO,65726
178721,8700 NW RIVER PARK DR,PARKVILLE,MO,64152
178891,4431 FINNEY AVE,SAINT LOUIS,MO,63113
179043,1100 ROCKHURST RD,KANSAS CITY,MO,64110
179265,4588 PARKVIEW PL,SAINT LOUIS,MO,63110
179344,128 GARFIELD AVENUE,WEST PLAINS,MO,65775
179548,1200 E BROADWAY,COLUMBIA,MO,65215
179566,901 S NATIONAL AVENUE,SPRINGFIELD,MO,65897
179645,2080 THREE RIVERS BLVD,POPLAR BLUFF,MO,63901
179715,1301 MAIN ST,TRENTON,MO,64683
179867,ONE BROOKINGS DRIVE,SAINT LOUIS,MO,63130
179955,500 COLLEGE HILL,LIBERTY,MO,64068
180106,1601 N BENTON AVE,HELENA,MT,59625
180179,1500 UNIVERSITY DRIVE,BILLINGS,MT,59101
180197,777 GRANDVIEW DR,KALISPELL,MT,59901
180249,2100 16TH AVE S,GREAT FALLS,MT,59405
180258,1301 TWENTIETH ST S,GREAT FALLS,MT,59405
180276,1115 N ROBERTS STREET,HELENA,MT,59601
180416,1300 W PARK ST,BUTTE,MT,59701
180461,MONTANA STATE UNIVERSITY,BOZEMAN,MT,59717
180489,"MISSOULA, MONTANA",MISSOULA,MT,59812
180522,300 W 11TH ST,HAVRE,MT,59501
180595,1511 POLY DRIVE,BILLINGS,MT,59102
180647,58138 US  HIGHWAY 93,PABLO,MT,59855
180692,710 S ATLANTIC,DILLON,MT,59725
180814,1000 GALVIN RD S,BELLEVUE,NE,68005
180832,101 S 42ND ST,OMAHA,NE,68131
180902,3134 WEST HWY 34,GRAND ISLAND,NE,68802
180948,1000 MAIN ST,CHADRON,NE,69337
180984,800 N COLUMBIA AVE,SEWARD,NE,68434
181640,301 SOUTH 68TH STREET PLACE,LINCOLN,NE,68510
181002,2500 CALIFORNIA PLAZA,OMAHA,NE,68178
181020,1014 BOSWELL AVENUE,CRETE,NE,68333
181127,710 N TURNER AVE,HASTINGS,NE,68901
181215,905 W 25TH ST,KEARNEY,NE,68849
181297,720 NORTH 87TH STREET,OMAHA,NE,68114
181312,1101 HALLIGAN DRIVE,NORTH PLATTE,NE,69101
181330,900 N. CLARKSON,FREMONT,NE,68025
181394,6001 DODGE ST,OMAHA,NE,68182
181428,42ND & DEWEY AVE,OMAHA,NE,68198
181446,5000 ST PAUL AVE,LINCOLN,NE,68504
183804,617 6TH ST,LAKEWOOD,NJ,08701
181464,14TH AND R ST,LINCOLN,NE,68588
181491,801 E BENJAMIN,NORFOLK,NE,68702
181534,600 HOYT STREET,PERU,NE,68421
181604,7000 MERCY RD.,OMAHA,NE,68106
407629,1858 W GRANDVIEW BLVD,ERIE,PA,16509
181738,3800 S 48TH STREET,LINCOLN,NE,68506
181783,1111 MAIN ST,WAYNE,NE,68787
181817,1601 EAST 27TH STREET,SCOTTSBLUFF,NE,69361
182005,6375 W. CHARLESTON BLVD.,LAS VEGAS,NV,89146
182281,4505 S MARYLAND PKY,LAS VEGAS,NV,89154
182290,NORTH VIRGINIA STREET,RENO,NV,89557
182458,999 TAHOE BLVD.,INCLINE VILLAGE,NV,89451
182500,7000 DANDINI BLVD,RENO,NV,89512
182564,2201 WEST COLLEGE PARKWAY,CARSON CITY,NV,89703
182634,541 MAIN ST,NEW LONDON,NH,03257
182670,207 PARKHURST HALL,HANOVER,NH,03755
182795,40 UNIVERSITY DRIVE,RINDGE,NH,03461
182980,98 BRIDGE ST,HENNIKER,NH,03242
183026,2500 NORTH RIVER ROAD,MANCHESTER,NH,03106
183044,"105 MAIN ST., THOMPSON HALL",DURHAM,NH,03824
183062,229 MAIN STREET,KEENE,NH,03435
183080,17 HIGH STREET,PLYMOUTH,NH,03264
183099,31 COLLEGE DRIVE,CONCORD,NH,03301
183123,379 BELMONT ROAD,LACONIA,NH,03246
183132,1066 FRONT ST,MANCHESTER,NH,03102
183141,505 AMHERST ST,NASHUA,NH,03063
183150,320 CORPORATE DRIVE,PORTSMOUTH,NH,03801
183211,420 SOUTH MAIN ST,NASHUA,NH,03060
183239,100 SAINT ANSELM DRIVE,MANCHESTER,NH,03102
183257,25 HALL STREET,CONCORD,NH,03301
183789,44 RIFLE CAMP RD,WOODLAND PARK,NJ,07424
183822,467 FRANKLIN ST,BLOOMFIELD,NJ,07003
183910,120 BLOOMFIELD AVENUE,CALDWELL,NJ,07006
183974,400 JEFFERSON ST,HACKETTSTOWN,NJ,07840
184180,214 CENTER GROVE RD,RANDOLPH,NJ,07869
184205,3322 COLLEGE DRIVE,VINELAND,NJ,08362
184348,36 MADISON AVE,MADISON,NJ,07940
184481,303 UNIVERSITY AVE,NEWARK,NJ,07102
184603,1000 RIVER RD,TEANECK,NJ,07666
184612,262 S MAIN ST,LODI,NJ,07644
184694,285 MADISON AVE,MADISON,NJ,07940
184773,900 LAKEWOOD AVE,LAKEWOOD,NJ,08701
184782,201 MULLICA HILL ROAD,GLASSBORO,NJ,08028
184791,1400 TANYARD ROAD,SEWELL,NJ,08080
198039,180 WEST CAMPUS DRIVE,FLAT ROCK,NC,28731
185129,2039 KENNEDY BLVD,JERSEY CITY,NJ,07305
185262,1000 MORRIS AVENUE,UNION,NJ,07083
185396,2299 VAUXHALL RD,UNION,NJ,07083
185509,1200 OLD TRENTON RD,WEST WINDSOR,NJ,08550
185572,400 CEDAR AVE,WEST LONG BRANCH,NJ,07764
185590,1 NORMAL AVENUE,MONTCLAIR,NJ,07043
185828,UNIVERSITY HEIGHTS,NEWARK,NJ,07102
185873,COLLEGE DRIVE,TOMS RIVER,NJ,08754
186034,ONE COLLEGE BLVD,PATERSON,NJ,07505
185536,2600 WOODBRIDGE AVENUE,EDISON,NJ,08818
186201,505 RAMAPO VALLEY RD,MAHWAH,NJ,07430
186283,2083 LAWRENCE ROAD,LAWRENCEVILLE,NJ,08648
186371,406 PENN,CAMDEN,NJ,08102
187532,525 BUENA VISTA SE,ALBUQUERQUE,NM,87106
187596,"LOWER POINT ROAD, STATE ROAD 371",CROWNPOINT,NM,87313
187620,2800 N. SONOMA RANCH BLVD.,LAS CRUCES,NM,88011
187639,417 SCHEPPS BLVD,CLOVIS,NM,88101
187648,"ENMU STATION 2, 1500 S AVE K",PORTALES,NM,88130
187666,52 UNIVERSITY BLVD,ROSWELL,NM,88202
187903,5317 LOVINGTON HWY,HOBBS,NM,88240
187958,705 GURLEY AVE.,GALLUP,NM,87301
187967,801 LEROY PLACE,SOCORRO,NM,87801
187976,4000 UNIVERSITY DR,LOS ALAMOS,NM,87544
187985,1700 LOMAS BLVD NE,ALBUQUERQUE,NM,87106
187994,2400 NORTH SCENIC DRIVE,ALAMOGORDO,NM,88310
188003,1500 UNIVERSITY DRIVE,CARLSBAD,NM,88220
188021,1500 THIRD STREET,GRANTS,NM,87020
188030,2850 WEDDELL STREET,LAS CRUCES,NM,88003
188049,280 LA ENTRADA,LOS LUNAS,NM,87031
188058,921 PASEO DE ONATE,ESPANOLA,NM,87532
188137,6401 RICHARDS AVE,SANTA FE,NM,87508
188182,6610 NORTH LOVINGTON HWY,HOBBS,NM,88240
197814,1208 N ROAD ST,ELIZABETH CITY,NC,27906
188261,911 S TENTH STREET,TUCUMCARI,NM,88401
188304,1000 W. COLLEGE AVE,SILVER CITY,NM,88061
193900,70 WASHINGTON SQ SOUTH,NEW YORK,NY,10012
197850,680 HIGHWAY 74 WEST,POLKTON,NC,28135
197869,287 RIVERS ST,BOONE,NC,28608
199421,629 INDUSTRIAL PARK AVE,ASHEBORO,NC,27205
197887,340 VICTORIA RD,ASHEVILLE,NC,28801
197911,200 E. ACC DRIVE,WILSON,NC,27893
197966,5337 US HIGHWAY 264 EAST,WASHINGTON,NC,27889
197984,100 BELMONT-MT HOLLY ROAD,BELMONT,NC,28012
198011,7418 NC HWY 41 WEST,DUBLIN,NC,28332
198084,50 COLLEGE RD,BOLIVIA,NC,28422
198118,2855 HICKORY BOULEVARD,HUDSON,NC,28638
198136,143 MAIN STREET,BUIES CREEK,NC,27506
198154,411 NORTH FRONT STREET,WILMINGTON,NC,28401
198206,3505 ARENDELL ST,MOREHEAD CITY,NC,28557
198215,2300 W INNES ST,SALISBURY,NC,28144
198233,2550 HWY 70 SE,HICKORY,NC,28602
198251,1105 KELLY DR,SANFORD,NC,27330
198260,1201 ELIZABETH AVENUE,CHARLOTTE,NC,28204
200192,1801 COLLEGE DR N,DEVILS LAKE,ND,58301
198303,ONE UNIVERSITY PLACE,MURFREESBORO,NC,27855
198321,137 S POST RD,SHELBY,NC,28152
198330,444 WESTERN BLVD,JACKSONVILLE,NC,28546
198367,800 COLLEGE CT,NEW BERN,NC,28562
198376,297 DCCC ROAD,THOMASVILLE,NC,27360
198385,102 N. MAIN STREET,DAVIDSON,NC,28035
198419,103 ALLEN BLDG,DURHAM,NC,27708
198455,1637 LAWSON STREET,DURHAM,NC,27703
198464,EAST 5TH STREET,GREENVILLE,NC,27858
198491,2009 W WILSON ST,TARBORO,NC,27886
198507,1704 WEEKSVILLE RD,ELIZABETH CITY,NC,27909
198516,100 CAMPUS DRIVE,ELON,NC,27244
198534,2201 HULL RD,FAYETTEVILLE,NC,28303
198543,1200 MURCHISON RD,FAYETTEVILLE,NC,28301
198552,2100 SILAS CREEK PKY,WINSTON-SALEM,NC,27103
198561,MAIN ST,BOILING SPRINGS,NC,28017
198570,201 HWY 321 S,DALLAS,NC,28034
198598,815 W MARKET ST,GREENSBORO,NC,27401
198613,5800 W FRIENDLY AVENUE,GREENSBORO,NC,27410
198622,601 E. MAIN STREET,JAMESTOWN,NC,27282
198640,100 COLLEGE DRIVE,WELDON,NC,27890
198668,185 FREEDLANDER DRIVE,CLYDE,NC,28721
198695,ONE UNIVERSITY PARKWAY,HIGH POINT,NC,27268
198710,286 ICC LOOP ROAD,SPINDALE,NC,28160
198729,133 JAMES SPRUNT DRIVE,KENANSVILLE,NC,28349
198756,100 BEATTIES FORD ROAD,CHARLOTTE,NC,28216
198774,245 COLLEGE ROAD,SMITHFIELD,NC,27577
198808,191 MAIN STREET,BANNER ELK,NC,28604
198817,231 HIGHWAY 58 SOUTH,KINSTON,NC,28502
198835,625 7TH AVENUE NE,HICKORY,NC,28601
198862,701 W MONROE ST,SALISBURY,NC,28144
198899,100 ATHLETIC ST,MARS HILL,NC,28754
198905,1161 KEHUKEE PK RD,WILLIAMSTON,NC,27892
198914,200 MAYLAND DRIVE,SPRUCE PINE,NC,28777
198923,54 COLLEGE DRIVE,MARION,NC,28752
198950,3800 HILLSBOROUGH ST,RALEIGH,NC,27607
198969,5400 RAMSEY ST,FAYETTEVILLE,NC,28311
198978,5000 MARKET STREET,WILMINGTON,NC,28405
198987,500 W BROAD STREET,STATESVILLE,NC,28677
199023,1011 PAGE ST,TROY,NC,27371
199032,310 GAITHER CIRCLE,MONTREAT,NC,28757
199069,634 HENDERSON ST,MOUNT OLIVE,NC,28365
199087,522 N. OLD CARRIAGE ROAD,ROCKY MOUNT,NC,27804
199102,1601 E MARKET  ST,GREENSBORO,NC,27411
199111,ONE UNIVERSITY HEIGHTS,ASHEVILLE,NC,28804
199120,103 SOUTH BLDG CB 9100,CHAPEL HILL,NC,27599
199139,9201 UNIVERSITY CITY BLVD,CHARLOTTE,NC,28223
199148,1400 SPRING GARDEN ST,GREENSBORO,NC,27402
199157,1801 FAYETTEVILLE STREET,DURHAM,NC,27707
199184,1533 SOUTH MAIN ST.,WINSTON-SALEM,NC,27127
199209,3400 N WESLEYAN BLVD,ROCKY MOUNT,NC,27804
207290,200 I ST NE,MIAMI,OK,74354
199218,601 SOUTH COLLEGE ROAD,WILMINGTON,NC,28403
199272,15 E PEACE ST,RALEIGH,NC,27604
199281,ONE UNIVERSITY DRIVE,PEMBROKE,NC,28372
199306,48380 US HWY 52N,MISENHEIMER,NC,28109
199324,1715 COLLEGE DR,ROXBORO,NC,27573
199333,1986 PITT TECH ROAD,WINTERVILLE,NC,28590
199412,1900 SELWYN AVE,CHARLOTTE,NC,28274
199449,1042 W HAMLET AVE,HAMLET,NC,28345
199476,5160 FAYETTEVILLE ROAD,LUMBERTON,NC,28360
199485,215 WRENN MEMORIAL ROAD,WENTWORTH,NC,27375
199494,"1333 JAKE ALEXANDER BLVD, SOUTH",SALISBURY,NC,28146
199582,1315 OAKWOOD AVENUE,RALEIGH,NC,27610
199607,601 S CHURCH ST,WINSTON-SALEM,NC,27101
199625,HIGHWAY 24 WEST,CLINTON,NC,28328
199634,3395 AIRPORT RD,PINEHURST,NC,28374
199643,118 EAST SOUTH STREET,RALEIGH,NC,27601
199722,4564 CHADBOURN HWY,WHITEVILLE,NC,28472
199731,447 COLLEGE DRIVE,SYLVA,NC,28779
199740,141 COLLEGE DRIVE,ALBEMARLE,NC,28001
199759,120 S. WINGATE STREET,WAKE FOREST,NC,27587
199768,630 S. MAIN ST.,DOBSON,NC,27017
199786,1247 JIMMIE KERR ROAD,GRAHAM,NC,27253
199795,21 CAMPUS CIRCLE,MURPHY,NC,28906
199847,1834 WAKE FOREST ROAD,WINSTON-SALEM,NC,27106
199856,9101 FAYETTEVILLE ROAD,RALEIGH,NC,27603
199892,3000 WAYNE MEMORIAL DR,GOLDSBORO,NC,27534
199908,1001 BURKEMONT AVE,MORGANTON,NC,28655
199926,1328 SOUTH COLLEGIATE DR,WILKESBORO,NC,28697
199953,902 HERRING AVE,WILSON,NC,27893
199962,220 NORTH CAMDEN ROAD,WINGATE,NC,28174
207306,709 OKLAHOMA BLVD,ALVA,OK,73717
199999,601 MARTIN LUTHER KING JR DR,WINSTON-SALEM,NC,27110
200004,HIGHWAY 107,CULLOWHEE,NC,28723
200022,1500 EDWARDS AVE.,BISMARCK,ND,58506
200059,291 CAMPUS DRIVE,DICKINSON,ND,58601
199838,200 COMMUNITY COLLEGE ROAD,HENDERSON,NC,27537
200217,7500 UNIVERSITY DR,BISMARCK,ND,58504
200226,330 THIRD STREET NE,MAYVILLE,ND,58257
200253,500 UNIVERSITY AVE W,MINOT,ND,58707
200280,"264 CENTENNIAL DRIVE, STOP 8193",GRAND FORKS,ND,58202
200305,800 N 6TH ST,WAHPETON,ND,58076
200314,105 SIMRALL BLVD,BOTTINEAU,ND,58318
200332,1301  12TH AVENUE NORTH,FARGO,ND,58108
200341,1410 UNIVERSITY AVE,WILLISTON,ND,58801
200572,101 COLLEGE ST SW,VALLEY CITY,ND,58072
206817,2299 OLD BACONE RD,MUSKOGEE,OK,74403
206835,2201 SILVER LAKE RD,BARTLESVILLE,OK,74006
206862,6729 NW 39TH EXPY,BETHANY,OK,73008
206914,2800 WEST GORE BLVD,LAWTON,OK,73505
206923,1507 S MCKENNA,POTEAU,OK,74953
206941,100 N UNIVERSITY DR,EDMOND,OK,73034
210155,1988 NEWMARK AVE,COOS BAY,OR,97420
206996,700 COLLEGE ROAD,WARNER,OK,74469
207041,1100 E. 14TH STREET,ADA,OK,74820
207050,1301 W MAIN ST,WILBURTON,OK,74578
207069,1300 S COUNTRY CLUB RD,EL RENO,OK,73036
207209,102 PAGE HALL,LANGSTON,OK,73050
207236,ONE MURRAY CAMPUS,TISHOMINGO,OK,73460
207254,8820 EAST PINE STREET,TULSA,OK,74115
207263,600 N GRAND,TAHLEQUAH,OK,74464
207315,1111 W 17TH ST,TULSA,OK,74107
207324,2501 E MEMORIAL RD,EDMOND,OK,73013
207342,1105 STONEWALL AVENUE,OKLAHOMA CITY,OK,73117
207351,323 EAGLE AVE,GOODWELL,OK,73939
207388,107 WHITEHURST,STILLWATER,OK,74078
207397,900 N PORTLAND,OKLAHOMA CITY,OK,73107
207403,500 W UNIVERSITY,SHAWNEE,OK,74804
207449,7777 S MAY AVE,OKLAHOMA CITY,OK,73159
207458,2501 N BLACKWELDER,OKLAHOMA CITY,OK,73106
207500,660 PARRINGTON OVAL,NORMAN,OK,73019
207564,1801 E 4TH ST,OKMULGEE,OK,74447
207582,7777 S LEWIS AVE.,TULSA,OK,74171
207661,1701 W WILL ROGERS BLVD,CLAREMORE,OK,74017
208275,2411 NW CARDEN AVE,PENDLETON,OR,97801
208318,2600 NW COLLEGE WAY,BEND,OR,97703
208390,4000 LANCASTER DR NE,SALEM,OR,97305
208406,19600 MOLALLA AVE,OREGON CITY,OR,97045
208488,2811 NE HOLMAN STREET,PORTLAND,OR,97211
208646,ONE UNIVERSITY BLVD,LA GRANDE,OR,97850
208822,414 N MERIDIAN ST,NEWBERG,OR,97132
209038,4000 E 30TH AVE,EUGENE,OR,97405
209056,0615 S W PALATINE HILL RD,PORTLAND,OR,97219
209065,900 SE BAKER,MCMINNVILLE,OR,97128
209074,6500 PACIFIC BLVD SW,ALBANY,OR,97321
209250,26000 SE STARK ST,GRESHAM,OR,97030
209506,3201 CAMPUS DRIVE,KLAMATH FALLS,OR,97601
209542,1500 SW JEFFERSON AVENUE,CORVALLIS,OR,97331
210234,650 COLLEGE BLVD,ONTARIO,OR,97914
209551,110 JOHNSON HALL,EUGENE,OR,97403
209612,2043 COLLEGE WAY,FOREST GROVE,OR,97116
209746,12000 SW 49TH AVENUE,PORTLAND,OR,97219
209807,724 SW HARRISON,PORTLAND,OR,97201
209825,5000 N WILLAMETTE BLVD,PORTLAND,OR,97203
209922,3203 SE WOODSTOCK BLVD,PORTLAND,OR,97202
209940,3345 REDWOOD HWY,GRANTS PASS,OR,97527
210076,27501 SW PARKWAY AVE,WILSONVILLE,OR,97070
210146,1250 SISKIYOU BLVD,ASHLAND,OR,97520
210270,1140 UMPQUA COLLEGE RD.,ROSEBURG,OR,97470
210331,5000 DEER PARK DR SE,SALEM,OR,97317
210401,900 STATE ST,SALEM,OR,97301
210429,345 NORTH MONMOUTH AVE,MONMOUTH,OR,97361
210438,2900 NE 132ND AVE,PORTLAND,OR,97230
210571,1621 N. 13TH ST.,READING,PA,19612
210605,800 ALLEGHENY AVE,PITTSBURGH,PA,15233
210669,520 N MAIN ST,MEADVILLE,PA,16335
210739,2755 STATION AVENUE,CENTER VALLEY,PA,18034
210775,400 SAINT BERNARDINE ST,READING,PA,19607
210809,270 S. BRYN MAWR AVE,BRYN MAWR,PA,19010
211079,1 CAMPUS DRIVE,MONACA,PA,15061
211088,450 S EASTON RD,GLENSIDE,PA,19038
211158,400 E SECOND ST,BLOOMSBURG,PA,17815
211273,101 N MERION AVENUE,BRYN MAWR,PA,19010
211291,ONE DENT DRIVE,LEWISBURG,PA,17837
211307,275 SWAMP RD,NEWTOWN,PA,18940
211343,107 COLLEGE DRIVE,BUTLER,PA,16002
211352,610 KING OF PRUSSIA RD,RADNOR,PA,19087
211361,250 UNIVERSITY AVE,CALIFORNIA,PA,15419
211431,3333 FIFTH AVE,PITTSBURGH,PA,15213
211440,5000 FORBES AVENUE,PITTSBURGH,PA,15213
211468,100 COLLEGE DRIVE,ALLENTOWN,PA,18104
211477,COLLEGE HILL & VALLEY RDS,SUMMERDALE,PA,17093
211556,WOODLAND RD,PITTSBURGH,PA,15232
211583,9601 GERMANTOWN AVE,PHILADELPHIA,PA,19118
211644,840 WOOD STREET,CLARION,PA,16214
211981,700 E BUTLER AVE,DOYLESTOWN,PA,18901
212009,COLLEGE AND LOUTHER STREETS,CARLISLE,PA,17013
212106,ADMINISTRATION BLDG 600 FORBES AVE,PITTSBURGH,PA,15282
212115,200 PROSPECT STREET,EAST STROUDSBURG,PA,18301
212133,1300 EAGLE RD,SAINT DAVIDS,PA,19087
212160,219 MEADVILLE STREET,EDINBORO,PA,16444
212197,ONE ALPHA DRIVE,ELIZABETHTOWN,PA,17022
212577,COLLEGE AVE,LANCASTER,PA,17604
213251,1700 MOORE ST,HUNTINGDON,PA,16652
213303,ONE COLLEGE GREEN,LA PLUME,PA,18440
212601,109 W SIXTH ST,ERIE,PA,16541
212656,3200 COLLEGE AVE,BEAVER FALLS,PA,15010
212674,300 N WASHINGTON ST,GETTYSBURG,PA,17325
212805,100 CAMPUS DR,GROVE CITY,PA,16127
212832,1325 SUMNEYTOWN PIKE,GWYNEDD VALLEY,PA,19437
212984,9801 FRANKFORD AVENUE,PHILADELPHIA,PA,19114
213011,1145 KING RD,IMMACULATA,PA,19345
213020,1011 SOUTH DR 201 SUTTON HALL,INDIANA,PA,15705
213321,133 N RIVER ST,WILKES-BARRE,PA,18711
213349,15200 KUTZTOWN RD,KUTZTOWN,PA,19530
213358,9000 BABCOCK BLVD,PITTSBURGH,PA,15237
213367,1900 W OLNEY AVE,PHILADELPHIA,PA,19141
213385,HIGH ST,EASTON,PA,18042
213400,901 EDEN RD,LANCASTER,PA,17601
213507,101 N COLLEGE AVE,ANNVILLE,PA,17003
213525,4525 EDUCATION PARK DR,SCHNECKSVILLE,PA,18078
213543,27 MEMORIAL DRIVE WEST,BETHLEHEM,PA,18015
213598,1570 BALTIMORE PIKE,LINCOLN UNIVERSITY,PA,19352
214379,3835 GREEN POND RD,BETHLEHEM,PA,18020
213613,401 NORTH FAIRVIEW STREET,LOCK HAVEN,PA,17745
213659,1333 SOUTH PROSPECT STREET,NANTICOKE,PA,18634
213668,700 COLLEGE PLACE,WILLIAMSPORT,PA,17701
213783,ACADEMY STREET,MANSFIELD,PA,16933
213826,2300 ADAMS AVE,SCRANTON,PA,18509
213987,501 E 38TH ST,ERIE,PA,16546
213996,ONE COLLEGE AVE,MECHANICSBURG,PA,17055
214041,"1 SOUTH GEORGE STREET, LYLE HALL",MILLERSVILLE,PA,17551
214069,301 LAKE ST,DALLAS,PA,18612
214157,1200 MAIN ST,BETHLEHEM,PA,18018
214166,7373 ADMIRAL PEARY HWY,CRESSON,PA,16630
214175,2400 CHEW STREET,ALLENTOWN,PA,18104
214272,ONE NEUMANN DRIVE,ASTON,PA,19014
214591,4701 COLLEGE DRIVE,ERIE,PA,16563
214616,500 UNIVERSITY DRIVE,HERSHEY,PA,17033
214652,120 RIDGE VIEW DRIVE,DUNMORE,PA,18512
214670,2809 SAUCON VALLEY ROAD,CENTER VALLEY,PA,18034
214689,3000 IVYSIDE PARK,ALTOONA,PA,16601
214704,TULPEHOCKEN ROAD,READING,PA,19610
214713,777 WEST HARRISBURG PIKE,MIDDLETOWN,PA,17057
214731,25 YEARSLEY MILL ROAD,MEDIA,PA,19063
214777,201 OLD MAIN,UNIVERSITY PARK,PA,16802
214795,1 CAMPUS DRIVE,MONT ALTO,PA,17237
214801,1600 WOODLAND ROAD,ABINGTON,PA,19001
214829,1031 EDGECOMB AVENUE,YORK,PA,17403
214883,1420 PINE STREET,PHILADELPHIA,PA,19102
215062,34TH & SPRUCE STREET,PHILADELPHIA,PA,19104
215099,4201 HENRY AVENUE,PHILADELPHIA,PA,19144
215105,320 SOUTH BROAD ST,PHILADELPHIA,PA,19102
215114,200 MANOR AVE,LANGHORNE,PA,19047
215123,4170 CITY AVE,PHILADELPHIA,PA,19131
217402,1 CUNNINGHAM SQUARE,PROVIDENCE,RI,02918
215132,600 SOUTH 43RD STREET,PHILADELPHIA,PA,19104
215266,300 CAMPUS DRIVE,BRADFORD,PA,16701
215415,1111 MCKEE ROAD,OAKDALE,PA,15071
215442,201 WOOD ST,PITTSBURGH,PA,15222
215691,1400 MONTGOMERY AVE,ROSEMONT,PA,19010
215743,117 EVERGREEN DR,LORETTO,PA,15940
215770,5600 CITY AVENUE,PHILADELPHIA,PA,19131
215798,300 FRASER PURCHASE RD,LATROBE,PA,15650
215929,800 LINDEN STREET,SCRANTON,PA,18510
215947,1 SETON HILL DRIVE,GREENSBURG,PA,15601
216010,1871 OLD MAIN DRIVE,SHIPPENSBURG,PA,17257
216038,1 MORROW WAY,SLIPPERY ROCK,PA,16057
216278,514 UNIVERSITY AVE,SELINSGROVE,PA,17870
216287,500 COLLEGE AVE,SWARTHMORE,PA,19081
216296,750 E KING ST,LANCASTER,PA,17602
216339,1801 NORTH BROAD STREET,PHILADELPHIA,PA,19122
216357,75 COLLEGE AVE,GREENVILLE,PA,16125
216366,1020 WALNUT STREET,PHILADELPHIA,PA,19107
216524,601 E. MAIN ST,COLLEGEVILLE,PA,19426
216597,800 LANCASTER AVENUE,VILLANOVA,PA,19085
216667,60 S LINCOLN ST,WASHINGTON,PA,15301
216764,UNIVERSITY AVENUE AND HIGH STREET,WEST CHESTER,PA,19383
216807,319 SOUTH MARKET  STREET,NEW WILMINGTON,PA,16172
216825,145 PAVILION LANE,YOUNGWOOD,PA,15697
216852,ONE UNIVERSITY PLACE,CHESTER,PA,19013
216931,84 WEST SOUTH STREET,WILKES-BARRE,PA,18766
217013,1015 PHILADELPHIA AVE,CHAMBERSBURG,PA,17201
217059,441 COUNTRY CLUB RD,YORK,PA,17403
217077,1405 WILLIAMS ROAD,YORK,PA,17402
217156,ONE PROSPECT STREET,PROVIDENCE,RI,02912
217165,1150 DOUGLAS PIKE,SMITHFIELD,RI,02917
217484,"GREEN HALL, 35 CAMPUS AVENUE",KINGSTON,RI,02881
217420,600 MOUNT PLEASANT AVE,PROVIDENCE,RI,02908
217475,400 EAST AVE,WARWICK,RI,02886
217493,2 COLLEGE ST,PROVIDENCE,RI,02903
217518,ONE OLD FERRY ROAD,BRISTOL,RI,02809
217536,100 OCHRE POINT AVENUE,NEWPORT,RI,02840
217615,2276 JEFFERSON DAVIS HIGHWAY,GRANITEVILLE,SC,29829
217633,316 BOULEVARD,ANDERSON,SC,29621
217688,9200 UNIVERSITY BLVD,CHARLESTON,SC,29406
217712,921 RIBAUT ROAD,BEAUFORT,SC,29901
217721,1600 HARDEN STREET,COLUMBIA,SC,29204
217749,1700 WADE HAMPTON BOULAVARD,GREENVILLE,SC,29614
217819,66 GEORGE ST,CHARLESTON,SC,29424
217837,1201 CHESTERFIELD HWY.,CHERAW,SC,29520
217864,171 MOULTRIE ST,CHARLESTON,SC,29409
217873,400 MAGNOLIA STREET,ORANGEBURG,SC,29115
218353,1260 LEXINGTON DRIVE,WEST COLUMBIA,SC,29170
217882,201 SIKES HALL,CLEMSON,SC,29634
217907,300 E COLLEGE AVE,HARTSVILLE,SC,29550
217925,7435 MONTICELLO RD,COLUMBIA,SC,29203
217934,1301 COLUMBIA COLLEGE DR,COLUMBIA,SC,29203
217961,580 E MAIN ST,SPARTANBURG,SC,29302
218025,2715 W. LUCAS STREET,FLORENCE,SC,29501
218061,4822 EAST PALMETTO STREET,FLORENCE,SC,29506
218070,3300 POINSETT HIGHWAY,GREENVILLE,SC,29613
218140,2050 HIGHWAY 501 EAST,CONWAY,SC,29526
218229,320 STANLEY AVENUE,GREENWOOD,SC,29649
218238,1115 COLLEGE DRIVE,GAFFNEY,SC,29340
218335,179 ASHLEY AVE,CHARLESTON,SC,29425
218414,2100 COLLEGE ST,NEWBERRY,SC,29108
218441,7801 N. TIGERVILLE ROAD,TIGERVILLE,SC,29688
218520,620 NORTH EMERALD ROAD,GREENWOOD,SC,29646
218539,503 SOUTH BROAD STREET,CLINTON,SC,29325
218645,471 UNIVERSITY PKWY,AIKEN,SC,29801
218654,1 UNIVERSITY BOULEVARD,BLUFFTON,SC,29909
218663,COLUMBIA-CAMPUS,COLUMBIA,SC,29208
218672,476 HUBBARD DRIVE,LANCASTER,SC,29720
218690,200 MILLER RD,SUMTER,SC,29150
218724,103 TOM TROUT DRIVE,CONWAY,SC,29526
218733,300 COLLEGE ST NE,ORANGEBURG,SC,29117
218742,800 UNIVERSITY WAY,SPARTANBURG,SC,29303
219259,1200 S JAY ST,ABERDEEN,SD,57401
218858,506 N GUIGNARD DR,SUMTER,SC,29150
218885,7900 U.S. HWY 76,PENDLETON,SC,29670
218894,7000 RIVERS AVENUE,CHARLESTON,SC,29423
218964,701 OAKLAND AVE,ROCK HILL,SC,29733
218973,429 N CHURCH ST,SPARTANBURG,SC,29303
218991,452 S ANDERSON RD,ROCK HILL,SC,29730
219000,2001 S SUMMIT AVE,SIOUX FALLS,SD,57197
219046,1200 UNIVERSITY ST,SPEARFISH,SD,57799
219082,820 N WASHINGTON AVE,MADISON,SD,57042
219091,1200 W UNIVERSITY AVE,MITCHELL,SD,57301
219143,1201 ARROW AVENUE,WATERTOWN,SD,57201
219189,1800 E. SPRUCE STREET,MITCHELL,SD,57301
219198,1105 W. 8TH STREET,YANKTON,SD,57078
219277,490 PIYA WICONI ROAD,KYLE,SD,57752
219347,501 E SAINT JOSEPH ST,RAPID CITY,SD,57701
219356,1015 CAMPANILE AVENUE,BROOKINGS,SD,57007
219383,1101 W 22ND ST,SIOUX FALLS,SD,57105
219426,2320 N CAREER AVE,SIOUX FALLS,SD,57107
219471,414 E CLARK ST,VERMILLION,SD,57069
219480,800 MICKELSON DR,RAPID CITY,SD,57703
219602,601 COLLEGE ST,CLARKSVILLE,TN,37044
219639,1003 MONROE AVE,MEMPHIS,TN,38104
219709,1900 BELMONT BLVD,NASHVILLE,TN,37212
219718,325 CHERRY AVE,MCKENZIE,TN,38201
219790,721 BRYAN DRIVE,DAYTON,TN,37321
219806,1646 S RUSSELL AVE,JEFFERSON CITY,TN,37760
219824,4501 AMNICOLA HWY,CHATTANOOGA,TN,37406
219833,650 EAST PARKWAY SOUTH,MEMPHIS,TN,38104
219879,3535 ADKISSON DRIVE,CLEVELAND,TN,37312
219903,"5100 POPLAR AVENUE, SUITE 132",MEMPHIS,TN,38137
219949,1 CUMBERLAND SQUARE,LEBANON,TN,37087
219976,ONE UNIVERSITY PARK DRIVE,NASHVILLE,TN,37204
220057,1510 LAKE RD,DYERSBURG,TN,38024
220075,1276 GILBREATH DRIVE,JOHNSON CITY,TN,37614
220215,158 E MAIN ST,HENDERSON,TN,38340
220400,2046 NORTH PKY,JACKSON,TN,38301
220473,7900 JOHNSON DR,KNOXVILLE,TN,37998
220552,3904 LONAS ROAD,KNOXVILLE,TN,37909
220598,545 LANE AVE,JACKSON,TN,38301
220604,807 WALKER AVE,MEMPHIS,TN,38126
220613,1120 N OCOEE ST,CLEVELAND,TN,37311
220640,740 HI TECH DR,LIVINGSTON,TN,38570
220701,433 WEST MADISON STREET,PULASKI,TN,38478
220710,502 E LAMAR ALEXANDER PKY,MARYVILLE,TN,37804
220792,1005 DB TODD BLVD.,NASHVILLE,TN,37208
220862,SOUTHERN AVENUE,MEMPHIS,TN,38152
220978,1301 EAST MAIN STREET,MURFREESBORO,TN,37132
221096,6015 LEDFORD MILL ROAD,TULLAHOMA,TN,37388
221148,1524 GALLATIN RD,NASHVILLE,TN,37206
221184,120 WHITE BRIDGE RD,NASHVILLE,TN,37209
221351,2000 NORTH PARKWAY,MEMPHIS,TN,38112
221519,735 UNIVERSITY AVENUE,SEWANEE,TN,37383
221625,1100 LIBERTY STREET,KNOXVILLE,TN,37919
221643,10915 HARDIN VALLEY ROAD,KNOXVILLE,TN,37933
221661,4881 TAYLOR CIR,COLLEGEDALE,TN,37315
221731,204 EAST COLLEGE STREET,ATHENS,TN,37303
221740,615 MCCALLIE AVE,CHATTANOOGA,TN,37403
221759,527 ANDY HOLT TOWER,KNOXVILLE,TN,37996
221768,554 UNIVERSITY STREET,MARTIN,TN,38238
221838,3500 JOHN A. MERRITT BLVD,NASHVILLE,TN,37209
221847,1 WILLIAM L. JONES DRIVE,COOKEVILLE,TN,38505
221892,333 MURFREESBORO RD,NASHVILLE,TN,37210
221953,60 SHILOH ROAD,GREENEVILLE,TN,37743
221971,1050 UNION UNIVERSITY DR,JACKSON,TN,38305
221999,2101 WEST END AVENUE,NASHVILLE,TN,37240
222053,1480 NASHVILLE PIKE,GALLATIN,TN,37066
222178,NOT AVAILABLE,ABILENE,TX,79699
222567,3110 MUSTANG RD,ALVIN,TX,77511
222628,1700 EASTGATE DR,GARLAND,TX,75041
222822,3500 SOUTH FIRST,LUFKIN,TX,75902
222831,2601 W. AVENUE N,SAN ANGELO,TX,76909
222938,"RIVER OAKS PLAZA, 4140 SOUTHWEST FREEWAY",HOUSTON,TX,77027
222983,900 N GRAND AVE,SHERMAN,TX,75090
223223,ONE BAYLOR PLAZA,HOUSTON,TX,77030
223232,NOT AVAILABLE,WACO,TX,76798
223427,902 COLLEGE AVE,BRENHAM,TX,77833
223463,1800 EASTGATE DR,GARLAND,TX,75041
223506,500 COLLEGE DR,LAKE JACKSON,TX,77566
223524,3939 VALLEY VIEW LN,FARMERS BRANCH,TX,75244
223773,3030 NORTH DALLAS AVE,LANCASTER,TX,75134
223898,101 COLLEGE HEIGHTS,CISCO,TX,76437
223922,1122 COLLEGE DRIVE,CLARENDON,TX,79226
224004,302 EXPLORER,LAKEWAY,TX,78734
224110,1525 W CALIFORNIA STREET,GAINESVILLE,TX,76240
224147,6300 OCEAN DR.,CORPUS CHRISTI,TX,78412
224226,3000 MOUNTAIN CREEK PARKWAY,DALLAS,TX,75211
224305,3909 SWISS AVE,DALLAS,TX,75204
224323,1845 E NORTHGATE DRIVE,IRVING,TX,75062
224350,101 BALDWIN BLVD.,CORPUS CHRISTI,TX,78404
225201,10401 IH 10 W,SAN ANTONIO,TX,78230
224527,ONE TIGER DRIVE,MARSHALL,TX,75670
224545,7101 UNIVERSITY AVENUE,TEXARKANA,TX,75503
224554,2600 SOUTH NEAL,COMMERCE,TX,75429
224572,3737 MOTLEY DR,MESQUITE,TX,75150
224642,9050 VISCOUNT BLVD,EL PASO,TX,79925
224679,9624 PLAZA CIRCLE,EL PASO,TX,79927
224891,1301 W. ROOSEVELT ST.,BORGER,TX,79008
224961,4015 AVE Q,GALVESTON,TX,77550
225070,6101 GRAYSON DRIVE,DENISON,TX,75020
225247,2200 HICKORY,ABILENE,TX,79698
225371,112 LAMAR DR,HILLSBORO,TX,76645
225399,7502 FONDREN RD,HOUSTON,TX,77074
225414,2700 BAY AREA BLVD,HOUSTON,TX,77058
225502,3007 N. BEN WILSON,VICTORIA,TX,77901
226091,4400 MLK BLVD,BEAUMONT,TX,77705
225423,3100 MAIN STREET,HOUSTON,TX,77002
225511,212 E. CULLEN BUILDING,HOUSTON,TX,77204
225520,1001 BIRDWELL LANE,BIG SPRING,TX,79720
225548,1000 FISK ST.,BROWNWOOD,TX,76801
225575,900 CHICON ST,AUSTIN,TX,78702
225627,4301 BROADWAY,SAN ANTONIO,TX,78209
225885,"PR 7631,HWY 80 E",HAWKINS,TX,75765
226019,1100 BROADWAY,KILGORE,TX,75662
226107,410 FRONT ST,ORANGE,TX,77630
226116,1500 PROCTOR ST,PORT ARTHUR,TX,77640
226134,WEST END WASHINGTON ST,LAREDO,TX,78040
226152,5201 UNIVERSITY BLVD,LAREDO,TX,78041
226231,2100 S MOBBERLY AVE,LONGVIEW,TX,75602
226277,2915 ALOUETTE DRIVE,GRAND PRAIRIE,TX,75052
226383,5601 19TH STREET,LUBBOCK,TX,79407
226471,900 COLLEGE ST,BELTON,TX,76513
226578,1400 COLLEGE DR,WACO,TX,76708
226587,S 14TH AND SAYLES BLVD,ABILENE,TX,79697
226806,3600 N GARFIELD,MIDLAND,TX,79705
226833,3410 TAFT BLVD,WICHITA FALLS,TX,76308
226930,4849 WEST ILLINOIS AVE.,DALLAS,TX,75211
227146,3200 W 7TH AVENUE,CORSICANA,TX,75110
227191,5001 NORTH MACARTHUR BLVD.,IRVING,TX,75038
227216,1501 W.CHESTNUT AVE.,DENTON,TX,76203
227225,2886 FM 1735,MOUNT PLEASANT,TX,75455
227304,201 W UNIVERSITY BLVD,ODESSA,TX,79764
227331,411 SW 24TH ST.,SAN ANTONIO,TX,78207
227368,1201 W UNIVERSITY DR,EDINBURG,TX,78539
227377,80 FORT BROWN,BROWNSVILLE,TX,78520
227386,1109 W PANOLA STREET,CARTHAGE,TX,75633
227401,2400 CLARKSVILLE ST,PARIS,TX,75460
227526,FM 1098 ROAD & UNIVERSITY DRIVE,PRAIRIE VIEW,TX,77446
227687,1100 COLLEGE CIRCLE,RANGER,TX,76470
227757,6100 S MAIN ST,HOUSTON,TX,77005
227766,12800 ABRAMS RD.,DALLAS,TX,75243
227845,3001 S CONGRESS AVE,AUSTIN,TX,78704
227854,1801 MARTIN LUTHER KING DR,SAN ANTONIO,TX,78203
227863,3800 MONTROSE BLVD,HOUSTON,TX,77006
227881,1806 AVE J,HUNTSVILLE,TX,77340
227924,"1819 N. MAIN AVE.,",SAN ANTONIO,TX,78212
227979,8060 SPENCER HWY,PASADENA,TX,77505
228042,2100 MEMORIAL BLVD,KERRVILLE,TX,78028
228149,ONE CAMINO SANTA MARIA,SAN ANTONIO,TX,78228
228158,1401 S. COLLEGE AVE,LEVELLAND,TX,79336
228194,1303 SAN JACINTO STREET,HOUSTON,TX,77002
228246,6425 BOAZ ST,DALLAS,TX,75275
228316,2401 GARNER FIELD RD,UVALDE,TX,78801
228325,1200 SYCAMORE,WAXAHACHIE,TX,75165
228343,1001 E. UNIVERSITY AVENUE,GEORGETOWN,TX,78626
228459,601 UNIVERSITY DR,SAN MARCOS,TX,78666
228529,1333 W. WASHINGTON,STEPHENVILLE,TX,76401
228547,1500 HOUSTON ST,FORT WORTH,TX,76102
228608,2600 S 1ST ST,TEMPLE,TX,76504
228635,5323 HARRY HINES BLVD,DALLAS,TX,75390
228644,7703 FLOYD CURL DR,SAN ANTONIO,TX,78229
228653,301 UNIVERSITY BLVD,GALVESTON,TX,77555
228699,2500 N ROBISON RD,TEXARKANA,TX,75599
228705,955 UNIVERSITY BLVD,KINGSVILLE,TX,78363
228723,"JKW ADMINISTRATION BUILDING, SUITE 200",COLLEGE STATION,TX,77843
228769,701 S. NEDDERMAN DR.,ARLINGTON,TX,76013
228778,110 INNER CAMPUS DRIVE,AUSTIN,TX,78712
228787,800 WEST CAMPBELL  ROAD,RICHARDSON,TX,75080
228796,500 W. UNIVERSITY AVE,EL PASO,TX,79968
228802,3900 UNIVERSITY BLVD,TYLER,TX,75799
228875,2800 S UNIVERSITY DR,FORT WORTH,TX,76129
228884,2404 N. GRAND AVENUE,TYLER,TX,75702
228909,3500 CAMP BOWIE BLVD,FORT WORTH,TX,76107
228981,1000 W. COURT ST,SEGUIN,TX,78155
229018,4901 E UNIVERSITY,ODESSA,TX,79762
229027,ONE UTSA CIRCLE,SAN ANTONIO,TX,78249
229063,3100 CLEBURNE ST,HOUSTON,TX,77004
229115,BROADWAY AND UNIVERSITY AVENUE,LUBBOCK,TX,79409
229160,1201 WESLEYAN ST,FORT WORTH,TX,76105
229179,304 ADMINISTRATION DR,DENTON,TX,76204
229267,ONE TRINITY PLACE,SAN ANTONIO,TX,78212
229337,3601 4TH STREET,LUBBOCK,TX,79430
229355,1400 EAST FIFTH STREET,TYLER,TX,75701
229416,721 LOCK HAVEN DR.,HOUSTON,TX,77073
229504,4400 COLLEGE DR.,VERNON,TX,76384
229540,2200 E RED RIVER,VICTORIA,TX,77901
229780,1900 W 7TH ST.,PLAINVIEW,TX,79072
229799,225 COLLEGE PARK DRIVE,WEATHERFORD,TX,76086
230597,150 E COLLEGE AVE,EPHRAIM,UT,84627
229814,2501 4TH AVE,CANYON,TX,79016
229832,6200 COLLEGE AVE,SNYDER,TX,79549
229841,911 BOLING HWY,WHARTON,TX,77488
229887,711 WILEY AVE,MARSHALL,TX,75670
230010,1301 NORTH 600 WEST,LOGAN,UT,84321
230038,MAIN CAMPUS,PROVO,UT,84602
230047,55-220 KULANUI STREET,LAIE,HI,96762
230162,550 E 300 S,KAYSVILLE,UT,84037
230418,95 NORTH 300 WEST,SALT LAKE CITY,UT,84101
230603,351 WEST UNIVERSITY BLVD,CEDAR CITY,UT,84720
230676,1100 E LAGOON ST    124-5,ROOSEVELT,UT,84066
230764,"201 PRESIDENTS CIRCLE, ROOM 201",SALT LAKE CITY,UT,84112
230782,3850 DIXON PARKWAY DR. DEPT. 1031,OGDEN,UT,84408
230807,1840 SOUTH 1300 EAST,SALT LAKE CITY,UT,84105
230816,ONE COLLEGE DRIVE,BENNINGTON,VT,05201
230834,62 ALUMNI DR,CASTLETON,VT,05735
230852,163 S WILLARD ST,BURLINGTON,VT,05401
230913,337 COLLEGE HILL,JOHNSON,VT,05656
230931,1001 COLLEGE RD,LYNDONVILLE,VT,05851
230959,OLD CHAPEL,MIDDLEBURY,VT,05753
230995,158 HARMON DRIVE,NORTHFIELD,VT,05663
231059,ONE WINOOSKI PARK,COLCHESTER,VT,05439
231165,124 ADMIN DRIVE,RANDOLPH,VT,05061
231174,85 S PROSPECT ST,BURLINGTON,VT,05405
231420,420 W MAIN ST,DANVILLE,VA,24541
231536,1 COLLEGE LANE,WEYERS CAVE,VA,24486
231554,3000 COLLEGE AVENUE,BLUEFIELD,VA,24605
231581,402 E COLLEGE ST,BRIDGEWATER,VA,22812
231624,200 RICHMOND ROAD,WILLIAMSBURG,VA,23187
231651,1000 REGENT UNIVERSITY DR,VIRGINIA BEACH,VA,23464
231697,3506 WARDS RD,LYNCHBURG,VA,24502
231712,1 AVENUE OF THE ARTS,NEWPORT NEWS,VA,23606
231837,101 ELM AVENUE SE,ROANOKE,VA,24013
231882,1008 S MAIN ST,DANVILLE,VA,24541
231970,700W. OLNEY,NORFOLK,VA,23507
232043,1200 PARK RD,HARRISONBURG,VA,22802
232089,215 FERRUM MOUNTAIN ROAD,FERRUM,VA,24088
232186,4400 UNIVERSITY DR,FAIRFAX,VA,22030
232195,2130 GERMANNA HWY,LOCUST GROVE,VA,22508
232256,COLLEGE ROAD,HAMPDEN-SYDNEY,VA,23943
232265,100 E. QUEEN STREET,HAMPTON,VA,23668
232308,7916 WILLIAMSON RD NW,ROANOKE,VA,24020
232414,1651 EAST PARHAM ROAD,RICHMOND,VA,23228
232867,5251 COLLEGE DRIVE,DUBLIN,VA,24084
232937,700 PARK AVENUE,NORFOLK,VA,23504
232423,800 SOUTH MAIN STREET,HARRISONBURG,VA,22807
232450,13101 JEFFERSON DAVIS HWY,CHESTER,VA,23831
232557,1971 UNIVERSITY BLVD,LYNCHBURG,VA,24515
232566,201 HIGH ST,FARMVILLE,VA,23909
232575,173 SKIRMISHER LANE,MIDDLETOWN,VA,22645
232609,1501 LAKESIDE DR,LYNCHBURG,VA,24501
232672,318 PROSPECT STREET,STAUNTON,VA,24401
232681,1301 COLLEGE AVE,FREDERICKSBURG,VA,22401
232706,2807 N GLEBE RD,ARLINGTON,VA,22207
232788,3441 MOUNTAIN EMPIRE ROAD,BIG STONE GAP,VA,24219
232797,1813 EAST MAIN STREET,SALEM,VA,24153
233639,109 CAMPUS DRIVE,ALBERTA,VA,23821
232946,4001 WAKEFIELD CHAPEL RD,ANNANDALE,VA,22003
232982,5115 HAMPTON BLVD,NORFOLK,VA,23529
233037,100 N COLLEGE DR,FRANKLIN,VA,23851
233116,501 COLLEGE DRIVE,CHARLOTTESVILLE,VA,22902
233277,801 EAST MAIN ST.,RADFORD,VA,24142
233295,204 HENRY ST,ASHLAND,VA,23005
233301,2500 RIVERMONT AVE,LYNCHBURG,VA,24503
233310,12745 COLLEGE DRIVE,GLENNS,VA,23149
233338,11301 JOHNSON RD.,SOUTH PRINCE GEORGE,VA,23805
234164,1500 N LOMBARDY ST,RICHMOND,VA,23220
233374,28 WESTHAMPTON WAY,UNIVERSITY OF RICHMOND,VA,23173
233426,221 COLLEGE LANE,SALEM,VA,24153
233541,1460 UNIVERSITY DR,WINCHESTER,VA,22601
233611,1 UNIVERSITY HILL DRIVE,BUENA VISTA,VA,24416
233648,"369 COLLEGE ROAD       US RT. 19, 6 MILES S. CLAYPOOL HILL",RICHLANDS,VA,24641
233684,2121 15TH STREET N,ARLINGTON,VA,22201
233754,99 THOMAS NELSON DRIVE,HAMPTON,VA,23666
233772,121 COLLEGE PLACE,NORFOLK,VA,23510
233897,1 COLLEGE AVENUE,WISE,VA,24293
233903,100 VHCC DRIVE,ABINGDON,VA,24212
233949,3093 COLONIAL AVE,ROANOKE,VA,24015
234030,910 W FRANKLIN ST,RICHMOND,VA,23284
234076,1827 UNIVERSITY AVENUE,CHARLOTTESVILLE,VA,22903
234085,VMI PARADE,LEXINGTON,VA,24450
234155,1 HAYDEN DRIVE,PETERSBURG,VA,23806
234173,5817 WESLEYAN DRIVE,VIRGINIA BEACH,VA,23455
234207,204 WEST WASHINGTON STREET,LEXINGTON,VA,24450
234377,1000 E MAIN STREET,WYTHEVILLE,VA,24382
234669,3000 LANDERHOLM CIR SE,BELLEVUE,WA,98007
234696,3028 LINDBERGH AVE,BELLINGHAM,WA,98225
234711,7662 CHANUTE ST NE,MOSES LAKE,WA,98837
234827,400 EAST UNIVERSITY WAY,ELLENSBURG,WA,98926
234845,600 CENTRALIA COLLEGE BLVD.,CENTRALIA,WA,98531
234915,"521 WALL STREET, SUITE 100",SEATTLE,WA,98121
234933,1933 FORT VANCOUVER WAY,VANCOUVER,WA,98663
234951,4500 STEILACOOM BLVD SW,LAKEWOOD,WA,98499
234979,2600 N 20TH AVE,PASCO,WA,99301
235103,20000 68TH AVE W,LYNNWOOD,WA,98036
235167,2700 EVERGREEN PKWY NW,OLYMPIA,WA,98505
235237,9401 FARWEST DR SW,LAKEWOOD,WA,98498
235316,E 502 BOONE AVE,SPOKANE,WA,99258
235422,3240 FORT RD,TOPPENISH,WA,98948
235431,2400 S 240TH ST,DES MOINES,WA,98198
235547,14500 JUANITA DRIVE NE,KENMORE,WA,98028
235671,1101 S YAKIMA AVE,TACOMA,WA,98405
235699,11605 132ND AVE NE,KIRKLAND,WA,98034
235750,1600 MAPLE STREET,LONGVIEW,WA,98632
484756,11451 KATY FREEWAY,HOUSTON,TX,77079
236072,9600 COLLEGE WAY NORTH,SEATTLE,WA,98103
236133,5520 108TH AVE NE,KIRKLAND,WA,98083
236188,1600 CHESTER AVE,BREMERTON,WA,98337
236230,12180 PARK AVE SOUTH,TACOMA,WA,98447
236328,1500 N. WARNER STREET,TACOMA,WA,98416
236382,3000 NE FOURTH ST,RENTON,WA,98056
236452,5000 ABBEY WAY SE,LACEY,WA,98503
236504,6000 16TH AVE SW,SEATTLE,WA,98106
236513,1701 BROADWAY AVENUE,SEATTLE,WA,98122
236577,3307 3RD AVE W,SEATTLE,WA,98119
236595,900 BROADWAY,SEATTLE,WA,98122
236610,16101 GREENWOOD AVE N,SHORELINE,WA,98133
236656,2011 MOTTMAN RD SW,OLYMPIA,WA,98512
236708,3410 W FORT GEORGE WRIGHT DR,SPOKANE,WA,99224
236887,500 TAUSICK WAY,WALLA WALLA,WA,99362
236896,204 S COLLEGE AVE,COLLEGE PLACE,WA,99324
236939,FRENCH ADMINISTRATION BUILDING,PULLMAN,WA,99164
236948,1400 NE CAMPUS PARKWAY,SEATTLE,WA,98195
236975,1300 FIFTH ST,WENATCHEE,WA,98801
237011,516 HIGH STREET,BELLINGHAM,WA,98225
237039,237 W KELLOGG RD,BELLINGHAM,WA,98226
237057,345 BOYER AVE,WALLA WALLA,WA,99362
237066,300 W HAWTHORNE RD,SPOKANE,WA,99251
237109,SOUTH 16TH AVE. & NOB HILL BLVD.,YAKIMA,WA,98907
237118,101 COLLEGE HILL DRIVE,PHILIPPI,WV,26416
237215,219 ROCK ST,BLUEFIELD,WV,24701
237312,"2300 MACCORKLE AVENUE,  SE",CHARLESTON,WV,25304
237330,1000 VERMILLION STREET,ATHENS,WV,24712
237358,100 CAMPUS DR,ELKINS,WV,26241
237367,1201 LOCUST AVE,FAIRMONT,WV,26554
237385,200 HIGH STREET,GLENVILLE,WV,26351
237525,1 JOHN MARSHALL DR,HUNTINGTON,WV,25755
237686,300 CAMPUS DRIVE,PARKERSBURG,WV,26104
237701,101 FORT AVE,KEYSER,WV,26726
237783,223 W MAIN ST,SALEM,WV,26426
237792,301 NORTH KING ST,SHEPHERDSTOWN,WV,25443
237880,400 N LEE ST,LEWISBURG,WV,24901
237899,RTE 25,INSTITUTE,WV,25112
237969,59 COLLEGE AVE,BUCKHANNON,WV,26201
238014,1704 MARKET ST.,WHEELING,WV,26003
407009,4701 W THUNDERBIRD ROAD,GLENDALE,AZ,85306
238032,PO BOX 6201,MORGANTOWN,WV,26506
238078,316 WASHINGTON AVE,WHEELING,WV,26003
238193,3400 S 43RD  ST,MILWAUKEE,WI,53234
238333,700 COLLEGE ST,BELOIT,WI,53511
238430,6801 N YATES RD,MILWAUKEE,WI,53217
238458,100 N EAST AVE,WAUKESHA,WI,53186
238476,2001 ALFORD PARK DR,KENOSHA,WI,53140
238661,1000 EDGEWOOD COLLEGE DRIVE,MADISON,WI,53711
238980,W3718 SOUTH DRIVE,PLYMOUTH,WI,53073
239017,COLLEGE AVE,APPLETON,WI,54911
239071,745 WEST MAIN STREET,WATERTOWN,WI,53094
239080,45 S NATIONAL AVE,FOND DU LAC,WI,54935
239105,1250 W WISCONSIN AVENUE,MILWAUKEE,WI,53233
239248,700 W STATE ST,MILWAUKEE,WI,53233
239318,1025 N BROADWAY,MILWAUKEE,WI,53202
239372,235 N NATIONAL AVENUE,FOND DU LAC,WI,54936
239390,2900 N. MENOMONEE RIVER PKY,MILWAUKEE,WI,53222
239442,5364 COLLEGE DRIVE,RHINELANDER,WI,54501
239716,100 GRANT ST,DE PERE,WI,54115
239910,1800 BRONSON BLVD,FENNIMORE,WI,53809
240055,780 REGENT ST,MADISON,WI,53708
240107,900 VITERBO DRIVE,LA CROSSE,WI,54601
240116,620 W CLAIREMONT AVE,EAU CLAIRE,WI,54701
240125,800 MAIN STREET,PEWAUKEE,WI,53072
240189,800 W MAIN ST,WHITEWATER,WI,53190
240198,505 PINE RIDGE DRIVE,SHELL LAKE,WI,54871
240268,105 GARFIELD AVE,EAU CLAIRE,WI,54701
240277,2420 NICOLET DR,GREEN BAY,WI,54311
240329,1725 STATE ST,LA CROSSE,WI,54601
240338,8800 W BLUEMOUND RD,MILWAUKEE,WI,53226
240365,800 ALGOMA BLVD,OSHKOSH,WI,54901
240374,900 WOOD RD,KENOSHA,WI,53144
240392,5218 E. TERRACE DR.,MADISON,WI,53718
240417,712 S. BROADWAY ST.,MENOMONIE,WI,54751
240426,1605 CATLIN AVE,SUPERIOR,WI,54880
240444,500 LINCOLN DR,MADISON,WI,53706
240453,2200 E KENWOOD BLVD,MILWAUKEE,WI,53211
240462,1 UNIVERSITY PLAZA,PLATTEVILLE,WI,53818
240471,410 S 3RD ST,RIVER FALLS,WI,54022
240480,2100 MAIN ST,STEVENS POINT,WI,54481
240505,125 COLLEGE DRIVE,CASPER,WY,82601
240514,2660 PECK AVENUE,RIVERTON,WY,82501
240596,3200 WEST C ST,TORRINGTON,WY,82240
240620,1400 E COLLEGE DR,CHEYENNE,WY,82007
240657,231 W 6TH ST,POWELL,WY,82435
240666,3059 S COFFEEN AVE,SHERIDAN,WY,82801
240693,2500 COLLEGE DR,ROCK SPRINGS,WY,82901
240727,CORNER OF NINTH AND IVINSON,LARAMIE,WY,82071
240736,P.O. BOX 2609,PAGOPAGO,AS,96799
243780,HOVDE HALL OF ADMINISTRATION,WEST LAFAYETTE,IN,47907
243823,2540 WALNUT HILL LANE,DALLAS,TX,75229
244446,495 N INDIAN CREEK DR,CLARKSTON,GA,30021
246354,1400 W VILLARET BLVD,SAN ANTONIO,TX,78224
246813,800 U.S. HWY 29 NORTH,ATHENS,GA,30601
247940,4800 NEW HARTFORD RD,OWENSBORO,KY,42303
251312,9 SCIENCE COURT,COLUMBIA,SC,29203
260381,432 N LAKE ST,MADISON,WI,53706
260901,1801 EAST KIMBERLY ROAD,DAVENPORT,IA,52807
262031,4601 MID RIVERS MALL DR,COTTLEVILLE,MO,63376
363633,336 LUNA DRIVE,LAS VEGAS,NM,87701
364016,18401 N 32ND ST,PHOENIX,AZ,85032
364025,2626 E PECOS RD,CHANDLER,AZ,85225
366252,ONE COLLEGE AVE,WILLIAMSPORT,PA,17701
366465,ONE JOSEPH E. KENNEDY BLVD,STATESBORO,GA,30458
366748,"1001 BISHOP STREET, SUITE 400",HONOLULU,HI,96813
367459,ONE COLLEGE DRIVE,BENTONVILLE,AR,72712
367936,"980 HAMMOND DRIVE, BUILDING 2, SUITE 100",ATLANTA,GA,30328
368443,2691 TRENTON ROAD,CLARKSVILLE,TN,37040
368911,3001 E FIRST ST,VIDALIA,GA,30474
369419,2010 E. HILLSBOROUGH AVENUE,TAMPA,FL,33610
377555,18115 CAMPUS WAY NE,BOTHELL,WA,98011
377564,1900 COMMERCE ST,TACOMA,WA,98402
380368,2101 14TH ST,CLOQUET,MN,55720
383190,1175 MANONO STREET,HILO,HI,96720
384333,3000 N DYSART RD,AVONDALE,AZ,85392
384342,1500 WEST RAAB ROAD,NORMAL,IL,61761
392257,240 NORTHWEST MALL,HOUSTON,TX,77092
403469,FRONTIER DRIVE,FAIRFIELD,IL,62837
403478,11220 STATE HWY 1,ROBINSON,IL,62454
403487,2200 COLLEGE DRIVE,MOUNT CARMEL,IL,62863
405872,1601 WASHINGTON RD,WESTMINSTER,MD,21157
409315,3201 W PECAN,MCALLEN,TX,78502
413413,"225 SOUTH 6TH STREET, 9TH FLOOR",MINNEAPOLIS,MN,55402
414911,101 COMMUNITY COLLEGE WAY,JOHNSTOWN,PA,15904
420307,488 PALISADES BLVD.,BIRMINGHAM,AL,35209
420398,3535 N. ELLISON DRIVE,SAN ANTONIO,TX,78251
420431,1189 DEEPSTEP RD,SANDERSVILLE,GA,31082
420538,1600 SOUTH COLLEGE STREET,MOUNTAIN HOME,AR,72653
420574,7001 E WILLIAMS FIELD ROAD,MESA,AZ,85212
423643,19555 N 59TH AVE,GLENDALE,AZ,85308
428392,7390 SOUTH SIXTH STREET,KLAMATH FALLS,OR,97603
430184,5110 AUTH WAY,SUITLAND,MD,20746
433387,4001 SOUTH 700 EAST SUITE 700,SALT LAKE CITY,UT,84107
434061,1101 BERTRAND DRIVE,LAFAYETTE,LA,70506
435000,1501 KINGS HWY,SHREVEPORT,LA,71103
436836,ONE UNIVERSITY PLACE,STAMFORD,CT,06901
437097,"1901 FORT MYER DRIVE, SUITE 700",ARLINGTON,VA,22209
437103,201 COMMUNITY COLLEGE DRIVE,BATON ROUGE,LA,70806
439145,1601 39TH AVE SE,PUYALLUP,WA,98374
439288,7150 MONTVIEW BLVD,DENVER,CO,80220
440402,7648 VICTORY BLVD,NEWPORT,AR,72112
441900,1125 NEVADA STATE DRIVE,HENDERSON,NV,89002
442611,220 BYERS CREEK RD,MOORESVILLE,NC,28117
442806,2265 KRAFT DR,BLACKSBURG,VA,24060
442879,1100 EAST APACHE BLVD,TEMPE,AZ,85281
443492,1201 LOCUST AVE,FAIRMONT,WV,26554
443766,2620 THOUSAND OAKS BLVD STE 1100,MEMPHIS,TN,38118
459994,"1133 15TH ST NW, SUITE 200",WASHINGTON,DC,20005
438586,"6600 PEACHTREE DUNWOODY ROAD, 500 EMBASSY ROW",ATLANTA,GA,30328
443784,3800 HORIZON BLVD STE 100,TREVOSE,PA,19053
444954,ONE MOUNTWEST WAY,HUNTINGTON,WV,25701
445267,411 CENTRAL METHODIST SQUARE,FAYETTE,MO,65248
445708,"ACADEMIC CENTER, 801 WEST TRADE STREET",CHARLOTTE,NC,28202
448248,2301 WEST ASHTON BLVD.,LEHI,UT,84043
445799,750 PENNSYLVANIA DRIVE,EXTON,PA,19341
446048,5050 AVE MARIA BLVD,AVE MARIA,FL,34142
446552,1485 FLORIDA MALL AVENUE,ORLANDO,FL,32809
446640,326 MARKET STREET,HARRISBURG,PA,17101
446774,13650 APPLE HARVEST DRIVE,MARTINSBURG,WV,25403
447689,1000 UNIVERSITY CENTER LANE,LAWRENCEVILLE,GA,30043
448284,303 N 52ND ST,LINCOLN,NE,68504
448673,"6000 EAST STATE STREET, 4TH FLOOR",ROCKFORD,IL,61108
448840,140 SEVENTH AVE S.,ST. PETERSBURG,FL,33701
448886,411 N CENTRAL AVE,PHOENIX,AZ,85004
449038,4902 EISENHOWER BLVD STE 100,TAMPA,FL,33634
449898,"4401 N HIMES AVE, SUITE 175",TAMPA,FL,33614
450377,3570 GRANDVIEW PKWY STE 200,BIRMINGHAM,AL,35243
451556,1414 GERONIMO,EL PASO,TX,79925
451662,1400 PENN AVENUE,PITTSBURGH,PA,15222
451671,8350 N TAMIAMI TRAIL,SARASOTA,FL,34243
453163,4 COPLEY PKWY,MORRISVILLE,NC,27560
454227,1221 N. SWIFT ROAD,ADDISON,IL,60101
455114,5500 EAST OPPORTUNITY DRIVE,NAMPA,ID,83687
457129,"5200 BELFORT ROAD, SUITE 100",JACKSONVILLE,FL,32256
458919,"3355 NORTHEAST EXPWY, STE 100",ATLANTA,GA,30341
458964,555 N PLEASANTBURG DR STE 300,GREENVILLE,SC,29607
458973,8501 N. MOPAC EXPRESSWAY,AUSTIN,TX,78759
459082,2 RIVERSIDE CIRCLE,ROANOKE,VA,24016
459824,874 AMERICAN PACIFIC DRIVE,HENDERSON,NV,89014
460136,10201 KATY FREEWAY,HOUSTON,TX,77024
460543,5151 REGENT BLVD.,IRVING,TX,75063
460738,2260 SOUTH XANADU WAY,AURORA,CO,80014
460835,2541 HIGHWAY 501 EAST,CONWAY,SC,29526
475273,SPRINGFIELD COLLEGE - SCHOOL OF PROFESSIONAL AND CONTINUING STUDIES,SPRINGFIELD,MA,01109
465812,4021 S 700 E STE 400,SALT LAKE CITY,UT,84107
475732,"5775 PEACHTREE-DUNWOODY ROAD, NE, SUITE A100",ATLANTA,GA,30342
476975,7800 EAST ORCHARD ROAD STE 200,GREENWOOD VILLAGE,CO,80111
480569,150 WEST UNIVERSITY BLVD,MELBOURNE,FL,32901
480790,8401 S CHAMBERS ROAD,PARKER,CO,80134
482158,100 UNIVERSITY PARKWAY,MACON,GA,31206
482459,2300 SW 145TH AVE.,MIRAMAR,FL,33027
482477,3300 N. CAMPBELL AVE.,CHICAGO,IL,60618
482699,100 W COLLEGE PARK DR,DOUGLAS,GA,31533
482936,4700 RESEARCH WAY,LAKELAND,FL,33805
483036,1001 LEADERSHIP PLACE,KILLEEN,TX,76549
483124,1475 N SCOTTSDALE RD,SCOTTSDALE,AZ,85257
483212,7500 MILLHAVEN RD,MONROE,LA,71203
484613,1625 WEST FOUNTAINHEAD PARKWAY,TEMPE,AZ,85282
484905,7300 UNIVERSITY HILLS BLVD,DALLAS,TX,75241
485111,201 E GREENE ST,MILLEDGEVILLE,GA,31061
485458,1701 CARSWELL AVE,WAYCROSS,GA,31503
240790,AS TERLAJE CAMPUS,SAIPAN,MP,96950
121901,4800 MAGNOLIA AVENUE,RIVERSIDE,CA,92506
193654,66 WEST 12TH STREET,NEW YORK,NY,10011
196200,44 PIERREPONT AVE,POTSDAM,NY,13676
195164,3261 W. STATE ROAD,SAINT BONAVENTURE,NY,14778
128744,126 PARK AVENUE,BRIDGEPORT,CT,06604
243638,KOLONIA,POHNPEI,FM,96941
156471,"1031 ZORN AVENUE , SUITE 400",LOUISVILLE,KY,40207
132693,1519 CLEARLAKE RD,COCOA,FL,32922
190372,7 EAST 7TH STREET,NEW YORK,NY,10003
133386,1200 W. INTERNATIONAL SPEEDWAY BLVD.,DAYTONA BEACH,FL,32114
190600,524 W 59TH ST,NEW YORK,NY,10019
133508,8099 COLLEGE PARKWAY,FORT MYERS,FL,33919
201964,1476 LANCASTER PIKE,CIRCLEVILLE,OH,43113
133650,1500 S MARTIN LUTHER KING JR BLVD,TALLAHASSEE,FL,32307
220631,6965 CUMBERLAND GAP PKWY,HARROGATE,TN,37752
133702,501 W STATE ST,JACKSONVILLE,FL,32202
133951,11200 S. W. 8 STREET,MIAMI,FL,33199
204671,4240 CAMPUS DR,LIMA,OH,45804
205203,218 N COLLEGE AVE,RIO GRANDE,OH,45674
140243,2990 LANDRUM EDUCATION DR,OAKWOOD,GA,30566
207971,800 SOUTH TUCKER DRIVE,TULSA,OK,74104
203678,4240 CAMPUS DR,LIMA,OH,45804
207935,6111 E SKELLY DR,TULSA,OK,74135
156082,1700 SW COLLEGE AVENUE,TOPEKA,KS,66621
190549,2900 BEDFORD AVE,BROOKLYN,NY,11210
157085,SOUTH LIMESTONE,LEXINGTON,KY,40506
366553,1685 MEDICAL LANE,FORT MYERS,FL,33907
203368,1 JOHN CARROLL BOULEVARD,UNIVERSITY HEIGHTS,OH,44118
202806,201 S GRANT AVE,COLUMBUS,OH,43215
139278,176 MURPHY CAMPUS BLVD.,WACO,GA,30182
484631,3090 BRISTOL STREET,COSTA MESA,CA,92626
126119,2088 N BEALE RD,MARYSVILLE,CA,95901
482413,"180 MADISON AVE., STE. 900",NEW YORK,NY,10016
157447,NUNN DRIVE,HIGHLAND HEIGHTS,KY,41099
366711,333 S TWIN OAKS VALLEY RD,SAN MARCOS,CA,92096
196307,750 E ADAMS ST,SYRACUSE,NY,13210
197036,646 SWIFT RD (ATTN: MASG),WEST  POINT,NY,10996
189015,610 W 112 ST,NEW YORK,NY,10025
487010,NOT AVAILABLE,MEMPHIS,TN,38163
125499,14000 FRUITVALE AVE,SARATOGA,CA,95070
156125,1845 N. FAIRMOUNT,WICHITA,KS,67260
120421,4000 S ROSE AVE,OXNARD,CA,93033
119137,7075 CAMPUS RD,MOORPARK,CA,93021
197197,ONE CAMPUS RD,STATEN ISLAND,NY,10301
482680,82 COLLEGE CIRCLE,DAHLONEGA,GA,30597
192271,12 E 53RD ST,NEW YORK,NY,10022
406024,"11101 ROOSEVELT BOULEVARD N., SUITE 100",SAINT PETERSBURG,FL,33716
188438,640 BAY RD,QUEENSBURY,NY,12804
408844,4425 WEST. JOSE REGUEIRO (20TH) AVENUE,HIALEAH,FL,33012
137847,401 W KENNEDY BLVD,TAMPA,FL,33606
237950,512 SOUTH KANAWHA STREET,BECKLEY,WV,25801
486840,1000 CHASTAIN RD,KENNESAW,GA,30144
202763,1000 NORTH MAIN STREET,FINDLAY,OH,45840
414823,1701 NE 127TH ST,NORTH MIAMI,FL,33181
154022,8620 SPECTRUM CENTER BOULEVARD,SAN DIEGO,CA,92123
447768,3130 EAST SEDONA COURT,ONTARIO,CA,91764
188890,24-02 QUEENS PLAZA SOUTH,LONG ISLAND CITY,NY,11101
488730,1201 KITTY HAWK RD,UNIVERSAL CITY,TX,78145
137801,3319 W HILLSBOROUGH AVE,TAMPA,FL,33614
486901,1 BLOWERS BLVD.,MILLIGAN COLLEGE,TN,37682
190053,136 CLINTON POINT DR.,PLATTSBURGH,NY,12901
204176,127 SO.  DAVIS AVE,COLUMBUS,OH,43222
433660,10501 FGCU BLVD S,FORT MYERS,FL,33965
196246,101 BROAD STREET,PLATTSBURGH,NY,12901
190169,4400 ROUTE 23,HUDSON,NY,12534
450979,"5757 PLAZA DRIVE, SUITE 100",CYPRESS,CA,90630
114433,570 GOLDEN EAGLE AVE,QUINCY,CA,95971
196024,2 MAIN STREET,DELHI,NY,13753
115296,8800 GROSSMONT COLLEGE DR,EL CAJON,CA,92020
404994,81 WILLOUGHBY STREET,BROOKLYN,NY,11201
220516,1350 KING COLLEGE RD,BRISTOL,TN,37620
196255,450 CLARKSON AVE,BROOKLYN,NY,11203
117946,ONE LMU DRIVE,LOS ANGELES,CA,90045
195173,180 REMSEN STREET,BROOKLYN HEIGHTS,NY,11201
194578,200 WILLOUGHBY AVE,BROOKLYN,NY,11205
117140,1950 THIRD ST,LA VERNE,CA,91750
190619,2001 ORIENTAL BLVD,BROOKLYN,NY,11235
189501,250 JORALEMON ST,BROOKLYN,NY,11201
203085,310 E MARKET ST,TIFFIN,OH,44883
190655,300 JAY ST,BROOKLYN,NY,11201
121345,550 N COLLEGE AVE,CLAREMONT,CA,91711
121257,1050 NORTH MILLS AVENUE,CLAREMONT,CA,91711
112260,500 E 9TH ST,CLAREMONT,CA,91711
195544,245 CLINTON AVE,BROOKLYN,NY,11205
133960,5901 COLLEGE RD,KEY WEST,FL,33040
487603,5520 108TH AVE NE,KIRKLAND,WA,98033
123299,11555 OLD OREGON TRAIL,REDDING,CA,96003
123457,2211 COLLEGE VIEW DRIVE,REDDING,CA,96003
123484,800 COLLEGE AVE,WEED,CA,96094
133526,1658 KINGS RD,JACKSONVILLE,FL,32209
196167,1 COLLEGE CIRCLE,GENESEO,NY,14454
206589,1189 BEALL AVENUE,WOOSTER,OH,44691
116712,100 ELLINWOOD WAY,PLEASANT HILL,CA,94523
123554,1928 SAINT MARYS ROAD,MORAGA,CA,94575
114266,3095 YERBA BUENA RD,SAN JOSE,CA,95135
203757,6832 CONVENT BLVD,SYLVANIA,OH,43560
455664,617 W 7TH ST,LOS ANGELES,CA,90017
133669,777 GLADES RD,BOCA RATON,FL,33431
190099,13 OAK DR,HAMILTON,NY,13346
192448,720 NORTHERN BLVD,BROOKVILLE,NY,11548
191728,3601 HEMPSTEAD TPK UNIT19,LEVITTOWN,NY,11756
122612,2130 FULTON ST,SAN FRANCISCO,CA,94117
122685,8344 W MINERAL KING AVE,VISALIA,CA,93291
191515,198 COLLEGE HILL RD,CLINTON,NY,13323
132903,4000 CENTRAL FLORIDA BLVD,ORLANDO,FL,32816
194222,4585 WEST SENECA TURNPIKE,SYRACUSE,NY,13215
218487,3250 SAINT MATTHEWS RD,ORANGEBURG,SC,29118
122746,2100 MOORPARK AVE,SAN JOSE,CA,95128
113218,900 RANCHO SAN DIEGO PKY,EL CAJON,CA,92019
195526,815 N BROADWAY,SARATOGA SPRINGS,NY,12866
245838,400 CORPORATE POINTE,CULVER CITY,CA,90230
196413,900 SOUTH CROUSE AVE.,SYRACUSE,NY,13244
121363,100 E COLLEGE AVE,PORTERVILLE,CA,93257
196103,ONE FORESTRY DR.,SYRACUSE,NY,13210
201821,2139 AUBURN AVENUE,CINCINNATI,OH,45219
120768,55 EUREKA STREET,PASADENA,CA,91103
121619,1530 W. 17TH STREET,SANTA ANA,CA,92706
196194,7060 STATE ROUTE 104,OSWEGO,NY,13126
122180,3835 FREEPORT BLVD,SACRAMENTO,CA,95822
206695,ONE UNIVERSITY PLAZA,YOUNGSTOWN,OH,44555
196264,TWO UNION AVE,SARATOGA SPRINGS,NY,12866
195988,112 COLLEGE ROAD,LOCH SHELDRAKE,NY,12759
122296,3100 TELEGRAPH AVENUE,OAKLAND,CA,94609
191968,953 DANBY ROAD,ITHACA,NY,14850
132602,640 DR MARY MCLEOD BETHUNE BLVD,DAYTONA BEACH,FL,32114
197294,75 GRASSLANDS ROAD,VALHALLA,NY,10595
192192,141 CENTRAL AVENUE,KEUKA PARK,NY,14478
442569,16025 WEST 113TH STREET,LENEXA,KS,66219
378576,7445 MISSION VALLEY RD STE 105,SAN DIEGO,CA,92108
189705,2001 MAIN ST,BUFFALO,NY,14208
192819,3399 NORTH RD,POUGHKEEPSIE,NY,12601
117274,478-200 HWY 139,SUSANVILLE,CA,96130
203881,1467 MOUNT VERNON AVE,MARION,OH,43302
188580,47 NEW SCOTLAND AVE,ALBANY,NY,12208
460349,8 ABBOTT PARK PL,PROVIDENCE,RI,02903
190044,8 CLARKSON AVE,POTSDAM,NY,13699
132471,11300 NE 2ND AVE,MIAMI,FL,33161
190530,2155 UNIVERSITY AVENUE,BRONX,NY,10453
204699,1461 MOUNT VERNON AVE,MARION,OH,43302
206613,7600 LAKE CAMPUS DRIVE,CELINA,OH,45822
243601,CARR. # 189 KM 3.3,GURABO,PR,00778
459727,10601 CALLE LEE  #179,LOS ALAMITOS,CA,90720
190558,2800 VICTORY BLVD,STATEN ISLAND,NY,10314
459736,1310 CLUB DRIVE,VALLEJO,CA,94592
197708,500 W 185TH ST,NEW YORK,NY,10033
115746,249 LAMBERT RD,CARPINTERIA,CA,93013
190585,500 GRAND CONCOURSE,BRONX,NY,10451
243106,BELT ST. RAMEY BASE,AGUADILLA,PR,00604
243115,FINCA LAS DUNAS CARR 653 RUTA 129 KM 8,ARECIBO,PR,00614
190646,1650 BEDFORD AVE,BROOKLYN,NY,11225
243133,ROAD 174 #170 MINILLAS INDUSTRIAL PARK,BAYAMON,PR,00959
190673,222-05 56TH AVE,BAYSIDE,NY,11364
243142,CARRETERA 887 BO SAN ANTON,CAROLINA,PR,00984
133711,74 KING STREET,SAINT AUGUSTINE,FL,32084
243151,205 ANTONIO R. BARCELO AVE.,CAYEY,PR,00737
190691,94-20 GUY R. BREWER BLVD,JAMAICA,NY,11451
243179,CALL BOX 860,HUMACAO,PR,00792
243188,CARR. # 10 KM. 52.2,UTUADO,PR,00641
480037,5511 CAPITAL CENTER DR STE 500,RALEIGH,NC,27606
149772,1 UNIVERSITY CIRCLE,MACOMB,IL,61455
243197,259 BOULEVARD ALFONSO VALDEZ,MAYAGUEZ,PR,00681
243212,2151 SANTIAGO DE LOS CABALLEROS AVENUE,PONCE,PR,00716
438504,9494 HAVEN AVENUE,RANCHO CUCAMONGA,CA,91730
190716,320 PORTER AVE,BUFFALO,NY,14201
117247,900 FALLON SREET,OAKLAND,CA,94607
190761,470 WESTERN HIGHWAY,ORANGEBURG,NY,10962
204185,1972 CLARK AVE.,ALLIANCE,OH,44601
203474,4314 MAHONING AVE N.W.,WARREN,OH,44483
474863,"300 N LONE HILL AVE, STE 200",SAN DIMAS,CA,91773
191302,2805 STATE HWY 67,JOHNSTOWN,NY,12095
191676,1 WILLARD AVE,HOUGHTON,NY,14744
431141,564  W HERNDON,CLOVIS,CA,93612
192439,1 UNIVERSITY PLAZA,BROOKLYN,NY,11201
192703,4513 MANHATTAN COLLEGE PARKWAY,RIVERDALE,NY,10471
241225,AVENIDA ZAYA VERDE LA MILAGROSA BARRIO HATO TEJAS,BAYAMN,PR,00960
241331,"151 TANCA ST, CORNER SAN FRANCISCO ST, OLD SAN JUAN",SAN JUAN,PR,00902
193292,1000 HEMPSTEAD AVE,ROCKVILLE CENTRE,NY,11571
241377,167 AVE.  KM 21.2,BAYAMON,PR,00960
193973,LEWISTON ROAD,NIAGARA UNIVERSITY,NY,14109
241191,CARR 106 KM 2.2 INT,MAYAGUEZ,PR,00680
241216,COLTON ST. # 9,GUAYNABO,PR,00970
194161,1 SOUTH BLVD,NYACK,NY,10960
206446,710 COLEGATE DR,MARIETTA,OH,45750
441052,1200 N. MAGNOLIA AVE.,ANAHEIM,CA,92801
441937,ONE UNIVERSITY DR,CAMARILLO,CA,93012
194499,118-33 QUEENS BOULEVARD,FOREST HILLS,NY,11375
489201,10309 NORTH WILLOW AVENUE,FRESNO,CA,93730
443331,12215 VICTORY BOULEVARD,NORTH HOLLYWOOD,CA,91606
446561,2041 BUSINESS CTR DR STE 107,IRVINE,CA,92612
241304,CARR 183 KM 1.7,CAGUAS,PR,00726
488846,"225 S. LAKE AVE., SUITE 300",PASADENA,CA,91101
488934,3420 S MEMORIAL DRIVE,TULSA,OK,74145
118347,835 COLLEGE AVE,KENTFIELD,CA,94904
117195,ONE COLLEGE DRIVE,SOUTH LAKE TAHOE,CA,96150
204608,1374 E 51ST ST,CLEVELAND,OH,44103
203960,2221 MADISON AVENUE,TOLEDO,OH,43604
114789,1101 E. UNIVERSITY AVE,FRESNO,CA,93741
201104,401 COLLEGE AVENUE,ASHLAND,OH,44805
203447,3300 LAKE ROAD WEST,ASHTABULA,OH,44004
186399,"249 UNIVERSITY AVENUE, BLUMENTHAL HALL",NEWARK,NJ,07102
115393,411 CENTRAL AVENUE,SALINAS,CA,93901
444219,10 COLLEGE PARKWAY,FOLSOM,CA,95630
116439,5500 IRVINE CENTER DRIVE,IRVINE,CA,92618
123341,5100 SIERRA COLLEGE BLVD,ROCKLIN,CA,95677
113096,8401 CENTER PARKWAY,SACRAMENTO,CA,95823
204006,1601 UNIVERSITY BLVD,HAMILTON,OH,45011
120971,1140 W. MISSION,SAN MARCOS,CA,92069
119164,1100 N GRAND AVE,WALNUT,CA,91789
207740,2701 BOREN BLVD,SEMINOLE,OK,74868
262086,16355 LAGUNA CANYON ROAD,IRVINE,CA,92618
366401,3000 CAMPUS HILL DRIVE,LIVERMORE,CA,94551
207722,17TH STREET AND GRAND AVENUE,CHICKASHA,OK,73018
383084,14101 E. NELSON AVE,LA PUENTE,CA,91746
400080,851 S. COOLEY DR,COLTON,CA,92324
186469,460 HOLLYWOOD AVENUE,CARNEYS POINT,NJ,08069
448594,555 COLLEGE AVENUE,LEMOORE,CA,93245
245953,3500 SW 119TH ST,OKLAHOMA CITY,OK,73170
245999,12777 N ROCKWELL AVE,OKLAHOMA CITY,OK,73142
186584,400 S ORANGE AVE,SOUTH ORANGE,NJ,07079
204024,501 EAST HIGH ST,OXFORD,OH,45056
186618,2 CONVENT RD,MORRISTOWN,NJ,07960
186645,118 LAMINGTON ROAD,BRANCHBURG,NJ,08876
186867,CASTLE POINT ON HUDSON,HOBOKEN,NJ,07030
206330,579 COLLEGE WAY,URBANA,OH,43078
241410,2250 BOULEVARD LUIS A. FERRE AGUAYO SUITE 608,PONCE,PR,00717
186876,101 VERA KING FARRIS DRIVE,GALLOWAY,NJ,08205
241720,180 JOSE OLIVER ST TRES MONJITAS  IND. PARK,SAN JUAN,PR,00918
241836,BETANCES # 49,SAN SEBASTIAN,PR,00685
195030,WILSON BLVD. - WALLIS HALL,ROCHESTER,NY,14627
112826,2600 MISSION BELL DR,SAN PABLO,CA,94806
195128,65 1ST STREET,TROY,NY,12180
113236,9200 VALLEY VIEW,CYPRESS,CA,90630
195304,ONE MEADWAY,BRONXVILLE,NY,10708
195322,78 WASHINGTON AVENUE,SCHENECTADY,NY,12305
187134,2000 PENNINGTON ROAD,EWING,NJ,08628
118277,9055 BALBOA AVENUE,SAN DIEGO,CA,92123
215275,150 FINOLI DRIVE,GREENSBURG,PA,15601
187444,300 POMPTON RD,WAYNE,NJ,07470
113856,1301 AVENIDA CESAR CHAVEZ,MONTEREY PARK,CA,91754
247603,ONE COLLEGE HILL ROAD,NEWTON,NJ,07860
113980,16007 CRENSHAW BLVD,TORRANCE,CA,90506
196006,10 UPPER COLLEGE DRIVE,ALFRED,NY,14802
117168,2222 LAGUNA CANYON RD,LAGUNA BEACH,CA,92651
196033,STATE ROUTE 7,COBLESKILL,NY,12043
124557,1111 FRANKLIN ST,OAKLAND,CA,94607
118772,12500 CAMPUS DR,OAKLAND,CA,94619
196079,4400 VESTAL PARKWAY EAST,VESTAL,NY,13850
125028,4667 TELEGRAPH RD,VENTURA,CA,93003
118888,5000 MACARTHUR BLVD,OAKLAND,CA,94613
196158,280 CENTRAL AVE,FREDONIA,NY,14063
125091,18422 BEAR VALLEY RD,VICTORVILLE,CA,92395
125170,2050 CENTER SREET,BERKELEY,CA,94704
196680,7 COLUMBIA CIR,ALBANY,NY,12203
115861,380 E. ATEN ROAD,IMPERIAL,CA,92251
461014,25 BROADWAY 16TH FLOOR,NEW YORK,NY,10004
127565,SPEER BLVD AND COLFAX AVE,DENVER,CO,80217
115409,301 PLATT BLVD.,CLAREMONT,CA,91711
123165,1030 NORTH COLUMBIA AVENUE,CLAREMONT,CA,91711
188641,ONE SAXON DRIVE,ALFRED,NY,14802
195474,515 LOUDON RD,LOUDONVILLE,NY,12211
190725,4380 MAIN ST,AMHERST,NY,14226
191719,80 VANDENBURGH AVE,TROY,NY,12180
206525,WARD ST AT N WITTENBERG AVE,SPRINGFIELD,OH,45504
242626,"CARR. 459 INT. 463, BARRIO CORRALES SECTOR CALERO",AGUADILLA,PR,00603
195058,145 COLLEGE RD,SUFFERN,NY,10901
242635,"HWY 2 KM 80.4, BO SAN DANIEL SECTOR LAS CANELAS",ARECIBO,PR,00614
242644,BO HELECHAL HIGHWAY 156 INTERSECTION 719,BARRANQUITAS,PR,00794
141264,1500 N PATTERSON ST,VALDOSTA,GA,31698
201973,570 E LEFFEL LN,SPRINGFIELD,OH,45501
201946,4200 CLERMONT COLLEGE DR,BATAVIA,OH,45103
242653,HIGHWAY #1 KM 16 3 CORNER FRANCISCO SEIN ST,SAN JUAN,PR,00919
242662,104 TURPEAUX INDUSTRIAL PARK RD1,MERCEDITA,PR,00715
242820,405 PONCE DE LEON AVE.,SAN JUAN,PR,00917
189088,ANNANDALE ROAD,ANNANDALE-ON-HUDSON,NY,12504
363907,AVE. EDNITA NAZARIO #1015,PONCE,PR,00716
119553,5900 DOYLE STREET,EMERYVILLE,CA,94608
192110,60 LINCOLN CENTER PLAZA,NEW YORK,NY,10023
190512,ONE BERNARD BARUCH WAY (55 LEXINGTON AVE AT 24TH ST),NEW YORK,NY,10010
240754,"303 UNIVERSITY DRIVE, UOG STATION",MANGILAO,GU,96923
455196,546 U.S. HIGHWAY 46,TETERBORO,NJ,07608
196468,525 W 120TH ST,NEW YORK,NY,10027
139968,419 COLLEGE DR,BARNESVILLE,GA,30204
204796,190 N. OVAL MALL,COLUMBUS,OH,43210
104151,UNIVERSITY DRIVE AND MILL AVENUE,TEMPE,AZ,85287
243832,560 PONCE DE LEON AVE.  CR. ARROYO ST.,SAN JUAN,PR,00919
141255,4089 VAL TECH RD,VALDOSTA,GA,31602
114840,135 N OAKLAND AVE,PASADENA,CA,91182
190150,WEST 116 ST AND BROADWAY,NEW YORK,NY,10027
155681,1701 S BROADWAY,PITTSBURG,KS,66762
206507,1870 QUAKER WAY,WILMINGTON,OH,45177
203492,2491 STATE ROUTE 45 SOUTH,SALEM,OH,44460
155061,600 PARK ST,HAYS,KS,67601
195720,3690 EAST AVE,ROCHESTER,NY,14618
193830,ADMINISTRATION BUILDING,VALHALLA,NY,10595
120254,1600 CAMPUS RD,LOS ANGELES,CA,90041
155715,348 NE SR 61,PRATT,KS,67124
459213,2121 S EL CAMINO REAL BLDG C 200,SAN MATEO,CA,94403
395362,6162 ROTARY WAY,JOSHUA TREE,CA,92252
115001,1500 N VERDUGO RD,GLENDALE,CA,91208
121707,7351 TOMPKINS HILL RD,EUREKA,CA,95501
194958,2265 WESTSIDE DR,ROCHESTER,NY,14624
120865,ONE ANGWIN AVE,ANGWIN,CA,94508
121150,24255 PACIFIC COAST HWY,MALIBU,CA,90263
118684,1000 HENSLEY CREEK ROAD,UKIAH,CA,95482
195003,1 LOMB MEMORIAL DR,ROCHESTER,NY,14623
260691,957 S. DOBSON ROAD,MESA,AZ,85202
241739,1399 AVE. ANA G. MNDEZ,SAN JUAN,PR,00926
241395,CARRETERA 662 KM 2.3,ARECIBO,PR,00614
197285,325 CENTRAL AVE,WHITE PLAINS,NY,10606
488077,8767 EAST VIA DE VENTURA,SCOTTSDALE,AZ,85258
460394,16130 LASSELLE ST,MORENO VALLEY,CA,92551
409698,100 CAMPUS CENTER,SEASIDE,CA,93955
456348,2233 WEST DUNLAP AVENUE,PHOENIX,AZ,85021
190576,365 FIFTH AVE,NEW YORK,NY,10016
124113,29 COUGAR COURT,TAFT,CA,93268
118930,3000 MISSION COLLEGE BLVD,SANTA CLARA,CA,95054
119067,980 FREMONT ST,MONTEREY,CA,93940
399212,8045 E CHAPMAN,ORANGE,CA,92869
190035,205 EAST 42ND STREET,NEW YORK,NY,10017
112561,11600 COLUMBIA COLLEGE DR,SONORA,CA,95370
120537,2500 E NUTWOOD AVE,FULLERTON,CA,92831
114859,321 E CHAPMAN AVENUE,FULLERTON,CA,92832
191126,227 W 27TH ST,NEW YORK,NY,10001
122205,28000 MARGUERITE PKY,MISSION VIEJO,CA,92692
115126,15744 GOLDENWEST ST.,HUNTINGTON BEACH,CA,92647
192712,120 CLAREMONT AVENUE,NEW YORK,NY,10027
112385,11460 WARNER AVE.,FOUNTAIN VALLEY,CA,92708
117627,4500 RIVERWALK PARKWAY,RIVERSIDE,CA,92505
443128,2711 NORTH FIRST STREET,SAN JOSE,CA,95134
120403,9045 LINCOLN BLVD,LOS ANGELES,CA,90045
189097,3009 BROADWAY,NEW YORK,NY,10027
190664,65-30 KISSENA BLVD,QUEENS,NY,11367
193405,"ONE GUSTAVE L LEVY PLACE, BOX 1217",NEW YORK,NY,10029
192864,221 E 71ST ST,NEW YORK,NY,10021
122375,7250 MESA COLLEGE DR,SAN DIEGO,CA,92111
242617,RD. 102 KM. 30.6,SAN GERMAN,PR,00683
242680,CALLE UNION-BATEY CENTRAL HIGHWAY 195,FAJARDO,PR,00738
119605,11255 NORTH TORREY PINES ROAD,LA JOLLA,CA,92037
190424,"1300 YORK AVE, C-114",NEW YORK,NY,10065
195049,1230 YORK AVENUE,NEW YORK,NY,10065
439190,18345 CAMPUS WAY NE,BOTHELL,WA,98011
114549,2020 DE LA VINA ST,SANTA BARBARA,CA,93105
235149,2000 TOWER STREET,EVERETT,WA,98201
236753,6501 S 19TH ST,TACOMA,WA,98466
204705,1179 UNIVERSITY DR,NEWARK,OH,43055
117636,11139 ANDERSON STREET,LOMA LINDA,CA,92350
243665,2 JOHN BREWERS BAY,CHARLOTTE AMALIE,VI,00802
117690,1111 FIGUEROA PLACE,WILMINGTON,CA,90744
117706,6201 WINNETKA AVE,WOODLAND HILLS,CA,91371
117715,1600 W. IMPERIAL HWY.,LOS ANGELES,CA,90047
197151,209 E 23RD ST,NEW YORK,NY,10010
117733,5800 FULTON AVENUE,VALLEY GLEN,CA,91401
242705,500 CARR. DR. JOHN WILL HARRIS,BAYAMON,PR,00957
202648,1973 EDISON DR,PIQUA,OH,45356
242699,BO MACHETE HIGHWAY 744 KM 1.2,GUAYAMA,PR,00784
123509,3300 COLLEGE DR,SAN BRUNO,CA,94066
487597,4175 E. CONANT STREET,LONG BEACH,CA,90808
196866,807 UNION ST,SCHENECTADY,NY,12308
242972,CARR. #2 EDIFICIO NATIONAL COLLEGE PLAZA,BAYAMON,PR,00960
193399,6301 RIVERDALE AVE,BRONX,NY,10471
243072,1213 ACACIA STREET VILLA FLORES URB,PONCE,PR,00716
243081,URB INDUSTRIAL REPARADA MARGINAL ST LOT 2,PONCE,PR,00732
121691,1200 E. COLTON AVE,REDLANDS,CA,92373
113111,11711 SAND CANYON ROAD,YUCAIPA,CA,92339
123572,1801 E COTATI AVE,ROHNERT PARK,CA,94928
117751,21726 PLACERITA CANYON ROAD,SANTA CLARITA,CA,91321
196291,6 PENNYFIELD AVENUE,THROGGS NECK,NY,10465
189547,907 UPPER FRONT ST,BINGHAMTON,NY,13905
117788,855 N VERMONT AVE,LOS ANGELES,CA,90029
117867,13356 ELDRIDGE AVENUE,SYLMAR,CA,91342
114354,919 S GRAND AVE,LOS ANGELES,CA,90015
125727,955 LA PAZ RD,SANTA BARBARA,CA,93108
119678,1 UNIVERSITY CIRCLE,MONTEREY,CA,93943
488679,1900 WEST 50TH STREET,MARION,IN,46953
196130,1300 ELMWOOD AVE,BUFFALO,NY,14222
243221,39 PONCE DE LEON  AVE,SAN JUAN,PR,00931
487320,3801 CAMPUS DRIVE,WACO,TX,76705
118976,435 COLLEGE AVE,MODESTO,CA,95350
459949,ONE UNIVERSITY WAY,SAN ANTONIO,TX,78224
243346,CARR. # 190 ESQ. CALLE 220 BO. SABANA ABAJO,CAROLINA,PR,00985
485537,11937 US HIGHWAY 271,TYLER,TX,75708
243577,377 PONCE DE LEON AVE,HATO REY,PR,00919
486798,243A GREENS ROAD,HOUSTON,TX,77060
190567,160 CONVENT AVE,NEW YORK,NY,10031
114716,12345 EL MONTE RD,LOS ALTOS HILLS,CA,94022
120184,1500 RALSTON AVE,BELMONT,CA,94002
120342,2701 FAIRVIEW ROAD,COSTA MESA,CA,92626
120698,1791 ARASTRADERO RD,PALO ALTO,CA,94304
122755,ONE WASHINGTON SQUARE,SAN JOSE,CA,95192
190521,199 CHAMBERS ST,NEW YORK,NY,10007
120883,3601 PACIFIC AVE,STOCKTON,CA,95211
189413,3755 BROADWAY,NEW YORK,NY,10032
113333,21250 STEVENS CREEK BLVD.,CUPERTINO,CA,95014
193751,2360 STATE ROUTE 89,SENECA FALLS,NY,13148
262129,5800 BAY SHORE ROAD,SARASOTA,FL,34243
441760,855 E LAVACA,BEAUMONT,TX,77705
190442,1 ACADEMIC DR,CORNING,NY,14830
120953,ONE COLLEGE DRIVE,BLYTHE,CA,92225
122339,1313 PARK BOULEVARD,SAN DIEGO,CA,92101
195216,23 ROMODA DRIVE,CANTON,NY,13617
122384,10440 BLACK MOUNTAIN RD,SAN DIEGO,CA,92126
418320,27438 STATE HWY 59,WAYNE,OK,73095
191621,5200 S PARK AVE,HAMBURG,NY,14075
243744,NOT AVAILABLE,STANFORD,CA,94305
460464,2001 THIRD ST,NORCO,CA,92860
193326,1000 E HENRIETTA RD,ROCHESTER,NY,14623
196121,350 NEW CAMPUS DR,BROCKPORT,NY,14420
204264,163 STORMONT STREET,NEW CONCORD,OH,43762
436429,6363 SUNSET BLVD,HOLLYWOOD,CA,90028
196237,223 STORE HILL RD,OLD WESTBURY,NY,11568
441371,1255 CLEVELAND ST,CLEARWATER,FL,33755
204477,4209 STATE ROUTE 44,ROOTSTOWN,OH,44272
204680,1760 UNIVERSITY DRIVE,MANSFIELD,OH,44906
122409,5500 CAMPANILE DR,SAN DIEGO,CA,92182
193478,ONE EDUCATION DR,GARDEN CITY,NY,11530
122436,5998 ALCALA PARK,SAN DIEGO,CA,92110
204820,101 UNIVERSITY DRIVE,CHILLICOTHE,OH,45601
475565,50 WEST 40TH STREET,NEW YORK,NY,10018
206011,2830 NAPOLEON RD,FREMONT,OH,43420
205443,940  SECOND  ST,PORTSMOUTH,OH,45662
193946,3111 SAUNDERS SETTLEMENT RD,SANBORN,NY,14132
119331,2277 NAPA-VALLEJO HWY,NAPA,CA,94558
243443,CALLE ROSALES ESQ SAN ANTONIO PDA 26 1/2,SANTURCE,PR,00907
454786,81 HIGUERA ST STE 110,SAN LUIS OBISPO,CA,93401
243586,482 SUR CALLE RAMON EMERITO BETANCES,MAYAGUEZ,PR,00680
193353,330 POWELL AVENUE,NEWBURGH,NY,12550
414461,NUM 39-40 B ST W INDUSTRIAL PK,CAGUAS,PR,00725
191533,ONE HARTWICK DRIVE,ONEONTA,NY,13820
194824,110 8TH ST,TROY,NY,12180
195243,125 RTE 340,SPARKILL,NY,10976
122931,500 EL CAMINO REAL,SANTA CLARA,CA,95053
122977,1900 PICO BLVD,SANTA MONICA,CA,90405
123527,701 SOUTH MOUNT VERNON AVENUE,SAN BERNARDINO,CA,92410
123651,55 FAIR DR,COSTA MESA,CA,92626
480091,180 REDTAIL RD,ORCHARD PARK,NY,14127
196219,735 ANDERSON HILL RD,PURCHASE,NY,10577
123800,900 OTAY LAKES RD,CHULA VISTA,CA,91910
192749,2900 PURCHASE ST,PURCHASE,NY,10577
203845,IRVINE BLDG,MARIETTA,OH,45750
191931,715 NORTH AVE,NEW ROCHELLE,NY,10801
125462,300 CHERRY LANE,COALINGA,CA,93210
125471,9000 OVERLAND AVENUE,CULVER CITY,CA,90230
115755,1 HARPST STREET,ARCATA,CA,95521
203128,NOT AVAILABLE,HIRAM,OH,44234
112686,1111 EAST ARTESIA BLVD.,COMPTON,CA,90221
117724,400 W WASHINGTON BLVD,LOS ANGELES,CA,90015
440651,PASEO DEL ATENAS  #101,MANATI,PR,00674
444583,229 GUAYAMA ST,HATO REY,PR,00917
188340,86-01 23RD AVENUE,FLUSHING,NY,11369
204015,4200 E UNIVERSITY BLVD,MIDDLETOWN,OH,45042
204194,800 MARTINSBURG RD,MOUNT VERNON,OH,43050
204200,5701 DELHI RD,CINCINNATI,OH,45233
190114,60 WEST STREET,NEW YORK,NY,10006
203331,4000 SUNSET BLVD,STEUBENVILLE,OH,43952
205957,1235 UNIVERSITY BLVD,STEUBENVILLE,OH,43952
204839,1804 LIBERTY AVE,IRONTON,OH,45638
125763,13406 E PHILADELPHIA STREET,WHITTIER,CA,90601
193821,185 WEST BROADWAY,NEW YORK,NY,10013
203456,400 E 4TH ST,EAST LIVERPOOL,OH,43920
197027,300 STEAMBOAT RD,KINGS POINT,NY,11024
197045,1600 BURRSTONE RD,UTICA,NY,13502
201432,ONE UNIVERSITY DRIVE,HURON,OH,44839
119173,12001 CHALON RD,LOS ANGELES,CA,90049
204848,1570 GRANVILLE PIKE,LANCASTER,OH,43130
203526,14111 CLARIDON-TROY RD,BURTON,OH,44021
440828,1500 SW CHANDLER AVENUE,BEND,OR,97702
206279,440 E MCMILLAN ST,CINCINNATI,OH,45206
204440,22600 STATE ROUTE 34,ARCHBOLD,OH,43502
202523,100 WEST COLLEGE STREET,GRANVILLE,OH,43023
206048,155 MIAMI STREET,TIFFIN,OH,44883
206437,2020 EAST MAPLE ST,NORTH CANTON,OH,44720
203775,2600 CLEVELAND AVENUE NW,CANTON,OH,44709
482574,1350 ALUM CREEK DR.,COLUMBUS,OH,43209
215293,4200 FIFTH AVENUE,PITTSBURGH,PA,15260
201885,2624 CLIFTON AVENUE,CINCINNATI,OH,45221
197133,124 RAYMOND AVE,POUGHKEEPSIE,NY,12604
475033,"40 W 20TH ST, 7TH FL",NEW YORK,NY,10011
204468,4545 COLLEGE RD,CLEVELAND,OH,44121
195234,432 WESTERN AVE,ALBANY,NY,12203
196015,34 CORNELL DRIVE,CANTON,NY,13617
201548,1 COLLEGE AND MAIN,COLUMBUS,OH,43209
121886,3600 WORKMAN MILL RD,WHITTIER,CA,90601
410502,5250 LANKERSHIM BLVD,NORTH HOLLYWOOD,CA,91601
112172,1000 W FOOTHILL BLVD,GLENDORA,CA,91741
115728,3500 MOUNTAIN BLVD,OAKLAND,CA,94619
248606,4701 12TH AVENUE NW,NORMAN,OK,73069
363165,1900 SPRINGLAKE DRIVE,OKLAHOMA CITY,OK,73111
365374,6505 E HWY 66,EL RENO,OK,73036
190983,ONE PARK PLACE,ELMIRA,NY,14901
191612,100 RESERVOIR RD,HERKIMER,NY,13350
191630,337 PULTENEY STREET,GENEVA,NY,14456
127820,5675 S ACADEMY BLVD,COLORADO SPRINGS,CO,80906
191649,100 HOFSTRA UNIVERSITY,HEMPSTEAD,NY,11549
192022,1220 COFFEEN ST,WATERTOWN,NY,13601
192323,1419 SALT SPRINGS RD,SYRACUSE,NY,13214
204255,1555 NEWARK RD,ZANESVILLE,OH,43701
132851,3001 SW COLLEGE RD,OCALA,FL,34474
197018,191 RODNEY ST.,BROOKLYN,NY,11211
139366,4225 UNIVERSITY AVE,COLUMBUS,GA,31907
215284,450 SCHOOLHOUSE ROAD,JOHNSTOWN,PA,15904
207847,425 W. UNIVERSITY BLVD,DURANT,OK,74701
202134,2121 EUCLID AVENUE,CLEVELAND,OH,44115
196176,1 HAWK DRIVE,NEW PALTZ,NY,12561
196185,108 RAVINE PARKWAY,ONEONTA,NY,13820
207865,100 CAMPUS DR,WEATHERFORD,OK,73096
204422,2441 KENWOOD CIRCLE,MANSFIELD,OH,44901
119270,6752 HOLLYWOOD BLVD.,HOLLYWOOD,CA,90028
208035,2801 N MAIN ST,ALTUS,OK,73521
193584,4245 EAST AVE,ROCHESTER,NY,14618
156231,1400 COLLEGE DRIVE,ASHLAND,KY,41101
193645,29 CASTLE PL,NEW ROCHELLE,NY,10805
196042,2350 BROADHOLLOW ROAD,FARMINGDALE,NY,11735
196112,100 SEYMOUR RD,UTICA,NY,13502
196149,MILLER BUILDING,CORTLAND,NY,13045
207670,6420 S E 15TH,MIDWEST CITY,OK,73110
204486,1441 N CABLE RD,LIMA,OH,45805
200800,302 BUCHTEL COMMON,AKRON,OH,44325
118541,30800 PALOS VERDES DRIVE EAST,RANCHO PALOS VERDES,CA,90275
189848,22 SULLIVAN ST,CAZENOVIA,NY,13035
190248,171 WHITE PLAINS RD,BRONXVILLE,NY,10708
225432,1 MAIN STREET,HOUSTON,TX,77002
190503,1946 CAMPUS DRIVE,HYDE PARK,NY,12538
190628,31-10 THOMSON AVE,LONG ISLAND CITY,NY,11101
201371,1 UNIVERSITY DRIVE,BLUFFTON,OH,45817
190637,250 BEDFORD PARK BLVD WEST,BRONX,NY,10468
132657,3601 N. MILITARY TRAIL,BOCA RATON,FL,33431
201441,220 MCFALL CTR,BOWLING GREEN,OH,43403
170286,33 E COLLEGE ST,HILLSDALE,MI,49242
201195,275 EASTLAND RD,BEREA,OH,44017
201654,251 N. MAIN STREET,CEDARVILLE,OH,45314
201690,1400 BRUSH ROW RD,WILBERFORCE,OH,45384
484473,341 TIGERT HALL  300 SW 13TH ST,GAINESVILLE,FL,32611
202480,300 COLLEGE PARK,DAYTON,OH,45469
130606,271 SCOTT SWAMP ROAD,FARMINGTON,CT,06032
203386,4140 EXECUTIVE PARKWAY,WESTERVILLE,OH,43081
203465,6000 FRANK AVE NW,CANTON,OH,44720
203483,330 UNIVERSITY DR N.E.,NEW PHILADELPHIA,OH,44663
138275,13895 HWY 27,LAKE WALES,FL,33859
138354,11000 UNIVERSITY PARKWAY,PENSACOLA,FL,32514
448433,4100 DUCKHORN DRIVE,SACRAMENTO,CA,95834
157289,2301 S 3RD ST,LOUISVILLE,KY,40292
203535,KENYON COLLEGE,GAMBIER,OH,43022
203580,391 W WASHINGTON ST,PAINESVILLE,OH,44077
445027,"231 N. MARTINGALE RD., 6TH FLOOR",SCHAUMBURG,IL,60173
132374,4700 COCONUT CREEK PARKWAY,COCONUT CREEK,FL,33063
483045,80 COHEN WALKER DRIVE,WARNER ROBINS,GA,31088
112251,150 E TENTH ST,CLAREMONT,CA,91711
122791,1700 W HILLSDALE BLVD,SAN MATEO,CA,94402
200846,1901 SMUCKER RD,ORRVILLE,OH,44667
204617,1216 SUNBURY ROAD,COLUMBUS,OH,43219
202170,60 CLEVELAND AVE.,COLUMBUS,OH,43215
155900,100 COLLEGE STREET,WINFIELD,KS,67156
132842,2173 N.W. 99TH AVENUE,MIAMI,FL,33172
133021,3094 INDIAN CIRCLE,MARIANNA,FL,32446
204635,525 S. MAIN ST,ADA,OH,45810
203748,1005 NORTH ABBE RD,ELYRIA,OH,44035
204501,70 N PROFESSOR ST,OBERLIN,OH,44074
133492,4200 54TH AVE S,SAINT PETERSBURG,FL,33711
201955,9555 PLAINFIELD RD,BLUE ASH,OH,45236
133553,600 S CLYDE MORRIS BLVD,DAYTONA BEACH,FL,32114
134237,3300 UNIVERSITY BLVD,WINTER PARK,FL,32792
206604,3640 COLONEL GLENN HIGHWAY,DAYTON,OH,45435
138187,1768 PARK CENTER DRIVE,ORLANDO,FL,32835
204857,020 CHUBB HALL,ATHENS,OH,45701
204909,61 S SANDUSKY STREET,DELAWARE,OH,43015
157951,1906 COLLEGE HEIGHTS BLVD,BOWLING GREEN,KY,42101
138479,6500 NOVA DRIVE,DAVIE,FL,33317
487472,989 NORTH SEMORAN BOULEVARD,ORLANDO,FL,32807
487162,15689 US HWY 19 NORTH,THOMASVILLE,GA,31792
138372,955 E STORY RD,WINTER GARDEN,FL,34787
204936,1 SOUTH GROVE STREET,WESTERVILLE,OH,43081
156134,2051 SOUTH MERIDIAN,WICHITA,KS,67213
138488,901 WEBSTER AVE,WINTER PARK,FL,32789
487092,801 EMORY STREET,OXFORD,GA,30054
156620,521 LANCASTER AVE,RICHMOND,KY,40475
155812,4100 S 4TH ST TRAFFICWAY,LEAVENWORTH,KS,66048
369400,9751 DELEGATES DR,ORLANDO,FL,32837
155858,1801 N. KANSAS AVE.,LIBERAL,KS,67901
206622,3800 VICTORY PARKWAY,CINCINNATI,OH,45207
376695,OCEANSIDE ULIGA - PO BOX 1258,MAJURO,MH,96960
487524,1 COLLEGE CIRCLE,BANGOR,ME,04401
442329,3500 SOUTHSIDE BLVD,JACKSONVILLE,FL,32216
201645,10900 EUCLID AVE,CLEVELAND,OH,44106
206349,2550 LANDER RD,PEPPER PIKE,OH,44124
454810,"637 S BROADWAY, STE H",BOULDER,CO,80305
240745,1 SESAME STREET,MANGILAO,GU,96913
204866,1425 NEWARK RD,ZANESVILLE,OH,43701
406033,"7411 JOHN SMITH DRIVE, SUITE 300",SAN ANTONIO,TX,78229
139579,709 MALL BLVD,SAVANNAH,GA,31406
426314,600 S. CLYDE MORRIS BLVD.,DAYTONA BEACH,FL,32114
221908,2425 HWY 75,BLOUNTVILLE,TN,37617
443252,"720 NW 27TH AVENUE, 2ND FLOOR",MIAMI,FL,33125
221397,276 PATTON LANE,HARRIMAN,TN,37748
230861,660 ELM STREET,MONTPELIER,VT,05602
447582,280 UNIVERSITY DRIVE,BEAVER,WV,25813
217776,907 WESLEYAN DRIVE,CENTRAL,SC,29630
